"STATION","DATE","REPORT_TYPE","SOURCE","AWND","BackupDirection","BackupDistance","BackupDistanceUnit","BackupElements","BackupElevation","BackupElevationUnit","BackupEquipment","BackupLatitude","BackupLongitude","BackupName","CDSD","CLDD","DSNW","DailyAverageDewPointTemperature","DailyAverageDryBulbTemperature","DailyAverageRelativeHumidity","DailyAverageSeaLevelPressure","DailyAverageStationPressure","DailyAverageWetBulbTemperature","DailyAverageWindSpeed","DailyCoolingDegreeDays","DailyDepartureFromNormalAverageTemperature","DailyHeatingDegreeDays","DailyMaximumDryBulbTemperature","DailyMinimumDryBulbTemperature","DailyPeakWindDirection","DailyPeakWindSpeed","DailyPrecipitation","DailySnowDepth","DailySnowfall","DailySustainedWindDirection","DailySustainedWindSpeed","DailyWeather","HDSD","HTDD","HeavyFog","HourlyAltimeterSetting","HourlyDewPointTemperature","HourlyDryBulbTemperature","HourlyPrecipitation","HourlyPresentWeatherType","HourlyPressureChange","HourlyPressureTendency","HourlyRelativeHumidity","HourlySeaLevelPressure","HourlySkyConditions","HourlyStationPressure","HourlyVisibility","HourlyWetBulbTemperature","HourlyWindDirection","HourlyWindGustSpeed","HourlyWindSpeed","MonthlyAverageRH","MonthlyDaysWithGT001Precip","MonthlyDaysWithGT010Precip","MonthlyDaysWithGT32Temp","MonthlyDaysWithGT90Temp","MonthlyDaysWithLT0Temp","MonthlyDaysWithLT32Temp","MonthlyDepartureFromNormalAverageTemperature","MonthlyDepartureFromNormalCoolingDegreeDays","MonthlyDepartureFromNormalHeatingDegreeDays","MonthlyDepartureFromNormalMaximumTemperature","MonthlyDepartureFromNormalMinimumTemperature","MonthlyDepartureFromNormalPrecipitation","MonthlyDewpointTemperature","MonthlyGreatestPrecip","MonthlyGreatestPrecipDate","MonthlyGreatestSnowDepth","MonthlyGreatestSnowDepthDate","MonthlyGreatestSnowfall","MonthlyGreatestSnowfallDate","MonthlyMaxSeaLevelPressureValue","MonthlyMaxSeaLevelPressureValueDate","MonthlyMaxSeaLevelPressureValueTime","MonthlyMaximumTemperature","MonthlyMeanTemperature","MonthlyMinSeaLevelPressureValue","MonthlyMinSeaLevelPressureValueDate","MonthlyMinSeaLevelPressureValueTime","MonthlyMinimumTemperature","MonthlySeaLevelPressure","MonthlyStationPressure","MonthlyTotalLiquidPrecipitation","MonthlyTotalSnowfall","MonthlyWetBulb","NormalsCoolingDegreeDay","NormalsHeatingDegreeDay","REM","REPORT_TYPE","SOURCE","ShortDurationEndDate005","ShortDurationEndDate010","ShortDurationEndDate015","ShortDurationEndDate020","ShortDurationEndDate030","ShortDurationEndDate045","ShortDurationEndDate060","ShortDurationEndDate080","ShortDurationEndDate100","ShortDurationEndDate120","ShortDurationEndDate150","ShortDurationEndDate180","ShortDurationPrecipitationValue005","ShortDurationPrecipitationValue010","ShortDurationPrecipitationValue015","ShortDurationPrecipitationValue020","ShortDurationPrecipitationValue030","ShortDurationPrecipitationValue045","ShortDurationPrecipitationValue060","ShortDurationPrecipitationValue080","ShortDurationPrecipitationValue100","ShortDurationPrecipitationValue120","ShortDurationPrecipitationValue150","ShortDurationPrecipitationValue180","Sunrise","Sunset","TStorms","WindEquipmentChangeDate"
"72306013722","2020-05-01T00:51:00","FM-15","7",,,,,,,,,,,,,,,,,,,,,,,,,,,,,,,,,,,,,,"29.75","51","54","0.00",,"+0.01","8","90","29.74","FEW:02 60 BKN:07 75 BKN:07 85","29.28","10.00","52","220",,"3",,,,,,,,,,,,,,,,,,,,,,,,,,,,,,,,,,,,,"MET13105/01/20 00:51:02 METAR KRDU 010551Z 22003KT 10SM FEW060 BKN075 BKN085 12/11 A2975 RMK AO2 SLP070 T01220106 10167 20122 58002 (AWB)","FM-15","7",,,,,,,,,,,,,,,,,,,,,,,,,,,,"2009-07-08"
"72306013722","2020-05-01T01:00:00","FM-12","4",,,,,,,,,,,,,,,,,,,,,,,,,,,,,,,,,,,,,,,"51","54",,,"+0.01","8","90","29.74","57","29.29","9.94","52","220",,"3",,,,,,,,,,,,,,,,,,,,,,,,,,,,,,,,,,,,,"SYN08072306 32766 62203 10122 20106 39920 40070 58002 90551 333 10167 20122 555 90106=","FM-12","4",,,,,,,,,,,,,,,,,,,,,,,,,,,,"2009-07-08"
"72306013722","2020-05-01T01:51:00","FM-15","7",,,,,,,,,,,,,,,,,,,,,,,,,,,,,,,,,,,,,,"29.75","52","55","0.00",,,,"90","29.75","BKN:07 65 BKN:07 90 BKN:07 250","29.28","10.00","53","260",,"3",,,,,,,,,,,,,,,,,,,,,,,,,,,,,,,,,,,,,"MET11305/01/20 01:51:02 METAR KRDU 010651Z 26003KT 10SM BKN065 BKN090 BKN250 13/11 A2975 RMK AO2 SLP073 T01280111 (AWB)","FM-15","7",,,,,,,,,,,,,,,,,,,,,,,,,,,,"2009-07-08"
"72306013722","2020-05-01T02:51:00","FM-15","7",,,,,,,,,,,,,,,,,,,,,,,,,,,,,,,,,,,,,,"29.75","51","55","0.00",,,,"87","29.74","FEW:02 65 SCT:04 85 BKN:07 95","29.28","10.00","53","300",,"3",,,,,,,,,,,,,,,,,,,,,,,,,,,,,,,,,,,,,"MET11305/01/20 02:51:02 METAR KRDU 010751Z 30003KT 10SM FEW065 SCT085 BKN095 13/11 A2975 RMK AO2 SLP071 T01280106 (AWB)","FM-15","7",,,,,,,,,,,,,,,,,,,,,,,,,,,,"2009-07-08"
"72306013722","2020-05-01T03:51:00","FM-15","7",,,,,,,,,,,,,,,,,,,,,,,,,,,,,,,,,,,,,,"29.75","51","54","0.00",,"-0.01","2","90","29.75","BKN:07 70 BKN:07 85 BKN:07 95","29.28","10.00","52","260",,"5",,,,,,,,,,,,,,,,,,,,,,,,,,,,,,,,,,,,,"MET11905/01/20 03:51:02 METAR KRDU 010851Z 26004KT 10SM BKN070 BKN085 BKN095 12/11 A2975 RMK AO2 SLP074 T01220106 52003 (AWB)","FM-15","7",,,,,,,,,,,,,,,,,,,,,,,,,,,,"2009-07-08"
"72306013722","2020-05-01T04:51:00","FM-15","7",,,,,,,,,,,,,,,,,,,,,,,,,,,,,,,,,,,,,,"29.77","48","54","0.00",,,,"80","29.76","SCT:04 60 BKN:07 85 BKN:07 100","29.30","10.00","51","VRB",,"3",,,,,,,,,,,,,,,,,,,,,,,,,,,,,,,,,,,,,"MET11305/01/20 04:51:02 METAR KRDU 010951Z VRB03KT 10SM SCT060 BKN085 BKN100 12/09 A2977 RMK AO2 SLP079 T01220089 (AWB)","FM-15","7",,,,,,,,,,,,,,,,,,,,,,,,,,,,"2009-07-08"
"72306013722","2020-05-01T05:51:00","FM-15","7",,,,,,,,,,,,,,,,,,,,,,,,,,,,,,,,,,,,,,"29.80","46","54","0.00",,,,"75","29.79","FEW:02 60 FEW:02 85 BKN:07 110","29.33","10.00","50","290",,"6",,,,,,,,,,,,,,,,,,,,,,,,,,,,,,,,,,,,,"MET11305/01/20 05:51:02 METAR KRDU 011051Z 29005KT 10SM FEW060 FEW085 BKN110 12/08 A2980 RMK AO2 SLP087 T01220078 (AWB)","FM-15","7",,,,,,,,,,,,,,,,,,,,,,,,,,,,"2009-07-08"
"72306013722","2020-05-01T06:51:00","FM-15","7",,,,,,,,,,,,,,,,,,,,,,,,,,,,,,,,,,,,,,"29.82","45","53","T","-RA:02 |RA |RA","-0.07","3","74","29.82","BKN:07 70 BKN:07 120 BKN:07 250","29.35","10.00","49","300",,"6",,,,,,,,,,,,,,,,,,,,,,,,,,,,,,,,,,,,,"MET15905/01/20 06:51:02 METAR KRDU 011151Z 30005KT 10SM -RA BKN070 BKN120 BKN250 12/07 A2982 RMK AO2 RAB51 SLP097 P0000 60000 70046 T01170072 10128 20117 53023 (KAH)","FM-15","7",,,,,,,,,,,,,,,,,,,,,,,,,,,,"2009-07-08"
"72306013722","2020-05-01T07:00:00","FM-12","4",,,,,,,,,,,,,,,,,,,,,,,,,,,,,,,,,,,,,,,"45","53",,"||RA","-0.07","3","74","29.82","74","29.36","9.94","49","300",,"6",,,,,,,,,,,,,,,,,,,,,,,,,,,,,,,,,,,,,"SYN09872306 11866 63005 10117 20072 39943 40097 53023 69901 761// 91151 333 10206 20117 70117 555 90112=","FM-12","4",,,,,,,,,,,,,,,,,,,,,,,,,,,,"2009-07-08"
"72306013722","2020-05-01T07:51:00","FM-15","7",,,,,,,,,,,,,,,,,,,,,,,,,,,,,,,,,,,,,,"29.83","45","53","T",,,,"74","29.83","SCT:04 60 BKN:07 85 BKN:07 110","29.36","10.00","49","290",,"9",,,,,,,,,,,,,,,,,,,,,,,,,,,,,,,,,,,,,"MET12505/01/20 07:51:02 METAR KRDU 011251Z 29008KT 10SM SCT060 BKN085 BKN110 12/07 A2983 RMK AO2 RAE50 SLP100 P0000 T01170072 (KAH)","FM-15","7",,,,,,,,,,,,,,,,,,,,,,,,,,,,"2009-07-08"
"72306013722","2020-05-01T08:51:00","FM-15","7",,,,,,,,,,,,,,,,,,,,,,,,,,,,,,,,,,,,,,"29.84","45","58","0.00",,,,"62","29.83","FEW:02 30 FEW:02 60 SCT:04 110","29.37","10.00","51","VRB","18","6",,,,,,,,,,,,,,,,,,,,,,,,,,,,,,,,,,,,,"MET11605/01/20 08:51:02 METAR KRDU 011351Z VRB05G16KT 10SM FEW030 FEW060 SCT110 14/07 A2984 RMK AO2 SLP101 T01440072 (KAH)","FM-15","7",,,,,,,,,,,,,,,,,,,,,,,,,,,,"2009-07-08"
"72306013722","2020-05-01T09:51:00","FM-15","7",,,,,,,,,,,,,,,,,,,,,,,,,,,,,,,,,,,,,,"29.85","44","59","0.00",,"-0.03","3","58","29.84","SCT:04 35 BKN:07 90 BKN:07 250","29.38","10.00","51","290","22","14",,,,,,,,,,,,,,,,,,,,,,,,,,,,,,,,,,,,,"MET12805/01/20 09:51:02 METAR KRDU 011451Z 29012G19KT 10SM SCT035 BKN090 BKN250 15/07 A2985 RMK AO2 SLP106 60000 T01500067 53009 (KAH)","FM-15","7",,,,,,,,,,,,,,,,,,,,,,,,,,,,"2009-07-08"
"72306013722","2020-05-01T10:51:00","FM-15","7",,,,,,,,,,,,,,,,,,,,,,,,,,,,,,,,,,,,,,"29.86","46","62","0.00",,,,"56","29.85","BKN:07 40 BKN:07 250","29.39","10.00","54","VRB","20","11",,,,,,,,,,,,,,,,,,,,,,,,,,,,,,,,,,,,,"MET10905/01/20 10:51:02 METAR KRDU 011551Z 27010G17KT 10SM BKN040 BKN250 17/08 A2986 RMK AO2 SLP109 T01670078 (KAH)","FM-15","7",,,,,,,,,,,,,,,,,,,,,,,,,,,,"2009-07-08"
"72306013722","2020-05-01T11:51:00","FM-15","7",,,,,,,,,,,,,,,,,,,,,,,,,,,,,,,,,,,,,,"29.86","45","62","0.00",,,,"54","29.85","BKN:07 43 BKN:07 250","29.39","10.00","53","VRB","16","9",,,,,,,,,,,,,,,,,,,,,,,,,,,,,,,,,,,,,"MET10905/01/20 11:51:02 METAR KRDU 011651Z 31008G14KT 10SM BKN043 BKN250 17/07 A2986 RMK AO2 SLP108 T01670072 (KAH)","FM-15","7",,,,,,,,,,,,,,,,,,,,,,,,,,,,"2009-07-08"
"72306013722","2020-05-01T12:51:00","FM-15","7",,,,,,,,,,,,,,,,,,,,,,,,,,,,,,,,,,,,,,"29.85","46","64","0.00",,"-0.00","0","52","29.84","BKN:07 45 BKN:07 250","29.38","10.00","54","270","22","14",,,,,,,,,,,,,,,,,,,,,,,,,,,,,,,,,,,,,"MET13305/01/20 12:51:02 METAR KRDU 011751Z 27012G19KT 10SM BKN045 BKN250 18/08 A2985 RMK AO2 SLP106 60000 T01780078 10183 20117 50000 (KAH)","FM-15","7",,,,,,,,,,,,,,,,,,,,,,,,,,,,"2009-07-08"
"72306013722","2020-05-01T13:00:00","FM-12","4",,,,,,,,,,,,,,,,,,,,,,,,,,,,,,,,,,,,,,,"46","64",,,"0.00","9","52","29.84","41","29.39","9.94","54","270",,"14",,,,,,,,,,,,,,,,,,,,,,,,,,,,,,,,,,,,,"SYN09272306 12666 62712 10178 20078 39953 40106 50000 69901 91751 333 10183 20117 91019 555 90118=","FM-12","4",,,,,,,,,,,,,,,,,,,,,,,,,,,,"2009-07-08"
"72306013722","2020-05-01T13:51:00","FM-15","7",,,,,,,,,,,,,,,,,,,,,,,,,,,,,,,,,,,,,,"29.86","45","64","0.00",,,,"50","29.85","BKN:07 47 BKN:07 85 BKN:07 250","29.39","10.00","54","330","20","9",,,,,,,,,,,,,,,,,,,,,,,,,,,,,,,,,,,,,"MET11605/01/20 13:51:02 METAR KRDU 011851Z 33008G17KT 10SM BKN047 BKN085 BKN250 18/07 A2986 RMK AO2 SLP110 T01780072 (KAH)","FM-15","7",,,,,,,,,,,,,,,,,,,,,,,,,,,,"2009-07-08"
"72306013722","2020-05-01T14:51:00","FM-15","7",,,,,,,,,,,,,,,,,,,,,,,,,,,,,,,,,,,,,,"29.86","44","63","0.00",,,,"50","29.85","BKN:07 50 BKN:07 80 BKN:07 250","29.39","10.00","53","280",,"10",,,,,,,,,,,,,,,,,,,,,,,,,,,,,,,,,,,,,"MET11305/01/20 14:51:02 METAR KRDU 011951Z 28009KT 10SM BKN050 BKN080 BKN250 17/07 A2986 RMK AO2 SLP110 T01720067 (KAH)","FM-15","7",,,,,,,,,,,,,,,,,,,,,,,,,,,,"2009-07-08"
"72306013722","2020-05-01T15:51:00","FM-15","7",,,,,,,,,,,,,,,,,,,,,,,,,,,,,,,,,,,,,,"29.88","51","62","0.02","|RA |RA","-0.03","3","67","29.87","BKN:07 55 BKN:07 75 BKN:07 90","29.41","10.00","56","300",,"3",,,,,,,,,,,,,,,,,,,,,,,,,,,,,,,,,,,,,"MET14105/01/20 15:51:02 METAR KRDU 012051Z 30003KT 10SM -RA BKN055 BKN075 BKN090 17/11 A2988 RMK AO2 RAB17 SLP116 P0002 60002 T01670106 53010 (JBA)","FM-15","7",,,,,,,,,,,,,,,,,,,,,,,,,,,,"2009-07-08"
"72306013722","2020-05-01T16:51:00","FM-15","7",,,,,,,,,,,,,,,,,,,,,,,,,,,,,,,,,,,,,,"29.90","46","61","T",,,,"58","29.89","FEW:02 60 BKN:07 75 BKN:07 90","29.43","10.00","53","290",,"8",,,,,,,,,,,,,,,,,,,,,,,,,,,,,,,,,,,,,"MET13305/01/20 16:51:02 METAR KRDU 012151Z 29007KT 10SM FEW060 BKN075 BKN090 16/08 A2990 RMK AO2 RAE2052B39E48 SLP122 P0000 T01610078 (JBA)","FM-15","7",,,,,,,,,,,,,,,,,,,,,,,,,,,,"2009-07-08"
"72306013722","2020-05-01T17:51:00","FM-15","7",,,,,,,,,,,,,,,,,,,,,,,,,,,,,,,,,,,,,,"29.93","42","62","0.00",,,,"48","29.92","SCT:04 55 BKN:07 75 BKN:07 90","29.46","10.00","52","VRB","21","9",,,,,,,,,,,,,,,,,,,,,,,,,,,,,,,,,,,,,"MET11605/01/20 17:51:02 METAR KRDU 012251Z 32008G18KT 10SM SCT055 BKN075 BKN090 17/06 A2993 RMK AO2 SLP132 T01670056 (JBA)","FM-15","7",,,,,,,,,,,,,,,,,,,,,,,,,,,,"2009-07-08"
"72306013722","2020-05-01T18:51:00","FM-15","7",,,,,,,,,,,,,,,,,,,,,,,,,,,,,,,,,,,,,,"29.96","43","60","0.00",,"-0.08","3","53","29.96","SCT:04 60 SCT:04 90","29.49","10.00","51","300","16","8",,,,,,,,,,,,,,,,,,,,,,,,,,,,,,,,,,,,,"MET13305/01/20 18:51:02 METAR KRDU 012351Z 30007G14KT 10SM SCT060 SCT090 16/06 A2996 RMK AO2 SLP144 60002 T01560061 10189 20150 53027 (JBA)","FM-15","7",,,,,,,,,,,,,,,,,,,,,,,,,,,,"2009-07-08"
"72306013722","2020-05-01T19:00:00","FM-12","4",,,,,,,,,,,,,,,,,,,,,,,,,,,,,,,,,,,,,,,"43","60",,,"-0.08","3","53","29.96","57","29.50","9.94","51","300",,"8",,,,,,,,,,,,,,,,,,,,,,,,,,,,,,,,,,,,,"SYN09272306 12766 43007 10156 20061 39990 40144 53027 69951 92351 333 10189 20117 91014 555 90200=","FM-12","4",,,,,,,,,,,,,,,,,,,,,,,,,,,,"2009-07-08"
"72306013722","2020-05-01T19:51:00","FM-15","7",,,,,,,,,,,,,,,,,,,,,,,,,,,,,,,,,,,,,,"29.99","43","58","0.00",,,,"58","29.98","FEW:02 60 FEW:02 90","29.52","10.00","50","300",,"9",,,,,,,,,,,,,,,,,,,,,,,,,,,,,,,,,,,,,"MET10005/01/20 19:51:01 METAR KRDU 020051Z 30008KT 10SM FEW060 FEW090 14/06 A2999 RMK AO2 SLP154 T01440061","FM-15","7",,,,,,,,,,,,,,,,,,,,,,,,,,,,"2009-07-08"
"72306013722","2020-05-01T20:51:00","FM-15","7",,,,,,,,,,,,,,,,,,,,,,,,,,,,,,,,,,,,,,"30.01","43","56","0.00",,,,"62","30.01","FEW:02 60 FEW:02 90","29.54","10.00","50","280",,"6",,,,,,,,,,,,,,,,,,,,,,,,,,,,,,,,,,,,,"MET10005/01/20 20:51:01 METAR KRDU 020151Z 28005KT 10SM FEW060 FEW090 13/06 A3001 RMK AO2 SLP161 T01330061","FM-15","7",,,,,,,,,,,,,,,,,,,,,,,,,,,,"2009-07-08"
"72306013722","2020-05-01T21:51:00","FM-15","7",,,,,,,,,,,,,,,,,,,,,,,,,,,,,,,,,,,,,,"30.03","44","54","0.00",,"-0.07","1","69","30.03","CLR:00","29.56","10.00","49","VRB",,"6",,,,,,,,,,,,,,,,,,,,,,,,,,,,,,,,,,,,,"MET09605/01/20 21:51:01 METAR KRDU 020251Z VRB05KT 10SM CLR 12/07 A3003 RMK AO2 SLP168 T01220067 51024","FM-15","7",,,,,,,,,,,,,,,,,,,,,,,,,,,,"2009-07-08"
"72306013722","2020-05-01T22:51:00","FM-15","7",,,,,,,,,,,,,,,,,,,,,,,,,,,,,,,,,,,,,,"30.04","43","55","0.00",,,,"64","30.04","CLR:00","29.57","10.00","49","VRB",,"5",,,,,,,,,,,,,,,,,,,,,,,,,,,,,,,,,,,,,"MET09005/01/20 22:51:02 METAR KRDU 020351Z VRB04KT 10SM CLR 13/06 A3004 RMK AO2 SLP172 T01280061","FM-15","7",,,,,,,,,,,,,,,,,,,,,,,,,,,,"2009-07-08"
"72306013722","2020-05-01T23:51:00","FM-15","7",,,,,,,,,,,,,,,,,,,,,,,,,,,,,,,,,,,,,,"30.06","43","54","0.00",,,,"67","30.05","CLR:00","29.59","10.00","49","VRB",,"6",,,,,,,,,,,,,,,,,,,,,,,,,,,,,,,,,,,,,"MET10005/01/20 23:51:02 METAR KRDU 020451Z VRB05KT 10SM CLR 12/06 A3006 RMK AO2 SLP177 T01220061 401890117","FM-15","7",,,,,,,,,,,,,,,,,,,,,,,,,,,,"2009-07-08"
"72306013722","2020-05-01T23:59:00","SOD  ","6",,,,,,,,,,,,,,,"46","60","66","29.87","29.37","52","7.2","0","-4.1","5","66","53","300","28","0.02","0","0.0","290","17","RA",,,,,,,,,,,,,,,,,,,,,,,,,,,,,,,,,,,,,,,,,,,,,,,,,,,,,,,,"SOD75624 HR PRECIPITATION (IN): 0.02 SNOW DEPTH (IN):0     24 HR SNOWFALL (IN):0.0  WEATHER(CODE):1  24 HR MAX TEMP (F): 6624 HR MIN TEMP (F): 53AVERAGE STATION PRESSURE:29.370 MINIMUM SEA LEVEL PRESSURE:29.73 TIME OF OCCURRENCE:0210 PEAK WIND SPEED (MPH): 28 PEAK WIND DIR (DEG):300 PEAK WIND TIME (LST):      FASTEST 2MIN SPEED (MPH): 17FASTEST 2MIN DIR (DEG):290 FASTEST 2MIN TIME (LST):     AVERAGE WIND SPEED (MPH): 7.2 24 HR AVG TEMP (F): 60DEPART FROM NORMAL: -4  HEATING DEGREE DAYS:  5 COOLING DEGREE DAYS:  0 LATEST DAY MAX TEMP (0700-1900 LST):66  LATEST NIGHT MIN TEMP(1900-0800 LST):53 HOURLY INCREMENTAL PRECIPITATION VALUES (IN):.00 0.00 0.00 0.00 0.00 0.00 T    T    0.00 0.00 0.00 0.00 0.00 0.00 0.00 0.02 T    0.00 0.00 0.00 0.00 0.00 0.00 0.00","SOD  ","6",,,,,,,,,,,,,,,,,,,,,,,,,"0522","1903",,"2009-07-08"
"72306013722","2020-05-02T00:51:00","FM-15","7",,,,,,,,,,,,,,,,,,,,,,,,,,,,,,,,,,,,,,"30.06","43","52","0.00",,"-0.03","1","72","30.06","CLR:00","29.59","10.00","48","280",,"3",,,,,,,,,,,,,,,,,,,,,,,,,,,,,,,,,,,,,"MET11405/02/20 00:51:02 METAR KRDU 020551Z 28003KT 10SM CLR 11/06 A3006 RMK AO2 SLP178 T01110061 10156 20111 51010 (SMK)","FM-15","7",,,,,,,,,,,,,,,,,,,,,,,,,,,,"2009-07-08"
"72306013722","2020-05-02T01:00:00","FM-12","4",,,,,,,,,,,,,,,,,,,,,,,,,,,,,,,,,,,,,,,"43","52",,,"-0.03","1","72","30.06",,"29.60","9.94","48","280",,"3",,,,,,,,,,,,,,,,,,,,,,,,,,,,,,,,,,,,,"SYN08072306 32966 02803 10111 20061 30023 40178 51010 90551 333 10156 20111 555 90206=","FM-12","4",,,,,,,,,,,,,,,,,,,,,,,,,,,,"2009-07-08"
"72306013722","2020-05-02T01:51:00","FM-15","7",,,,,,,,,,,,,,,,,,,,,,,,,,,,,,,,,,,,,,"30.06","43","49","0.00",,,,"80","30.05","CLR:00","29.59","10.00","46","000",,"0",,,,,,,,,,,,,,,,,,,,,,,,,,,,,,,,,,,,,"MET09605/02/20 01:51:02 METAR KRDU 020651Z 00000KT 10SM CLR 09/06 A3006 RMK AO2 SLP177 T00940061 (SMK)","FM-15","7",,,,,,,,,,,,,,,,,,,,,,,,,,,,"2009-07-08"
"72306013722","2020-05-02T02:51:00","FM-15","7",,,,,,,,,,,,,,,,,,,,,,,,,,,,,,,,,,,,,,"30.07","43","46","0.00",,,,"89","30.06","CLR:00","29.60","10.00","45","000",,"0",,,,,,,,,,,,,,,,,,,,,,,,,,,,,,,,,,,,,"MET09605/02/20 02:51:02 METAR KRDU 020751Z 00000KT 10SM CLR 08/06 A3007 RMK AO2 SLP181 T00780061 (SMK)","FM-15","7",,,,,,,,,,,,,,,,,,,,,,,,,,,,"2009-07-08"
"72306013722","2020-05-02T03:51:00","FM-15","7",,,,,,,,,,,,,,,,,,,,,,,,,,,,,,,,,,,,,,"30.08","43","46","0.00",,"-0.02","3","89","30.08","CLR:00","29.61","10.00","45","000",,"0",,,,,,,,,,,,,,,,,,,,,,,,,,,,,,,,,,,,,"MET10205/02/20 03:51:02 METAR KRDU 020851Z 00000KT 10SM CLR 08/06 A3008 RMK AO2 SLP186 T00780061 53007 (SMK)","FM-15","7",,,,,,,,,,,,,,,,,,,,,,,,,,,,"2009-07-08"
"72306013722","2020-05-02T04:51:00","FM-15","7",,,,,,,,,,,,,,,,,,,,,,,,,,,,,,,,,,,,,,"30.11","42","43","0.00",,,,"97","30.10","CLR:00","29.64","10.00","43","000",,"0",,,,,,,,,,,,,,,,,,,,,,,,,,,,,,,,,,,,,"MET09605/02/20 04:51:02 METAR KRDU 020951Z 00000KT 10SM CLR 06/06 A3011 RMK AO2 SLP194 T00610056 (SMK)","FM-15","7",,,,,,,,,,,,,,,,,,,,,,,,,,,,"2009-07-08"
"72306013722","2020-05-02T05:51:00","FM-15","7",,,,,,,,,,,,,,,,,,,,,,,,,,,,,,,,,,,,,,"30.14","42","43","0.00",,,,"97","30.14","FEW:02 250","29.67","10.00","43","000",,"0",,,,,,,,,,,,,,,,,,,,,,,,,,,,,,,,,,,,,"MET09905/02/20 05:51:02 METAR KRDU 021051Z 00000KT 10SM FEW250 06/06 A3014 RMK AO2 SLP205 T00610056 (SMK)","FM-15","7",,,,,,,,,,,,,,,,,,,,,,,,,,,,"2009-07-08"
"72306013722","2020-05-02T06:51:00","FM-15","7",,,,,,,,,,,,,,,,,,,,,,,,,,,,,,,,,,,,,,"30.16","48","50","0.00",,"-0.08","3","93","30.16","FEW:02 100 BKN:07 250","29.69","10.00","49","000",,"0",,,,,,,,,,,,,,,,,,,,,,,,,,,,,,,,,,,,,"MET12905/02/20 06:51:02 METAR KRDU 021151Z 00000KT 10SM FEW100 BKN250 10/09 A3016 RMK AO2 SLP213 70002 T01000089 10117 20061 53027 (RP)","FM-15","7",,,,,,,,,,,,,,,,,,,,,,,,,,,,"2009-07-08"
"72306013722","2020-05-02T07:00:00","FM-12","4",,,,,,,,,,,,,,,,,,,,,,,,,,,,,,,,,,,,,,,"48","50",,,"-0.08","3","93","30.16",,"29.70","9.94","49","000",,"0",,,,,,,,,,,,,,,,,,,,,,,,,,,,,,,,,,,,,"SYN08672306 32966 60000 10100 20089 30057 40213 53027 91151 333 10189 20061 70005 555 90212=","FM-12","4",,,,,,,,,,,,,,,,,,,,,,,,,,,,"2009-07-08"
"72306013722","2020-05-02T07:51:00","FM-15","7",,,,,,,,,,,,,,,,,,,,,,,,,,,,,,,,,,,,,,"30.19","47","58","0.00",,,,"67","30.18","FEW:02 150 BKN:07 250","29.72","10.00","52","000",,"0",,,,,,,,,,,,,,,,,,,,,,,,,,,,,,,,,,,,,"MET10505/02/20 07:51:02 METAR KRDU 021251Z 00000KT 10SM FEW150 BKN250 14/08 A3019 RMK AO2 SLP220 T01440083 (RP)","FM-15","7",,,,,,,,,,,,,,,,,,,,,,,,,,,,"2009-07-08"
"72306013722","2020-05-02T08:51:00","FM-15","7",,,,,,,,,,,,,,,,,,,,,,,,,,,,,,,,,,,,,,"30.19","46","61","0.00",,,,"58","30.19","BKN:07 250","29.72","10.00","53","040",,"9",,,,,,,,,,,,,,,,,,,,,,,,,,,,,,,,,,,,,"MET09805/02/20 08:51:02 METAR KRDU 021351Z 04008KT 10SM BKN250 16/08 A3019 RMK AO2 SLP222 T01610078 (RP)","FM-15","7",,,,,,,,,,,,,,,,,,,,,,,,,,,,"2009-07-08"
"72306013722","2020-05-02T09:51:00","FM-15","7",,,,,,,,,,,,,,,,,,,,,,,,,,,,,,,,,,,,,,"30.19","46","63","0.00",,"-0.03","1","54","30.19","SCT:04 250","29.72","10.00","54","000",,"0",,,,,,,,,,,,,,,,,,,,,,,,,,,,,,,,,,,,,"MET10405/02/20 09:51:02 METAR KRDU 021451Z 00000KT 10SM SCT250 17/08 A3019 RMK AO2 SLP222 T01720078 51009 (RP)","FM-15","7",,,,,,,,,,,,,,,,,,,,,,,,,,,,"2009-07-08"
"72306013722","2020-05-02T10:51:00","FM-15","7",,,,,,,,,,,,,,,,,,,,,,,,,,,,,,,,,,,,,,"30.18","48","66","0.00",,,,"52","30.18","FEW:02 250","29.71","10.00","56","VRB",,"5",,,,,,,,,,,,,,,,,,,,,,,,,,,,,,,,,,,,,"MET09805/02/20 10:51:02 METAR KRDU 021551Z VRB04KT 10SM FEW250 19/09 A3018 RMK AO2 SLP219 T01890089 (RP)","FM-15","7",,,,,,,,,,,,,,,,,,,,,,,,,,,,"2009-07-08"
"72306013722","2020-05-02T11:51:00","FM-15","7",,,,,,,,,,,,,,,,,,,,,,,,,,,,,,,,,,,,,,"30.17","50","70","0.00",,,,"49","30.16","FEW:02 250","29.70","10.00","59","200",,"8",,,,,,,,,,,,,,,,,,,,,,,,,,,,,,,,,,,,,"MET09805/02/20 11:51:02 METAR KRDU 021651Z 20007KT 10SM FEW250 21/10 A3017 RMK AO2 SLP213 T02110100 (RP)","FM-15","7",,,,,,,,,,,,,,,,,,,,,,,,,,,,"2009-07-08"
"72306013722","2020-05-02T12:51:00","FM-15","7",,,,,,,,,,,,,,,,,,,,,,,,,,,,,,,,,,,,,,"30.14","50","72","0.00",,"+0.05","8","46","30.14","FEW:02 250","29.67","10.00","60","VRB",,"7",,,,,,,,,,,,,,,,,,,,,,,,,,,,,,,,,,,,,"MET11605/02/20 12:51:02 METAR KRDU 021751Z VRB06KT 10SM FEW250 22/10 A3014 RMK AO2 SLP205 T02220100 10222 20100 58016 (RP)","FM-15","7",,,,,,,,,,,,,,,,,,,,,,,,,,,,"2009-07-08"
"72306013722","2020-05-02T13:00:00","FM-12","4",,,,,,,,,,,,,,,,,,,,,,,,,,,,,,,,,,,,,,,"50","72",,,"+0.05","8","46","30.14",,"29.68","9.94","60",,,"7",,,,,,,,,,,,,,,,,,,,,,,,,,,,,,,,,,,,,"SYN08072306 32966 2//06 10222 20100 30050 40205 58016 91751 333 10222 20100 555 90218=","FM-12","4",,,,,,,,,,,,,,,,,,,,,,,,,,,,"2009-07-08"
"72306013722","2020-05-02T13:51:00","FM-15","7",,,,,,,,,,,,,,,,,,,,,,,,,,,,,,,,,,,,,,"30.14","49","73","0.00",,,,"43","30.13","FEW:02 250","29.67","10.00","59","230",,"6",,,,,,,,,,,,,,,,,,,,,,,,,,,,,,,,,,,,,"MET09805/02/20 13:51:02 METAR KRDU 021851Z 23005KT 10SM FEW250 23/09 A3014 RMK AO2 SLP204 T02280094 (RP)","FM-15","7",,,,,,,,,,,,,,,,,,,,,,,,,,,,"2009-07-08"
"72306013722","2020-05-02T14:51:00","FM-15","7",,,,,,,,,,,,,,,,,,,,,,,,,,,,,,,,,,,,,,"30.11","48","73","0.00",,,,"41","30.10","FEW:02 250","29.64","10.00","59","240",,"5",,,,,,,,,,,,,,,,,,,,,,,,,,,,,,,,,,,,,"MET09805/02/20 14:51:02 METAR KRDU 021951Z 24004KT 10SM FEW250 23/09 A3011 RMK AO2 SLP194 T02280089 (HA)","FM-15","7",,,,,,,,,,,,,,,,,,,,,,,,,,,,"2009-07-08"
"72306013722","2020-05-02T15:51:00","FM-15","7",,,,,,,,,,,,,,,,,,,,,,,,,,,,,,,,,,,,,,"30.09","47","74","0.00",,"+0.05","8","38","30.08","FEW:02 250","29.62","10.00","59","VRB",,"6",,,,,,,,,,,,,,,,,,,,,,,,,,,,,,,,,,,,,"MET10405/02/20 15:51:02 METAR KRDU 022051Z VRB05KT 10SM FEW250 23/08 A3009 RMK AO2 SLP187 T02330083 58018 (HA)","FM-15","7",,,,,,,,,,,,,,,,,,,,,,,,,,,,"2009-07-08"
"72306013722","2020-05-02T16:51:00","FM-15","7",,,,,,,,,,,,,,,,,,,,,,,,,,,,,,,,,,,,,,"30.08","47","74","0.00",,,,"38","30.07","FEW:02 250","29.61","10.00","59","210",,"6",,,,,,,,,,,,,,,,,,,,,,,,,,,,,,,,,,,,,"MET09805/02/20 16:51:02 METAR KRDU 022151Z 21005KT 10SM FEW250 23/08 A3008 RMK AO2 SLP183 T02330083 (HA)","FM-15","7",,,,,,,,,,,,,,,,,,,,,,,,,,,,"2009-07-08"
"72306013722","2020-05-02T17:51:00","FM-15","7",,,,,,,,,,,,,,,,,,,,,,,,,,,,,,,,,,,,,,"30.06","48","72","0.00",,,,"43","30.06","FEW:02 250","29.59","10.00","59","230",,"9",,,,,,,,,,,,,,,,,,,,,,,,,,,,,,,,,,,,,"MET09805/02/20 17:51:02 METAR KRDU 022251Z 23008KT 10SM FEW250 22/09 A3006 RMK AO2 SLP178 T02220089 (HA)","FM-15","7",,,,,,,,,,,,,,,,,,,,,,,,,,,,"2009-07-08"
"72306013722","2020-05-02T18:51:00","FM-15","7",,,,,,,,,,,,,,,,,,,,,,,,,,,,,,,,,,,,,,"30.05","47","68","0.00",,"+0.04","6","47","30.05","CLR:00","29.58","10.00","57","210",,"6",,,,,,,,,,,,,,,,,,,,,,,,,,,,,,,,,,,,,"MET11305/02/20 18:51:02 METAR KRDU 022351Z 21005KT 10SM CLR 20/08 A3005 RMK AO2 SLP175 T02000083 10239 20200 56012 (HA)","FM-15","7",,,,,,,,,,,,,,,,,,,,,,,,,,,,"2009-07-08"
"72306013722","2020-05-02T19:00:00","FM-12","4",,,,,,,,,,,,,,,,,,,,,,,,,,,,,,,,,,,,,,,"47","68",,,"+0.04","6","47","30.05",,"29.59","9.94","57","210",,"6",,,,,,,,,,,,,,,,,,,,,,,,,,,,,,,,,,,,,"SYN08072306 32966 02105 10200 20083 30020 40175 56012 92351 333 10239 20061 555 90300=","FM-12","4",,,,,,,,,,,,,,,,,,,,,,,,,,,,"2009-07-08"
"72306013722","2020-05-02T19:51:00","FM-15","7",,,,,,,,,,,,,,,,,,,,,,,,,,,,,,,,,,,,,,"30.07","48","62","0.00",,,,"60","30.06","CLR:00","29.60","10.00","55","000",,"0",,,,,,,,,,,,,,,,,,,,,,,,,,,,,,,,,,,,,"MET09005/02/20 19:51:01 METAR KRDU 030051Z 00000KT 10SM CLR 17/09 A3007 RMK AO2 SLP180 T01670089","FM-15","7",,,,,,,,,,,,,,,,,,,,,,,,,,,,"2009-07-08"
"72306013722","2020-05-02T20:51:00","FM-15","7",,,,,,,,,,,,,,,,,,,,,,,,,,,,,,,,,,,,,,"30.08","48","63","0.00",,,,"58","30.07","CLR:00","29.61","10.00","55","180",,"5",,,,,,,,,,,,,,,,,,,,,,,,,,,,,,,,,,,,,"MET09005/02/20 20:51:01 METAR KRDU 030151Z 18004KT 10SM CLR 17/09 A3008 RMK AO2 SLP184 T01720089","FM-15","7",,,,,,,,,,,,,,,,,,,,,,,,,,,,"2009-07-08"
"72306013722","2020-05-02T21:51:00","FM-15","7",,,,,,,,,,,,,,,,,,,,,,,,,,,,,,,,,,,,,,"30.08","48","59","0.00",,"-0.02","0","67","30.07","FEW:02 250","29.61","10.00","53","230",,"3",,,,,,,,,,,,,,,,,,,,,,,,,,,,,,,,,,,,,"MET09905/02/20 21:51:01 METAR KRDU 030251Z 23003KT 10SM FEW250 15/09 A3008 RMK AO2 SLP183 T01500089 50008","FM-15","7",,,,,,,,,,,,,,,,,,,,,,,,,,,,"2009-07-08"
"72306013722","2020-05-02T22:51:00","FM-15","7",,,,,,,,,,,,,,,,,,,,,,,,,,,,,,,,,,,,,,"30.06","47","58","0.00",,,,"67","30.05","FEW:02 250","29.59","10.00","52","230",,"6",,,,,,,,,,,,,,,,,,,,,,,,,,,,,,,,,,,,,"MET09305/02/20 22:51:02 METAR KRDU 030351Z 23005KT 10SM FEW250 14/08 A3006 RMK AO2 SLP177 T01440083","FM-15","7",,,,,,,,,,,,,,,,,,,,,,,,,,,,"2009-07-08"
"72306013722","2020-05-02T23:51:00","FM-15","7",,,,,,,,,,,,,,,,,,,,,,,,,,,,,,,,,,,,,,"30.05","47","57","0.00",,,,"69","30.04","FEW:02 250","29.58","10.00","52","230",,"6",,,,,,,,,,,,,,,,,,,,,,,,,,,,,,,,,,,,,"MET10305/02/20 23:51:02 METAR KRDU 030451Z 23005KT 10SM FEW250 14/08 A3005 RMK AO2 SLP174 T01390083 402390061","FM-15","7",,,,,,,,,,,,,,,,,,,,,,,,,,,,"2009-07-08"
"72306013722","2020-05-02T23:59:00","SOD  ","6",,,,,,,,,,,,,,,"46","59","63","30.10","29.63","53","3.7","0","-5.3","6","75","43","230","19","0.00","0","0.0","230","13",,,,,,,,,,,,,,,,,,,,,,,,,,,,,,,,,,,,,,,,,,,,,,,,,,,,,,,,,"SOD73924 HR PRECIPITATION (IN): 0.00 SNOW DEPTH (IN):0     24 HR SNOWFALL (IN):0.0  24 HR MAX TEMP (F): 7524 HR MIN TEMP (F): 43AVERAGE STATION PRESSURE:29.630 MINIMUM SEA LEVEL PRESSURE:30.04 TIME OF OCCURRENCE:2359 PEAK WIND SPEED (MPH): 19 PEAK WIND DIR (DEG):230 PEAK WIND TIME (LST):      FASTEST 2MIN SPEED (MPH): 13FASTEST 2MIN DIR (DEG):230 FASTEST 2MIN TIME (LST):     AVERAGE WIND SPEED (MPH): 3.7 24 HR AVG TEMP (F): 59DEPART FROM NORMAL: -5  HEATING DEGREE DAYS:  6 COOLING DEGREE DAYS:  0 LATEST DAY MAX TEMP (0700-1900 LST):75  LATEST NIGHT MIN TEMP(1900-0800 LST):43 HOURLY INCREMENTAL PRECIPITATION VALUES (IN):.00 0.00 0.00 0.00 0.00 0.00 0.00 0.00 0.00 0.00 0.00 0.00 0.00 0.00 0.00 0.00 0.00 0.00 0.00 0.00 0.00 0.00 0.00 0.00","SOD  ","6",,,,,,,,,,,,,,,,,,,,,,,,,"0521","1904",,"2009-07-08"
"72306013722","2020-05-03T00:51:00","FM-15","7",,,,,,,,,,,,,,,,,,,,,,,,,,,,,,,,,,,,,,"30.03","48","57","0.00",,"+0.05","8","72","30.02","FEW:02 250","29.56","10.00","52","230",,"10",,,,,,,,,,,,,,,,,,,,,,,,,,,,,,,,,,,,,"MET11705/03/20 00:51:02 METAR KRDU 030551Z 23009KT 10SM FEW250 14/09 A3003 RMK AO2 SLP166 T01390089 10200 20133 58016 (SMK)","FM-15","7",,,,,,,,,,,,,,,,,,,,,,,,,,,,"2009-07-08"
"72306013722","2020-05-03T01:00:00","FM-12","4",,,,,,,,,,,,,,,,,,,,,,,,,,,,,,,,,,,,,,,"48","57",,,"+0.05","8","72","30.02",,"29.57","9.94","52","230",,"10",,,,,,,,,,,,,,,,,,,,,,,,,,,,,,,,,,,,,"SYN08072306 32966 22309 10139 20089 30013 40166 58016 90551 333 10200 20061 555 90306=","FM-12","4",,,,,,,,,,,,,,,,,,,,,,,,,,,,"2009-07-08"
"72306013722","2020-05-03T01:51:00","FM-15","7",,,,,,,,,,,,,,,,,,,,,,,,,,,,,,,,,,,,,,"30.00","49","59","0.00",,,,"69","29.99","CLR:00","29.53","10.00","54","230",,"10",,,,,,,,,,,,,,,,,,,,,,,,,,,,,,,,,,,,,"MET09605/03/20 01:51:02 METAR KRDU 030651Z 23009KT 10SM CLR 15/09 A3000 RMK AO2 SLP157 T01500094 (SMK)","FM-15","7",,,,,,,,,,,,,,,,,,,,,,,,,,,,"2009-07-08"
"72306013722","2020-05-03T02:51:00","FM-15","7",,,,,,,,,,,,,,,,,,,,,,,,,,,,,,,,,,,,,,"30.00","49","57","0.00",,,,"74","29.99","FEW:02 250","29.53","10.00","53","230",,"8",,,,,,,,,,,,,,,,,,,,,,,,,,,,,,,,,,,,,"MET09905/03/20 02:51:02 METAR KRDU 030751Z 23007KT 10SM FEW250 14/09 A3000 RMK AO2 SLP156 T01390094 (SMK)","FM-15","7",,,,,,,,,,,,,,,,,,,,,,,,,,,,"2009-07-08"
"72306013722","2020-05-03T03:51:00","FM-15","7",,,,,,,,,,,,,,,,,,,,,,,,,,,,,,,,,,,,,,"30.00","49","56","0.00",,"+0.03","5","77","29.99","FEW:02 250","29.53","10.00","52","250",,"5",,,,,,,,,,,,,,,,,,,,,,,,,,,,,,,,,,,,,"MET10505/03/20 03:51:02 METAR KRDU 030851Z 25004KT 10SM FEW250 13/09 A3000 RMK AO2 SLP157 T01330094 55009 (SMK)","FM-15","7",,,,,,,,,,,,,,,,,,,,,,,,,,,,"2009-07-08"
"72306013722","2020-05-03T04:51:00","FM-15","7",,,,,,,,,,,,,,,,,,,,,,,,,,,,,,,,,,,,,,"30.00","49","54","0.00",,,,"83","29.99","FEW:02 250","29.53","10.00","51","220",,"8",,,,,,,,,,,,,,,,,,,,,,,,,,,,,,,,,,,,,"MET09905/03/20 04:51:02 METAR KRDU 030951Z 22007KT 10SM FEW250 12/09 A3000 RMK AO2 SLP157 T01220094 (SMK)","FM-15","7",,,,,,,,,,,,,,,,,,,,,,,,,,,,"2009-07-08"
"72306013722","2020-05-03T05:51:00","FM-15","7",,,,,,,,,,,,,,,,,,,,,,,,,,,,,,,,,,,,,,"30.02","50","55","0.00",,,,"83","30.01","FEW:02 250","29.55","10.00","52","230",,"7",,,,,,,,,,,,,,,,,,,,,,,,,,,,,,,,,,,,,"MET09905/03/20 05:51:02 METAR KRDU 031051Z 23006KT 10SM FEW250 13/10 A3002 RMK AO2 SLP162 T01280100 (SMK)","FM-15","7",,,,,,,,,,,,,,,,,,,,,,,,,,,,"2009-07-08"
"72306013722","2020-05-03T06:51:00","FM-15","7",,,,,,,,,,,,,,,,,,,,,,,,,,,,,,,,,,,,,,"30.03","52","60","0.00",,"-0.02","3","75","30.02","FEW:02 250","29.56","10.00","56","230",,"10",,,,,,,,,,,,,,,,,,,,,,,,,,,,,,,,,,,,,"MET11605/03/20 06:51:02 METAR KRDU 031151Z 23009KT 10SM FEW250 16/11 A3003 RMK AO2 SLP165 T01560111 10156 20117 53008 (RP)","FM-15","7",,,,,,,,,,,,,,,,,,,,,,,,,,,,"2009-07-08"
"72306013722","2020-05-03T07:00:00","FM-12","4",,,,,,,,,,,,,,,,,,,,,,,,,,,,,,,,,,,,,,,"52","60",,,"-0.02","3","75","30.02",,"29.57","9.94","56","230",,"10",,,,,,,,,,,,,,,,,,,,,,,,,,,,,,,,,,,,,"SYN08072306 32966 22309 10156 20111 30013 40165 53008 91151 333 10239 20117 555 90312=","FM-12","4",,,,,,,,,,,,,,,,,,,,,,,,,,,,"2009-07-08"
"72306013722","2020-05-03T07:51:00","FM-15","7",,,,,,,,,,,,,,,,,,,,,,,,,,,,,,,,,,,,,,"30.03","53","65","0.00",,,,"66","30.02","FEW:02 250","29.56","10.00","58","230",,"11",,,,,,,,,,,,,,,,,,,,,,,,,,,,,,,,,,,,,"MET09805/03/20 07:51:02 METAR KRDU 031251Z 23010KT 10SM FEW250 18/12 A3003 RMK AO2 SLP165 T01830117 (RP)","FM-15","7",,,,,,,,,,,,,,,,,,,,,,,,,,,,"2009-07-08"
"72306013722","2020-05-03T08:51:00","FM-15","7",,,,,,,,,,,,,,,,,,,,,,,,,,,,,,,,,,,,,,"30.01","56","69","0.00",,,,"63","30.00","FEW:02 250","29.54","10.00","61","230",,"11",,,,,,,,,,,,,,,,,,,,,,,,,,,,,,,,,,,,,"MET09805/03/20 08:51:02 METAR KRDU 031351Z 23010KT 10SM FEW250 21/13 A3001 RMK AO2 SLP160 T02060133 (RP)","FM-15","7",,,,,,,,,,,,,,,,,,,,,,,,,,,,"2009-07-08"
"72306013722","2020-05-03T09:51:00","FM-15","7",,,,,,,,,,,,,,,,,,,,,,,,,,,,,,,,,,,,,,"30.00","58","74","0.00",,"+0.02","8","57","29.99","FEW:02 250","29.53","10.00","64","240",,"8",,,,,,,,,,,,,,,,,,,,,,,,,,,,,,,,,,,,,"MET10405/03/20 09:51:02 METAR KRDU 031451Z 24007KT 10SM FEW250 23/14 A3000 RMK AO2 SLP156 T02330144 58008 (RP)","FM-15","7",,,,,,,,,,,,,,,,,,,,,,,,,,,,"2009-07-08"
"72306013722","2020-05-03T10:51:00","FM-15","7",,,,,,,,,,,,,,,,,,,,,,,,,,,,,,,,,,,,,,"29.98","60","78","0.00",,,,"54","29.97","FEW:02 250","29.51","10.00","67","230",,"11",,,,,,,,,,,,,,,,,,,,,,,,,,,,,,,,,,,,,"MET09805/03/20 10:51:02 METAR KRDU 031551Z 23010KT 10SM FEW250 26/16 A2998 RMK AO2 SLP149 T02560156 (RP)","FM-15","7",,,,,,,,,,,,,,,,,,,,,,,,,,,,"2009-07-08"
"72306013722","2020-05-03T11:51:00","FM-15","7",,,,,,,,,,,,,,,,,,,,,,,,,,,,,,,,,,,,,,"29.96","61","81","0.00",,,,"51","29.95","FEW:02 250","29.49","10.00","68","230",,"9",,,,,,,,,,,,,,,,,,,,,,,,,,,,,,,,,,,,,"MET09805/03/20 11:51:02 METAR KRDU 031651Z 23008KT 10SM FEW250 27/16 A2996 RMK AO2 SLP142 T02720161 (RP)","FM-15","7",,,,,,,,,,,,,,,,,,,,,,,,,,,,"2009-07-08"
"72306013722","2020-05-03T12:51:00","FM-15","7",,,,,,,,,,,,,,,,,,,,,,,,,,,,,,,,,,,,,,"29.93","60","83","0.00",,"+0.07","8","46","29.92","FEW:02 250","29.46","10.00","68","260","16","7",,,,,,,,,,,,,,,,,,,,,,,,,,,,,,,,,,,,,"MET11905/03/20 12:51:02 METAR KRDU 031751Z 26006G14KT 10SM FEW250 28/16 A2993 RMK AO2 SLP131 T02830156 10283 20161 58023 (RP)","FM-15","7",,,,,,,,,,,,,,,,,,,,,,,,,,,,"2009-07-08"
"72306013722","2020-05-03T13:00:00","FM-12","4",,,,,,,,,,,,,,,,,,,,,,,,,,,,,,,,,,,,,,,"60","83",,,"+0.07","8","46","29.92",,"29.47","9.94","68","260",,"7",,,,,,,,,,,,,,,,,,,,,,,,,,,,,,,,,,,,,"SYN08672306 32966 22606 10283 20156 39980 40131 58023 91751 333 10283 20161 91014 555 90318=","FM-12","4",,,,,,,,,,,,,,,,,,,,,,,,,,,,"2009-07-08"
"72306013722","2020-05-03T13:51:00","FM-15","7",,,,,,,,,,,,,,,,,,,,,,,,,,,,,,,,,,,,,,"29.90","62","85","0.00",,,,"46","29.89","FEW:02 50","29.43","10.00","70","230",,"8",,,,,,,,,,,,,,,,,,,,,,,,,,,,,,,,,,,,,"MET09805/03/20 13:51:02 METAR KRDU 031851Z 23007KT 10SM FEW050 29/17 A2990 RMK AO2 SLP121 T02940167 (RP)","FM-15","7",,,,,,,,,,,,,,,,,,,,,,,,,,,,"2009-07-08"
"72306013722","2020-05-03T14:51:00","FM-15","7",,,,,,,,,,,,,,,,,,,,,,,,,,,,,,,,,,,,,,"29.87","60","85","0.00",,,,"43","29.85","FEW:02 55","29.40","10.00","69","230","18","11",,,,,,,,,,,,,,,,,,,,,,,,,,,,,,,,,,,,,"MET10105/03/20 14:51:02 METAR KRDU 031951Z 23010G16KT 10SM FEW055 29/16 A2987 RMK AO2 SLP110 T02940156 (HA)","FM-15","7",,,,,,,,,,,,,,,,,,,,,,,,,,,,"2009-07-08"
"72306013722","2020-05-03T15:51:00","FM-15","7",,,,,,,,,,,,,,,,,,,,,,,,,,,,,,,,,,,,,,"29.84","59","85","0.00",,"+0.09","6","42","29.83","FEW:02 55","29.37","10.00","68","220",,"13",,,,,,,,,,,,,,,,,,,,,,,,,,,,,,,,,,,,,"MET10405/03/20 15:51:02 METAR KRDU 032051Z 22011KT 10SM FEW055 29/15 A2984 RMK AO2 SLP100 T02940150 56031 (HA)","FM-15","7",,,,,,,,,,,,,,,,,,,,,,,,,,,,"2009-07-08"
"72306013722","2020-05-03T16:51:00","FM-15","7",,,,,,,,,,,,,,,,,,,,,,,,,,,,,,,,,,,,,,"29.83","58","84","0.00",,,,"41","29.81","FEW:02 150","29.36","10.00","68","240",,"10",,,,,,,,,,,,,,,,,,,,,,,,,,,,,,,,,,,,,"MET09805/03/20 16:51:02 METAR KRDU 032151Z 24009KT 10SM FEW150 29/14 A2983 RMK AO2 SLP096 T02890144 (HA)","FM-15","7",,,,,,,,,,,,,,,,,,,,,,,,,,,,"2009-07-08"
"72306013722","2020-05-03T17:51:00","FM-15","7",,,,,,,,,,,,,,,,,,,,,,,,,,,,,,,,,,,,,,"29.81","56","82","0.00",,,,"41","29.80","FEW:02 150","29.34","10.00","66","250",,"8",,,,,,,,,,,,,,,,,,,,,,,,,,,,,,,,,,,,,"MET09805/03/20 17:51:02 METAR KRDU 032251Z 25007KT 10SM FEW150 28/13 A2981 RMK AO2 SLP091 T02780133 (HA)","FM-15","7",,,,,,,,,,,,,,,,,,,,,,,,,,,,"2009-07-08"
"72306013722","2020-05-03T18:51:00","FM-15","7",,,,,,,,,,,,,,,,,,,,,,,,,,,,,,,,,,,,,,"29.79","57","77","0.00",,"+0.05","8","50","29.78","FEW:02 150 SCT:04 250","29.32","10.00","65","240",,"8",,,,,,,,,,,,,,,,,,,,,,,,,,,,,,,,,,,,,"MET12305/03/20 18:51:02 METAR KRDU 032351Z 24007KT 10SM FEW150 SCT250 25/14 A2979 RMK AO2 SLP084 T02500139 10300 20250 58016 (HA)","FM-15","7",,,,,,,,,,,,,,,,,,,,,,,,,,,,"2009-07-08"
"72306013722","2020-05-03T19:00:00","FM-12","4",,,,,,,,,,,,,,,,,,,,,,,,,,,,,,,,,,,,,,,"57","77",,,"+0.05","8","50","29.78",,"29.33","9.94","65","240",,"8",,,,,,,,,,,,,,,,,,,,,,,,,,,,,,,,,,,,,"SYN08072306 32966 42407 10250 20139 39933 40084 58016 92351 333 10300 20117 555 90400=","FM-12","4",,,,,,,,,,,,,,,,,,,,,,,,,,,,"2009-07-08"
"72306013722","2020-05-03T19:51:00","FM-15","7",,,,,,,,,,,,,,,,,,,,,,,,,,,,,,,,,,,,,,"29.78","57","73","0.00",,,,"57","29.77","FEW:02 150 SCT:04 250","29.31","10.00","63","240",,"6",,,,,,,,,,,,,,,,,,,,,,,,,,,,,,,,,,,,,"MET10005/03/20 19:51:01 METAR KRDU 040051Z 24005KT 10SM FEW150 SCT250 23/14 A2978 RMK AO2 SLP081 T02280139","FM-15","7",,,,,,,,,,,,,,,,,,,,,,,,,,,,"2009-07-08"
"72306013722","2020-05-03T20:51:00","FM-15","7",,,,,,,,,,,,,,,,,,,,,,,,,,,,,,,,,,,,,,"29.81","57","73","0.00",,,,"57","29.80","SCT:04 150","29.34","10.00","63","220",,"7",,,,,,,,,,,,,,,,,,,,,,,,,,,,,,,,,,,,,"MET09305/03/20 20:51:01 METAR KRDU 040151Z 22006KT 10SM SCT150 23/14 A2981 RMK AO2 SLP090 T02280139","FM-15","7",,,,,,,,,,,,,,,,,,,,,,,,,,,,"2009-07-08"
"72306013722","2020-05-03T21:51:00","FM-15","7",,,,,,,,,,,,,,,,,,,,,,,,,,,,,,,,,,,,,,"29.79","57","75","0.00",,"-0.00","0","54","29.78","SCT:04 180","29.32","10.00","64","240",,"11",,,,,,,,,,,,,,,,,,,,,,,,,,,,,,,,,,,,,"MET09905/03/20 21:51:01 METAR KRDU 040251Z 24010KT 10SM SCT180 24/14 A2979 RMK AO2 SLP083 T02390139 50000","FM-15","7",,,,,,,,,,,,,,,,,,,,,,,,,,,,"2009-07-08"
"72306013722","2020-05-03T22:51:00","FM-15","7",,,,,,,,,,,,,,,,,,,,,,,,,,,,,,,,,,,,,,"29.77","57","73","0.00",,,,"57","29.76","SCT:04 180 BKN:07 250","29.30","10.00","63","230",,"13",,,,,,,,,,,,,,,,,,,,,,,,,,,,,,,,,,,,,"MET10005/03/20 22:51:02 METAR KRDU 040351Z 23011KT 10SM SCT180 BKN250 23/14 A2977 RMK AO2 SLP078 T02280139","FM-15","7",,,,,,,,,,,,,,,,,,,,,,,,,,,,"2009-07-08"
"72306013722","2020-05-03T23:51:00","FM-15","7",,,,,,,,,,,,,,,,,,,,,,,,,,,,,,,,,,,,,,"29.75","57","69","0.00",,,,"66","29.74","FEW:02 180 BKN:07 250","29.28","10.00","62","230",,"9",,,,,,,,,,,,,,,,,,,,,,,,,,,,,,,,,,,,,"MET11005/03/20 23:51:02 METAR KRDU 040451Z 23008KT 10SM FEW180 BKN250 21/14 A2975 RMK AO2 SLP070 T02060139 403000117","FM-15","7",,,,,,,,,,,,,,,,,,,,,,,,,,,,"2009-07-08"
"72306013722","2020-05-03T23:59:00","SOD  ","6",,,,,,,,,,,,,,,"55","70","59","29.90","29.47","62","9.2","5","5.4","0","86","53","230","24","0.00","0","0.0","230","18",,,,,,,,,,,,,,,,,,,,,,,,,,,,,,,,,,,,,,,,,,,,,,,,,,,,,,,,,"SOD73924 HR PRECIPITATION (IN): 0.00 SNOW DEPTH (IN):0     24 HR SNOWFALL (IN):0.0  24 HR MAX TEMP (F): 8624 HR MIN TEMP (F): 53AVERAGE STATION PRESSURE:29.470 MINIMUM SEA LEVEL PRESSURE:29.73 TIME OF OCCURRENCE:2359 PEAK WIND SPEED (MPH): 24 PEAK WIND DIR (DEG):230 PEAK WIND TIME (LST):      FASTEST 2MIN SPEED (MPH): 18FASTEST 2MIN DIR (DEG):230 FASTEST 2MIN TIME (LST):     AVERAGE WIND SPEED (MPH): 9.2 24 HR AVG TEMP (F): 70DEPART FROM NORMAL:  5  HEATING DEGREE DAYS:  0 COOLING DEGREE DAYS:  5 LATEST DAY MAX TEMP (0700-1900 LST):86  LATEST NIGHT MIN TEMP(1900-0800 LST):53 HOURLY INCREMENTAL PRECIPITATION VALUES (IN):.00 0.00 0.00 0.00 0.00 0.00 0.00 0.00 0.00 0.00 0.00 0.00 0.00 0.00 0.00 0.00 0.00 0.00 0.00 0.00 0.00 0.00 0.00 0.00","SOD  ","6",,,,,,,,,,,,,,,,,,,,,,,,,"0520","1904",,"2009-07-08"
"72306013722","2020-05-04T00:51:00","FM-15","7",,,,,,,,,,,,,,,,,,,,,,,,,,,,,,,,,,,,,,"29.72","56","69","0.00",,"+0.08","8","63","29.70","BKN:07 250","29.25","10.00","61","240",,"3",,,,,,,,,,,,,,,,,,,,,,,,,,,,,,,,,,,,,"MET11705/04/20 00:51:02 METAR KRDU 040551Z 24003KT 10SM BKN250 21/13 A2972 RMK AO2 SLP057 T02060133 10250 20194 58026 (SMK)","FM-15","7",,,,,,,,,,,,,,,,,,,,,,,,,,,,"2009-07-08"
"72306013722","2020-05-04T01:00:00","FM-12","4",,,,,,,,,,,,,,,,,,,,,,,,,,,,,,,,,,,,,,,"56","69",,,"+0.08","8","63","29.70",,"29.26","9.94","61","240",,"3",,,,,,,,,,,,,,,,,,,,,,,,,,,,,,,,,,,,,"SYN08072306 32966 62403 10206 20133 39910 40057 58026 90551 333 10250 20117 555 90406=","FM-12","4",,,,,,,,,,,,,,,,,,,,,,,,,,,,"2009-07-08"
"72306013722","2020-05-04T01:51:00","FM-15","7",,,,,,,,,,,,,,,,,,,,,,,,,,,,,,,,,,,,,,"29.73","56","67","0.00",,,,"68","29.72","BKN:07 250","29.26","10.00","61","260",,"5",,,,,,,,,,,,,,,,,,,,,,,,,,,,,,,,,,,,,"MET09905/04/20 01:51:02 METAR KRDU 040651Z 26004KT 10SM BKN250 19/13 A2973 RMK AO2 SLP063 T01940133 (SMK)","FM-15","7",,,,,,,,,,,,,,,,,,,,,,,,,,,,"2009-07-08"
"72306013722","2020-05-04T02:51:00","FM-15","7",,,,,,,,,,,,,,,,,,,,,,,,,,,,,,,,,,,,,,"29.74","56","67","0.00",,,,"68","29.72","FEW:02 100 BKN:07 120 OVC:08 250","29.27","10.00","61","260",,"5",,,,,,,,,,,,,,,,,,,,,,,,,,,,,,,,,,,,,"MET11305/04/20 02:51:02 METAR KRDU 040751Z 26004KT 10SM FEW100 BKN120 OVC250 19/13 A2974 RMK AO2 SLP066 T01940133 (SMK)","FM-15","7",,,,,,,,,,,,,,,,,,,,,,,,,,,,"2009-07-08"
"72306013722","2020-05-04T03:51:00","FM-15","7",,,,,,,,,,,,,,,,,,,,,,,,,,,,,,,,,,,,,,"29.76","59","65","T",,"-0.04","1","81","29.74","FEW:02 80 BKN:07 100 OVC:08 250","29.29","10.00","61","000",,"0",,,,,,,,,,,,,,,,,,,,,,,,,,,,,,,,,,,,,"MET14005/04/20 03:51:02 METAR KRDU 040851Z 00000KT 10SM FEW080 BKN100 OVC250 18/15 A2976 RMK AO2 RAB38E46 SLP072 P0000 60000 T01830150 51014 (SMK)","FM-15","7",,,,,,,,,,,,,,,,,,,,,,,,,,,,"2009-07-08"
"72306013722","2020-05-04T04:51:00","FM-15","7",,,,,,,,,,,,,,,,,,,,,,,,,,,,,,,,,,,,,,"29.77","59","65","0.00",,,,"81","29.75","FEW:02 75 SCT:04 110 OVC:08 250","29.30","10.00","61","290",,"3",,,,,,,,,,,,,,,,,,,,,,,,,,,,,,,,,,,,,"MET11305/04/20 04:51:02 METAR KRDU 040951Z 29003KT 10SM FEW075 SCT110 OVC250 18/15 A2977 RMK AO2 SLP076 T01830150 (SMK)","FM-15","7",,,,,,,,,,,,,,,,,,,,,,,,,,,,"2009-07-08"
"72306013722","2020-05-04T05:51:00","FM-15","7",,,,,,,,,,,,,,,,,,,,,,,,,,,,,,,,,,,,,,"29.81","58","68","0.00",,,,"70","29.80","SCT:04 110 BKN:07 250","29.34","10.00","62","VRB",,"5",,,,,,,,,,,,,,,,,,,,,,,,,,,,,,,,,,,,,"MET10605/04/20 05:51:02 METAR KRDU 041051Z VRB04KT 10SM SCT110 BKN250 20/14 A2981 RMK AO2 SLP091 T02000144 (SMK)","FM-15","7",,,,,,,,,,,,,,,,,,,,,,,,,,,,"2009-07-08"
"72306013722","2020-05-04T06:51:00","FM-15","7",,,,,,,,,,,,,,,,,,,,,,,,,,,,,,,,,,,,,,"29.86","58","70","0.00",,"-0.10","3","66","29.85","BKN:07 120","29.39","10.00","63","VRB",,"7",,,,,,,,,,,,,,,,,,,,,,,,,,,,,,,,,,,,,"MET12205/04/20 06:51:02 METAR KRDU 041151Z VRB06KT 10SM BKN120 21/14 A2986 RMK AO2 SLP107 60000 T02110144 10217 20178 53035 (RP)","FM-15","7",,,,,,,,,,,,,,,,,,,,,,,,,,,,"2009-07-08"
"72306013722","2020-05-04T07:00:00","FM-12","4",,,,,,,,,,,,,,,,,,,,,,,,,,,,,,,,,,,,,,,"58","70",,,"-0.10","3","66","29.85",,"29.40","9.94","63",,,"7",,,,,,,,,,,,,,,,,,,,,,,,,,,,,,,,,,,,,"SYN08672306 12966 6//06 10211 20144 39956 40107 53035 69901 91151 333 10300 20178 555 90412=","FM-12","4",,,,,,,,,,,,,,,,,,,,,,,,,,,,"2009-07-08"
"72306013722","2020-05-04T07:51:00","FM-15","7",,,,,,,,,,,,,,,,,,,,,,,,,,,,,,,,,,,,,,"29.88","56","72","0.00",,,,"57","29.86","FEW:02 120","29.41","10.00","62","340","21","9",,,,,,,,,,,,,,,,,,,,,,,,,,,,,,,,,,,,,"MET10105/04/20 07:51:02 METAR KRDU 041251Z 34008G18KT 10SM FEW120 22/13 A2988 RMK AO2 SLP112 T02220133 (RP)","FM-15","7",,,,,,,,,,,,,,,,,,,,,,,,,,,,"2009-07-08"
"72306013722","2020-05-04T08:51:00","FM-15","7",,,,,,,,,,,,,,,,,,,,,,,,,,,,,,,,,,,,,,"29.88","54","74","0.00",,,,"50","29.87","FEW:02 35 FEW:02 250","29.41","10.00","62","360","20","13",,,,,,,,,,,,,,,,,,,,,,,,,,,,,,,,,,,,,"MET10805/04/20 08:51:02 METAR KRDU 041351Z 36011G17KT 10SM FEW035 FEW250 23/12 A2988 RMK AO2 SLP115 T02330122 (RP)","FM-15","7",,,,,,,,,,,,,,,,,,,,,,,,,,,,"2009-07-08"
"72306013722","2020-05-04T09:51:00","FM-15","7",,,,,,,,,,,,,,,,,,,,,,,,,,,,,,,,,,,,,,"29.92","51","75","0.00",,"-0.05","3","43","29.90","FEW:02 55 FEW:02 250","29.45","10.00","61","VRB","23","9",,,,,,,,,,,,,,,,,,,,,,,,,,,,,,,,,,,,,"MET11405/04/20 09:51:02 METAR KRDU 041451Z 34008G20KT 10SM FEW055 FEW250 24/11 A2992 RMK AO2 SLP126 T02390106 53018 (RP)","FM-15","7",,,,,,,,,,,,,,,,,,,,,,,,,,,,"2009-07-08"
"72306013722","2020-05-04T10:51:00","FM-15","7",,,,,,,,,,,,,,,,,,,,,,,,,,,,,,,,,,,,,,"29.92","50","76","0.00",,,,"40","29.90","FEW:02 55 SCT:04 250","29.45","10.00","61","310","18","9",,,,,,,,,,,,,,,,,,,,,,,,,,,,,,,,,,,,,"MET10805/04/20 10:51:02 METAR KRDU 041551Z 31008G16KT 10SM FEW055 SCT250 24/10 A2992 RMK AO2 SLP126 T02440100 (RP)","FM-15","7",,,,,,,,,,,,,,,,,,,,,,,,,,,,"2009-07-08"
"72306013722","2020-05-04T11:51:00","FM-15","7",,,,,,,,,,,,,,,,,,,,,,,,,,,,,,,,,,,,,,"29.90","48","77","0.00",,,,"36","29.89","FEW:02 55 SCT:04 250","29.43","10.00","61","VRB",,"8",,,,,,,,,,,,,,,,,,,,,,,,,,,,,,,,,,,,,"MET10505/04/20 11:51:02 METAR KRDU 041651Z 34007KT 10SM FEW055 SCT250 25/09 A2990 RMK AO2 SLP121 T02500089 (RP)","FM-15","7",,,,,,,,,,,,,,,,,,,,,,,,,,,,"2009-07-08"
"72306013722","2020-05-04T12:51:00","FM-15","7",,,,,,,,,,,,,,,,,,,,,,,,,,,,,,,,,,,,,,"29.89","49","78","0.00",,"+0.02","8","36","29.88","FEW:02 70 SCT:04 250","29.42","10.00","61","340","16","11",,,,,,,,,,,,,,,,,,,,,,,,,,,,,,,,,,,,,"MET12605/04/20 12:51:02 METAR KRDU 041751Z 34010G14KT 10SM FEW070 SCT250 26/09 A2989 RMK AO2 SLP117 T02560094 10256 20211 58008 (RP)","FM-15","7",,,,,,,,,,,,,,,,,,,,,,,,,,,,"2009-07-08"
"72306013722","2020-05-04T13:00:00","FM-12","4",,,,,,,,,,,,,,,,,,,,,,,,,,,,,,,,,,,,,,,"49","78",,,"+0.02","8","36","29.88","74","29.43","9.94","61","340",,"11",,,,,,,,,,,,,,,,,,,,,,,,,,,,,,,,,,,,,"SYN08672306 32866 43410 10256 20094 39966 40117 58008 91751 333 10256 20211 91014 555 90418=","FM-12","4",,,,,,,,,,,,,,,,,,,,,,,,,,,,"2009-07-08"
"72306013722","2020-05-04T13:51:00","FM-15","7",,,,,,,,,,,,,,,,,,,,,,,,,,,,,,,,,,,,,,"29.88","45","79","0.00",,,,"30","29.86","FEW:02 70 FEW:02 250","29.41","10.00","60","290","20","13",,,,,,,,,,,,,,,,,,,,,,,,,,,,,,,,,,,,,"MET10805/04/20 13:51:02 METAR KRDU 041851Z 29011G17KT 10SM FEW070 FEW250 26/07 A2988 RMK AO2 SLP112 T02610072 (RP)","FM-15","7",,,,,,,,,,,,,,,,,,,,,,,,,,,,"2009-07-08"
"72306013722","2020-05-04T14:51:00","FM-15","7",,,,,,,,,,,,,,,,,,,,,,,,,,,,,,,,,,,,,,"29.86","37","79","0.00",,,,"22","29.85","FEW:02 250","29.39","10.00","57","300","24","15",,,,,,,,,,,,,,,,,,,,,,,,,,,,,,,,,,,,,"MET10205/04/20 14:51:02 METAR KRDU 041951Z 30013G21KT 10SM FEW250 26/03 A2986 RMK AO2 SLP107 T02610028 (JBA)","FM-15","7",,,,,,,,,,,,,,,,,,,,,,,,,,,,"2009-07-08"
"72306013722","2020-05-04T15:51:00","FM-15","7",,,,,,,,,,,,,,,,,,,,,,,,,,,,,,,,,,,,,,"29.85","41","80","0.00",,"+0.04","6","25","29.83","FEW:02 250","29.38","10.00","59","330",,"8",,,,,,,,,,,,,,,,,,,,,,,,,,,,,,,,,,,,,"MET10505/04/20 15:51:02 METAR KRDU 042051Z 33007KT 10SM FEW250 27/05 A2985 RMK AO2 SLP103 T02670050 56014 (JBA)","FM-15","7",,,,,,,,,,,,,,,,,,,,,,,,,,,,"2009-07-08"
"72306013722","2020-05-04T16:51:00","FM-15","7",,,,,,,,,,,,,,,,,,,,,,,,,,,,,,,,,,,,,,"29.86","44","80","0.00",,,,"28","29.85","FEW:02 250","29.39","10.00","60","280",,"9",,,,,,,,,,,,,,,,,,,,,,,,,,,,,,,,,,,,,"MET09905/04/20 16:51:02 METAR KRDU 042151Z 28008KT 10SM FEW250 27/07 A2986 RMK AO2 SLP108 T02670067 (JBA)","FM-15","7",,,,,,,,,,,,,,,,,,,,,,,,,,,,"2009-07-08"
"72306013722","2020-05-04T17:51:00","FM-15","7",,,,,,,,,,,,,,,,,,,,,,,,,,,,,,,,,,,,,,"29.88","40","78","0.00",,,,"26","29.86","SCT:04 250","29.41","10.00","58","280",,"8",,,,,,,,,,,,,,,,,,,,,,,,,,,,,,,,,,,,,"MET09905/04/20 17:51:02 METAR KRDU 042251Z 28007KT 10SM SCT250 26/04 A2988 RMK AO2 SLP113 T02560044 (JBA)","FM-15","7",,,,,,,,,,,,,,,,,,,,,,,,,,,,"2009-07-08"
"72306013722","2020-05-04T18:51:00","FM-15","7",,,,,,,,,,,,,,,,,,,,,,,,,,,,,,,,,,,,,,"29.89","42","73","0.00",,"-0.04","3","33","29.88","SCT:04 250","29.42","10.00","56","000",,"0",,,,,,,,,,,,,,,,,,,,,,,,,,,,,,,,,,,,,"MET11705/04/20 18:51:02 METAR KRDU 042351Z 00000KT 10SM SCT250 23/06 A2989 RMK AO2 SLP119 T02280056 10267 20228 53015 (JBA)","FM-15","7",,,,,,,,,,,,,,,,,,,,,,,,,,,,"2009-07-08"
"72306013722","2020-05-04T19:00:00","FM-12","4",,,,,,,,,,,,,,,,,,,,,,,,,,,,,,,,,,,,,,,"42","73",,,"-0.04","3","33","29.88",,"29.43","9.94","56","000",,"0",,,,,,,,,,,,,,,,,,,,,,,,,,,,,,,,,,,,,"SYN08072306 32966 40000 10228 20056 39966 40119 53015 92351 333 10267 20178 555 90500=","FM-12","4",,,,,,,,,,,,,,,,,,,,,,,,,,,,"2009-07-08"
"72306013722","2020-05-04T19:51:00","FM-15","7",,,,,,,,,,,,,,,,,,,,,,,,,,,,,,,,,,,,,,"29.92","46","67","0.00",,,,"47","29.91","SCT:04 250","29.45","10.00","56","000",,"0",,,,,,,,,,,,,,,,,,,,,,,,,,,,,,,,,,,,,"MET09305/04/20 19:51:01 METAR KRDU 050051Z 00000KT 10SM SCT250 19/08 A2992 RMK AO2 SLP127 T01940078","FM-15","7",,,,,,,,,,,,,,,,,,,,,,,,,,,,"2009-07-08"
"72306013722","2020-05-04T20:51:00","FM-15","7",,,,,,,,,,,,,,,,,,,,,,,,,,,,,,,,,,,,,,"29.94","46","63","0.00",,,,"54","29.92","BKN:07 250","29.47","10.00","54","000",,"0",,,,,,,,,,,,,,,,,,,,,,,,,,,,,,,,,,,,,"MET09305/04/20 20:51:01 METAR KRDU 050151Z 00000KT 10SM BKN250 17/08 A2994 RMK AO2 SLP133 T01720078","FM-15","7",,,,,,,,,,,,,,,,,,,,,,,,,,,,"2009-07-08"
"72306013722","2020-05-04T21:51:00","FM-15","7",,,,,,,,,,,,,,,,,,,,,,,,,,,,,,,,,,,,,,"29.94","49","61","0.00",,"-0.04","1","65","29.92","BKN:07 250","29.47","10.00","55","000",,"0",,,,,,,,,,,,,,,,,,,,,,,,,,,,,,,,,,,,,"MET09905/04/20 21:51:01 METAR KRDU 050251Z 00000KT 10SM BKN250 16/09 A2994 RMK AO2 SLP133 T01610094 51014","FM-15","7",,,,,,,,,,,,,,,,,,,,,,,,,,,,"2009-07-08"
"72306013722","2020-05-04T22:51:00","FM-15","7",,,,,,,,,,,,,,,,,,,,,,,,,,,,,,,,,,,,,,"29.93","49","59","0.00",,,,"69","29.91","BKN:07 250","29.46","10.00","54","050",,"5",,,,,,,,,,,,,,,,,,,,,,,,,,,,,,,,,,,,,"MET09305/04/20 22:51:02 METAR KRDU 050351Z 05004KT 10SM BKN250 15/09 A2993 RMK AO2 SLP130 T01500094","FM-15","7",,,,,,,,,,,,,,,,,,,,,,,,,,,,"2009-07-08"
"72306013722","2020-05-04T23:51:00","FM-15","7",,,,,,,,,,,,,,,,,,,,,,,,,,,,,,,,,,,,,,"29.93","47","59","0.00",,,,"64","29.91","BKN:07 250","29.46","10.00","53","000",,"0",,,,,,,,,,,,,,,,,,,,,,,,,,,,,,,,,,,,,"MET10305/04/20 23:51:02 METAR KRDU 050451Z 00000KT 10SM BKN250 15/08 A2993 RMK AO2 SLP130 T01500083 402670139","FM-15","7",,,,,,,,,,,,,,,,,,,,,,,,,,,,"2009-07-08"
"72306013722","2020-05-04T23:59:00","SOD  ","6",,,,,,,,,,,,,,,"50","69","50","29.84","29.37","59","6.0","4","4.2","0","80","57","290","24","T","0","0.0","300","17",,,,,,,,,,,,,,,,,,,,,,,,,,,,,,,,,,,,,,,,,,,,,,,,,,,,,,,,,"SOD73924 HR PRECIPITATION (IN):    T SNOW DEPTH (IN):0     24 HR SNOWFALL (IN):0.0  24 HR MAX TEMP (F): 8024 HR MIN TEMP (F): 57AVERAGE STATION PRESSURE:29.370 MINIMUM SEA LEVEL PRESSURE:29.70 TIME OF OCCURRENCE:0057 PEAK WIND SPEED (MPH): 24 PEAK WIND DIR (DEG):290 PEAK WIND TIME (LST):      FASTEST 2MIN SPEED (MPH): 17FASTEST 2MIN DIR (DEG):300 FASTEST 2MIN TIME (LST):     AVERAGE WIND SPEED (MPH): 6.0 24 HR AVG TEMP (F): 69DEPART FROM NORMAL:  4  HEATING DEGREE DAYS:  0 COOLING DEGREE DAYS:  4 LATEST DAY MAX TEMP (0700-1900 LST):80  LATEST NIGHT MIN TEMP(1900-0800 LST):64 HOURLY INCREMENTAL PRECIPITATION VALUES (IN):.00 0.00 0.00 T    0.00 0.00 0.00 0.00 0.00 0.00 0.00 0.00 0.00 0.00 0.00 0.00 0.00 0.00 0.00 0.00 0.00 0.00 0.00 0.00","SOD  ","6",,,,,,,,,,,,,,,,,,,,,,,,,"0519","1905",,"2009-07-08"
"72306013722","2020-05-05T00:51:00","FM-15","7",,,,,,,,,,,,,,,,,,,,,,,,,,,,,,,,,,,,,,"29.89","48","54","0.00",,"+0.04","8","80","29.88","FEW:02 100 BKN:07 250","29.42","10.00","51","000",,"0",,,,,,,,,,,,,,,,,,,,,,,,,,,,,,,,,,,,,"MET12405/05/20 00:51:02 METAR KRDU 050551Z 00000KT 10SM FEW100 BKN250 12/09 A2989 RMK AO2 SLP120 T01220089 10228 20117 58014 (AWB)","FM-15","7",,,,,,,,,,,,,,,,,,,,,,,,,,,,"2009-07-08"
"72306013722","2020-05-05T01:00:00","FM-12","4",,,,,,,,,,,,,,,,,,,,,,,,,,,,,,,,,,,,,,,"48","54",,,"+0.04","8","80","29.88",,"29.43","9.94","51","000",,"0",,,,,,,,,,,,,,,,,,,,,,,,,,,,,,,,,,,,,"SYN08072306 32966 60000 10122 20089 39966 40120 58014 90551 333 10228 20117 555 90506=","FM-12","4",,,,,,,,,,,,,,,,,,,,,,,,,,,,"2009-07-08"
"72306013722","2020-05-05T01:51:00","FM-15","7",,,,,,,,,,,,,,,,,,,,,,,,,,,,,,,,,,,,,,"29.91","43","61","0.00",,,,"52","29.89","BKN:07 110 BKN:07 250","29.44","10.00","52","090",,"13",,,,,,,,,,,,,,,,,,,,,,,,,,,,,,,,,,,,,"MET10605/05/20 01:51:02 METAR KRDU 050651Z 09011KT 10SM BKN110 BKN250 16/06 A2991 RMK AO2 SLP123 T01610061 (AWB)","FM-15","7",,,,,,,,,,,,,,,,,,,,,,,,,,,,"2009-07-08"
"72306013722","2020-05-05T02:51:00","FM-15","7",,,,,,,,,,,,,,,,,,,,,,,,,,,,,,,,,,,,,,"29.91","42","61","0.00",,,,"50","29.89","BKN:07 100 OVC:08 250","29.44","10.00","51","080",,"13",,,,,,,,,,,,,,,,,,,,,,,,,,,,,,,,,,,,,"MET10605/05/20 02:51:02 METAR KRDU 050751Z 08011KT 10SM BKN100 OVC250 16/06 A2991 RMK AO2 SLP123 T01610056 (AWB)","FM-15","7",,,,,,,,,,,,,,,,,,,,,,,,,,,,"2009-07-08"
"72306013722","2020-05-05T03:51:00","FM-15","7",,,,,,,,,,,,,,,,,,,,,,,,,,,,,,,,,,,,,,"29.93","43","61","T","-RA:02 |RA |RA","-0.04","3","52","29.92","OVC:08 90","29.46","10.00","52","080",,"9",,,,,,,,,,,,,,,,,,,,,,,,,,,,,,,,,,,,,"MET12705/05/20 03:51:02 METAR KRDU 050851Z 08008KT 10SM -RA OVC090 16/06 A2993 RMK AO2 RAB50 SLP133 P0000 60000 T01610061 53014 (AWB)","FM-15","7",,,,,,,,,,,,,,,,,,,,,,,,,,,,"2009-07-08"
"72306013722","2020-05-05T04:51:00","FM-15","7",,,,,,,,,,,,,,,,,,,,,,,,,,,,,,,,,,,,,,"29.93","48","56","0.02","-RA:02 |RA |RA",,,"75","29.92","FEW:02 65 BKN:07 85 OVC:08 100","29.46","10.00","52","080",,"11",,,,,,,,,,,,,,,,,,,,,,,,,,,,,,,,,,,,,"MET12305/05/20 04:51:02 METAR KRDU 050951Z 08010KT 10SM -RA FEW065 BKN085 OVC100 13/09 A2993 RMK AO2 SLP132 P0002 T01330089 (AWB)","FM-15","7",,,,,,,,,,,,,,,,,,,,,,,,,,,,"2009-07-08"
"72306013722","2020-05-05T05:51:00","FM-15","7",,,,,,,,,,,,,,,,,,,,,,,,,,,,,,,,,,,,,,"29.94","49","56","T",,,,"77","29.93","BKN:07 80 OVC:08 110","29.47","10.00","52","120",,"6",,,,,,,,,,,,,,,,,,,,,,,,,,,,,,,,,,,,,"MET11805/05/20 05:51:02 METAR KRDU 051051Z 12005KT 10SM BKN080 OVC110 13/09 A2994 RMK AO2 RAE37 SLP135 P0000 T01330094 (AWB)","FM-15","7",,,,,,,,,,,,,,,,,,,,,,,,,,,,"2009-07-08"
"72306013722","2020-05-05T06:51:00","FM-15","7",,,,,,,,,,,,,,,,,,,,,,,,,,,,,,,,,,,,,,"29.95","49","56","0.00",,"-0.02","3","77","29.95","BKN:07 75 OVC:08 110","29.48","10.00","52","090",,"7",,,,,,,,,,,,,,,,,,,,,,,,,,,,,,,,,,,,,"MET13605/05/20 06:51:02 METAR KRDU 051151Z 09006KT 10SM BKN075 OVC110 13/09 A2995 RMK AO2 SLP141 60002 70002 T01330094 10167 20117 53006 (KAH)","FM-15","7",,,,,,,,,,,,,,,,,,,,,,,,,,,,"2009-07-08"
"72306013722","2020-05-05T07:00:00","FM-12","4",,,,,,,,,,,,,,,,,,,,,,,,,,,,,,,,,,,,,,,"49","56",,,"-0.02","3","77","29.95","74","29.49","9.94","52","090",,"7",,,,,,,,,,,,,,,,,,,,,,,,,,,,,,,,,,,,,"SYN09272306 12866 80906 10133 20094 39986 40141 53006 69951 91151 333 10267 20117 70005 555 90512=","FM-12","4",,,,,,,,,,,,,,,,,,,,,,,,,,,,"2009-07-08"
"72306013722","2020-05-05T07:51:00","FM-15","6",,,,,,,,,,,,,,,,,,,,,,,,,,,,,,,,,,,,,,"29.93","48","58","0.00",,,,"70","29.92","BKN:07 70 BKN:07 110 OVC:08 250","29.46","10.00","53","100","17","11",,,,,,,,,,,,,,,,,,,,,,,,,,,,,,,,,,,,,"MET11605/05/20 07:51:02 METAR KRDU 051251Z 10010G15KT 10SM BKN070 BKN110 OVC250 14/09 A2993 RMK AO2 SLP133 T01440089 (KAH)","FM-15","6",,,,,,,,,,,,,,,,,,,,,,,,,,,,"2009-07-08"
"72306013722","2020-05-05T08:51:00","FM-15","7",,,,,,,,,,,,,,,,,,,,,,,,,,,,,,,,,,,,,,"29.93","46","59","0.00",,,,"62","29.93","BKN:07 65 BKN:07 110 OVC:08 250","29.46","10.00","52","090",,"13",,,,,,,,,,,,,,,,,,,,,,,,,,,,,,,,,,,,,"MET11305/05/20 08:51:02 METAR KRDU 051351Z 09011KT 10SM BKN065 BKN110 OVC250 15/08 A2993 RMK AO2 SLP134 T01500078 (KAH)","FM-15","7",,,,,,,,,,,,,,,,,,,,,,,,,,,,"2009-07-08"
"72306013722","2020-05-05T09:51:00","FM-15","7",,,,,,,,,,,,,,,,,,,,,,,,,,,,,,,,,,,,,,"29.98","47","61","0.00",,"-0.02","3","60","29.97","BKN:07 55 BKN:07 110 OVC:08 250","29.51","10.00","54","100",,"6",,,,,,,,,,,,,,,,,,,,,,,,,,,,,,,,,,,,,"MET12605/05/20 09:51:02 METAR KRDU 051451Z 10005KT 10SM BKN055 BKN110 OVC250 16/08 A2998 RMK AO2 PRESRR SLP149 T01610083 53007 (KAH)","FM-15","7",,,,,,,,,,,,,,,,,,,,,,,,,,,,"2009-07-08"
"72306013722","2020-05-05T10:51:00","FM-15","7",,,,,,,,,,,,,,,,,,,,,,,,,,,,,,,,,,,,,,"29.94","46","61","T",,,,"58","29.93","BKN:07 48 BKN:07 120 OVC:08 250","29.47","10.00","53","050",,"9",,,,,,,,,,,,,,,,,,,,,,,,,,,,,,,,,,,,,"MET12805/05/20 10:51:02 METAR KRDU 051551Z 05008KT 10SM BKN048 BKN120 OVC250 16/08 A2994 RMK AO2 RAB27E39 SLP137 P0000 T01610078 (KAH)","FM-15","7",,,,,,,,,,,,,,,,,,,,,,,,,,,,"2009-07-08"
"72306013722","2020-05-05T11:51:00","FM-15","7",,,,,,,,,,,,,,,,,,,,,,,,,,,,,,,,,,,,,,"29.96","49","61","0.00",,,,"65","29.96","FEW:02 28 BKN:07 45 BKN:07 120","29.49","10.00","55","VRB",,"6",,,,,,,,,,,,,,,,,,,,,,,,,,,,,,,,,,,,,"MET11305/05/20 11:51:02 METAR KRDU 051651Z VRB05KT 10SM FEW028 BKN045 BKN120 16/09 A2996 RMK AO2 SLP145 T01610094 (KAH)","FM-15","7",,,,,,,,,,,,,,,,,,,,,,,,,,,,"2009-07-08"
"72306013722","2020-05-05T12:51:00","FM-15","7",,,,,,,,,,,,,,,,,,,,,,,,,,,,,,,,,,,,,,"29.90","49","60","0.00",,"+0.07","8","67","29.90","FEW:02 28 SCT:04 45 BKN:07 120","29.43","10.00","54","100",,"9",,,,,,,,,,,,,,,,,,,,,,,,,,,,,,,,,,,,,"MET14405/05/20 12:51:02 METAR KRDU 051751Z 10008KT 10SM FEW028 SCT045 BKN120 16/09 A2990 RMK AO2 PRESFR SLP124 60000 T01560094 10167 20133 58024 (KAH)","FM-15","7",,,,,,,,,,,,,,,,,,,,,,,,,,,,"2009-07-08"
"72306013722","2020-05-05T13:00:00","FM-12","4",,,,,,,,,,,,,,,,,,,,,,,,,,,,,,,,,,,,,,,"49","60",,,"+0.07","8","67","29.90","26","29.44","9.94","54","100",,"9",,,,,,,,,,,,,,,,,,,,,,,,,,,,,,,,,,,,,"SYN08672306 12566 81008 10156 20094 39970 40124 58024 69901 91751 333 10167 20133 555 90518=","FM-12","4",,,,,,,,,,,,,,,,,,,,,,,,,,,,"2009-07-08"
"72306013722","2020-05-05T13:51:00","FM-15","7",,,,,,,,,,,,,,,,,,,,,,,,,,,,,,,,,,,,,,"29.84","51","67","0.00",,,,"57","29.83","FEW:02 35 FEW:02 90 SCT:04 120","29.37","10.00","58","120",,"11",,,,,,,,,,,,,,,,,,,,,,,,,,,,,,,,,,,,,"MET11305/05/20 13:51:02 METAR KRDU 051851Z 12010KT 10SM FEW035 FEW090 SCT120 19/11 A2984 RMK AO2 SLP100 T01940106 (KAH)","FM-15","7",,,,,,,,,,,,,,,,,,,,,,,,,,,,"2009-07-08"
"72306013722","2020-05-05T14:51:00","FM-15","7",,,,,,,,,,,,,,,,,,,,,,,,,,,,,,,,,,,,,,"29.86","53","69","0.00",,,,"57","29.85","FEW:02 35 BKN:07 160 BKN:07 250","29.39","10.00","60","290",,"6",,,,,,,,,,,,,,,,,,,,,,,,,,,,,,,,,,,,,"MET11305/05/20 14:51:02 METAR KRDU 051951Z 29005KT 10SM FEW035 BKN160 BKN250 21/12 A2986 RMK AO2 SLP110 T02060117 (JBA)","FM-15","7",,,,,,,,,,,,,,,,,,,,,,,,,,,,"2009-07-08"
"72306013722","2020-05-05T15:51:00","FM-15","7",,,,,,,,,,,,,,,,,,,,,,,,,,,,,,,,,,,,,,"29.83","54","70","0.00",,"+0.08","6","57","29.82","BKN:07 35 BKN:07 160 OVC:08 250","29.36","10.00","61","VRB",,"3",,,,,,,,,,,,,,,,,,,,,,,,,,,,,,,,,,,,,"MET11905/05/20 15:51:02 METAR KRDU 052051Z VRB03KT 10SM BKN035 BKN160 OVC250 21/12 A2983 RMK AO2 SLP097 T02110122 56026 (JBA)","FM-15","7",,,,,,,,,,,,,,,,,,,,,,,,,,,,"2009-07-08"
"72306013722","2020-05-05T16:51:00","FM-15","7",,,,,,,,,,,,,,,,,,,,,,,,,,,,,,,,,,,,,,"29.82","55","70","0.00",,,,"59","29.81","SCT:04 35 OVC:08 50","29.35","10.00","61","130",,"5",,,,,,,,,,,,,,,,,,,,,,,,,,,,,,,,,,,,,"MET10605/05/20 16:51:02 METAR KRDU 052151Z 13004KT 10SM SCT035 OVC050 21/13 A2982 RMK AO2 SLP094 T02110128 (JBA)","FM-15","7",,,,,,,,,,,,,,,,,,,,,,,,,,,,"2009-07-08"
"72306013722","2020-05-05T17:51:00","FM-15","7",,,,,,,,,,,,,,,,,,,,,,,,,,,,,,,,,,,,,,"29.81","54","66","0.00",,,,"65","29.80","SCT:04 38 BKN:07 46 OVC:08 250","29.34","10.00","59","050",,"8",,,,,,,,,,,,,,,,,,,,,,,,,,,,,,,,,,,,,"MET11305/05/20 17:51:02 METAR KRDU 052251Z 05007KT 10SM SCT038 BKN046 OVC250 19/12 A2981 RMK AO2 SLP092 T01890122 (JBA)","FM-15","7",,,,,,,,,,,,,,,,,,,,,,,,,,,,"2009-07-08"
"72306013722","2020-05-05T18:51:00","FM-15","7",,,,,,,,,,,,,,,,,,,,,,,,,,,,,,,,,,,,,,"29.82","55","64","0.00",,"+0.01","5","73","29.81","BKN:07 38 OVC:08 46","29.35","10.00","59","020",,"7",,,,,,,,,,,,,,,,,,,,,,,,,,,,,,,,,,,,,"MET12405/05/20 18:51:02 METAR KRDU 052351Z 02006KT 10SM BKN038 OVC046 18/13 A2982 RMK AO2 SLP096 T01780128 10228 20156 55002 (JBA)","FM-15","7",,,,,,,,,,,,,,,,,,,,,,,,,,,,"2009-07-08"
"72306013722","2020-05-05T19:00:00","FM-12","4",,,,,,,,,,,,,,,,,,,,,,,,,,,,,,,,,,,,,,,"55","64",,,"+0.01","5","73","29.81","41","29.36","9.94","59","020",,"7",,,,,,,,,,,,,,,,,,,,,,,,,,,,,,,,,,,,,"SYN08072306 32666 80206 10178 20128 39943 40096 55002 92351 333 10228 20117 555 90600=","FM-12","4",,,,,,,,,,,,,,,,,,,,,,,,,,,,"2009-07-08"
"72306013722","2020-05-05T19:51:00","FM-15","7",,,,,,,,,,,,,,,,,,,,,,,,,,,,,,,,,,,,,,"29.81","54","63","0.00",,,,"73","29.80","BKN:07 35 OVC:08 220","29.34","10.00","58","070",,"8",,,,,,,,,,,,,,,,,,,,,,,,,,,,,,,,,,,,,"MET10005/05/20 19:51:01 METAR KRDU 060051Z 07007KT 10SM BKN035 OVC220 17/12 A2981 RMK AO2 SLP091 T01720122","FM-15","7",,,,,,,,,,,,,,,,,,,,,,,,,,,,"2009-07-08"
"72306013722","2020-05-05T20:51:00","FM-15","7",,,,,,,,,,,,,,,,,,,,,,,,,,,,,,,,,,,,,,"29.80","54","63","0.00",,,,"73","29.79","FEW:02 55 FEW:02 100 OVC:08 200","29.33","10.00","58","100",,"9",,,,,,,,,,,,,,,,,,,,,,,,,,,,,,,,,,,,,"MET10705/05/20 20:51:01 METAR KRDU 060151Z 10008KT 10SM FEW055 FEW100 OVC200 17/12 A2980 RMK AO2 SLP087 T01720122","FM-15","7",,,,,,,,,,,,,,,,,,,,,,,,,,,,"2009-07-08"
"72306013722","2020-05-05T21:24:00","FM-16","7",,,,,,,,,,,,,,,,,,,,,,,,,,,,,,,,,,,,,,"29.80","54","63","T",,,,"73",,"OVC:08 29","29.33","10.00","58","110",,"7",,,,,,,,,,,,,,,,,,,,,,,,,,,,,,,,,,,,,"MET10105/05/20 21:24:02 SPECI KRDU 060224Z 11006KT 10SM OVC029 17/12 A2980 RMK AO2 RAB00E22 P0000 T01720122","FM-16","7",,,,,,,,,,,,,,,,,,,,,,,,,,,,"2009-07-08"
"72306013722","2020-05-05T21:43:00","FM-16","7",,,,,,,,,,,,,,,,,,,,,,,,,,,,,,,,,,,,,,"29.79","54","63","T",,,,"73",,"BKN:07 31 OVC:08 46","29.32","10.00","58","120",,"9",,,,,,,,,,,,,,,,,,,,,,,,,,,,,,,,,,,,,"MET10805/05/20 21:43:02 SPECI KRDU 060243Z 12008KT 10SM BKN031 OVC046 17/12 A2979 RMK AO2 RAB00E22 P0000 T01720122","FM-16","7",,,,,,,,,,,,,,,,,,,,,,,,,,,,"2009-07-08"
"72306013722","2020-05-05T21:51:00","FM-15","7",,,,,,,,,,,,,,,,,,,,,,,,,,,,,,,,,,,,,,"29.81","54","63","T",,"+0.01","5","73","29.80","SCT:04 28 BKN:07 31 OVC:08 50","29.34","10.00","58","120",,"10",,,,,,,,,,,,,,,,,,,,,,,,,,,,,,,,,,,,,"MET13405/05/20 21:51:02 METAR KRDU 060251Z 12009KT 10SM SCT028 BKN031 OVC050 17/12 A2981 RMK AO2 RAB00E22 SLP091 P0000 60000 T01720122 55004","FM-15","7",,,,,,,,,,,,,,,,,,,,,,,,,,,,"2009-07-08"
"72306013722","2020-05-05T22:00:00","FM-16","7",,,,,,,,,,,,,,,,,,,,,,,,,,,,,,,,,,,,,,"29.81","54","63",,,,,"73",,"BKN:07 26 BKN:07 36 OVC:08 65","29.34","10.00","58","140",,"5",,,,,,,,,,,,,,,,,,,,,,,,,,,,,,,,,,,,,"MET10005/05/20 22:00:02 SPECI KRDU 060300Z 14004KT 10SM BKN026 BKN036 OVC065 17/12 A2981 RMK AO2 T01720122","FM-16","7",,,,,,,,,,,,,,,,,,,,,,,,,,,,"2009-07-08"
"72306013722","2020-05-05T22:51:00","FM-15","7",,,,,,,,,,,,,,,,,,,,,,,,,,,,,,,,,,,,,,"29.78","54","62","0.00",,,,"75","29.77","BKN:07 26 OVC:08 40","29.31","10.00","57","110",,"10",,,,,,,,,,,,,,,,,,,,,,,,,,,,,,,,,,,,,"MET10705/05/20 22:51:02 METAR KRDU 060351Z 11009KT 10SM BKN026 OVC040 17/12 A2978 RMK AO2 PRESFR SLP080 T01670122","FM-15","7",,,,,,,,,,,,,,,,,,,,,,,,,,,,"2009-07-08"
"72306013722","2020-05-05T23:24:00","FM-16","7",,,,,,,,,,,,,,,,,,,,,,,,,,,,,,,,,,,,,,"29.73","54","61",,,,,"78",,"SCT:04 23 BKN:07 110 OVC:08 200","29.26","10.00","57","100",,"8",,,,,,,,,,,,,,,,,,,,,,,,,,,,,,,,,,,,,"MET10005/05/20 23:24:02 SPECI KRDU 060424Z 10007KT 10SM SCT023 BKN110 OVC200 16/12 A2973 RMK AO2 T01610122","FM-16","7",,,,,,,,,,,,,,,,,,,,,,,,,,,,"2009-07-08"
"72306013722","2020-05-05T23:51:00","FM-15","7",,,,,,,,,,,,,,,,,,,,,,,,,,,,,,,,,,,,,,"29.73","54","60","0.00",,,,"80","29.72","FEW:02 14 BKN:07 21 BKN:07 110","29.26","10.00","57","060",,"6",,,,,,,,,,,,,,,,,,,,,,,,,,,,,,,,,,,,,"MET11705/05/20 23:51:02 METAR KRDU 060451Z 06005KT 10SM FEW014 BKN021 BKN110 16/12 A2973 RMK AO2 SLP065 T01560122 402280117","FM-15","7",,,,,,,,,,,,,,,,,,,,,,,,,,,,"2009-07-08"
"72306013722","2020-05-05T23:59:00","SOD  ","6",,,,,,,,,,,,,,,"50","63","66","29.87","29.42","55","8.2","0","-2.1","2","73","53","110","21","0.02","0","0.0","100","16","RA",,,,,,,,,,,,,,,,,,,,,,,,,,,,,,,,,,,,,,,,,,,,,,,,,,,,,,,,"SOD73924 HR PRECIPITATION (IN): 0.02 SNOW DEPTH (IN):0     24 HR SNOWFALL (IN):0.0  24 HR MAX TEMP (F): 7324 HR MIN TEMP (F): 53AVERAGE STATION PRESSURE:29.420 MINIMUM SEA LEVEL PRESSURE:29.72 TIME OF OCCURRENCE:2355 PEAK WIND SPEED (MPH): 21 PEAK WIND DIR (DEG):110 PEAK WIND TIME (LST):      FASTEST 2MIN SPEED (MPH): 16FASTEST 2MIN DIR (DEG):100 FASTEST 2MIN TIME (LST):     AVERAGE WIND SPEED (MPH): 8.2 24 HR AVG TEMP (F): 63DEPART FROM NORMAL: -2  HEATING DEGREE DAYS:  2 COOLING DEGREE DAYS:  0 LATEST DAY MAX TEMP (0700-1900 LST):73  LATEST NIGHT MIN TEMP(1900-0800 LST):53 HOURLY INCREMENTAL PRECIPITATION VALUES (IN):.00 0.00 0.00 T    0.02 T    0.00 0.00 0.00 0.00 T    0.00 0.00 0.00 0.00 0.00 0.00 0.00 0.00 0.00 0.00 T    0.00 0.00","SOD  ","6",,,,,,,,,,,,,,,,,,,,,,,,,"0518","1906",,"2009-07-08"
"72306013722","2020-05-06T00:08:00","FM-16","7",,,,,,,,,,,,,,,,,,,,,,,,,,,,,,,,,,,,,,"29.74","54","61",,,,,"78",,"BKN:07 14 OVC:08 110","29.27","10.00","57","060",,"3",,,,,,,,,,,,,,,,,,,,,,,,,,,,,,,,,,,,,"MET09905/06/20 00:08:02 SPECI KRDU 060508Z 06003KT 10SM BKN014 OVC110 16/12 A2974 RMK AO2 T01610122 (AWB)","FM-16","7",,,,,,,,,,,,,,,,,,,,,,,,,,,,"2009-07-08"
"72306013722","2020-05-06T00:51:00","FM-15","7",,,,,,,,,,,,,,,,,,,,,,,,,,,,,,,,,,,,,,"29.77","54","61","0.00",,"+0.04","5","78","29.77","OVC:08 14","29.30","10.00","57","VRB",,"7",,,,,,,,,,,,,,,,,,,,,,,,,,,,,,,,,,,,,"MET12305/06/20 00:51:02 METAR KRDU 060551Z VRB06KT 10SM OVC014 16/12 A2977 RMK AO2 SLP080 60000 T01610122 10178 20156 55012 (AWB)","FM-15","7",,,,,,,,,,,,,,,,,,,,,,,,,,,,"2009-07-08"
"72306013722","2020-05-06T01:00:00","FM-12","4",,,,,,,,,,,,,,,,,,,,,,,,,,,,,,,,,,,,,,,"54","61",,,"+0.04","5","78","29.77","15","29.31","9.94","57",,,"7",,,,,,,,,,,,,,,,,,,,,,,,,,,,,,,,,,,,,"SYN08672306 12466 8//06 10161 20122 39926 40080 55012 69901 90551 333 10178 20117 555 90606=","FM-12","4",,,,,,,,,,,,,,,,,,,,,,,,,,,,"2009-07-08"
"72306013722","2020-05-06T01:00:00","FM-16","7",,,,,,,,,,,,,,,,,,,,,,,,,,,,,,,,,,,,,,"29.78","54","59",,,,,"83",,"FEW:02 9 OVC:08 16","29.31","10.00","56","350",,"6",,,,,,,,,,,,,,,,,,,,,,,,,,,,,,,,,,,,,"MET09905/06/20 01:00:02 SPECI KRDU 060600Z 35005KT 10SM FEW009 OVC016 15/12 A2978 RMK AO2 T01500122 (AWB)","FM-16","7",,,,,,,,,,,,,,,,,,,,,,,,,,,,"2009-07-08"
"72306013722","2020-05-06T01:51:00","FM-15","7",,,,,,,,,,,,,,,,,,,,,,,,,,,,,,,,,,,,,,"29.77","54","58","T",,,,"87","29.76","FEW:02 8 OVC:08 13","29.30","10.00","56","VRB",,"7",,,,,,,,,,,,,,,,,,,,,,,,,,,,,,,,,,,,,"MET12105/06/20 01:51:02 METAR KRDU 060651Z VRB06KT 10SM FEW008 OVC013 14/12 A2977 RMK AO2 RAB18E49 SLP078 P0000 T01440122 (AWB)","FM-15","7",,,,,,,,,,,,,,,,,,,,,,,,,,,,"2009-07-08"
"72306013722","2020-05-06T02:18:00","FM-16","7",,,,,,,,,,,,,,,,,,,,,,,,,,,,,,,,,,,,,,"29.77","54","58","T","-RA:02 |RA |RA",,,"87",,"BKN:07 7 OVC:08 18","29.30","9.00","56","VRB",,"3",,,,,,,,,,,,,,,,,,,,,,,,,,,,,,,,,,,,,"MET11405/06/20 02:18:02 SPECI KRDU 060718Z VRB03KT 9SM -RA BKN007 OVC018 14/12 A2977 RMK AO2 RAB17 P0000 T01440122 (AWB)","FM-16","7",,,,,,,,,,,,,,,,,,,,,,,,,,,,"2009-07-08"
"72306013722","2020-05-06T02:51:00","FM-15","7",,,,,,,,,,,,,,,,,,,,,,,,,,,,,,,,,,,,,,"29.78","54","57","T","-RA:02 |RA |RA",,,"90","29.77","BKN:07 6 OVC:08 30","29.31","7.00","55","VRB",,"5",,,,,,,,,,,,,,,,,,,,,,,,,,,,,,,,,,,,,"MET12105/06/20 02:51:02 METAR KRDU 060751Z VRB04KT 7SM -RA BKN006 OVC030 14/12 A2978 RMK AO2 RAB17 SLP080 P0000 T01390122 (AWB)","FM-15","7",,,,,,,,,,,,,,,,,,,,,,,,,,,,"2009-07-08"
"72306013722","2020-05-06T03:36:00","FM-16","7",,,,,,,,,,,,,,,,,,,,,,,,,,,,,,,,,,,,,,"29.78","54","56","T",,,,"93",,"SCT:04 6 BKN:07 35 BKN:07 70","29.31","10.00","55","010",,"5",,,,,,,,,,,,,,,,,,,,,,,,,,,,,,,,,,,,,"MET11805/06/20 03:36:02 SPECI KRDU 060836Z 01004KT 10SM SCT006 BKN035 BKN070 13/12 A2978 RMK AO2 RAE34 P0000 T01330122 (AWB)","FM-16","7",,,,,,,,,,,,,,,,,,,,,,,,,,,,"2009-07-08"
"72306013722","2020-05-06T03:51:00","FM-15","7",,,,,,,,,,,,,,,,,,,,,,,,,,,,,,,,,,,,,,"29.78","54","56","T",,"-0.01","3","93","29.77","BKN:07 6 BKN:07 35 BKN:07 70","29.31","10.00","55","020",,"3",,,,,,,,,,,,,,,,,,,,,,,,,,,,,,,,,,,,,"MET13705/06/20 03:51:02 METAR KRDU 060851Z 02003KT 10SM BKN006 BKN035 BKN070 13/12 A2978 RMK AO2 RAE34 SLP082 P0000 60000 T01330122 53003 (AWB)","FM-15","7",,,,,,,,,,,,,,,,,,,,,,,,,,,,"2009-07-08"
"72306013722","2020-05-06T04:51:00","FM-15","7",,,,,,,,,,,,,,,,,,,,,,,,,,,,,,,,,,,,,,"29.80","53","56","0.00",,,,"90","29.79","BKN:07 7 OVC:08 65","29.33","10.00","54","020",,"6",,,,,,,,,,,,,,,,,,,,,,,,,,,,,,,,,,,,,"MET10605/06/20 04:51:02 METAR KRDU 060951Z 02005KT 10SM BKN007 OVC065 13/12 A2980 RMK AO2 SLP088 T01330117 (AWB)","FM-15","7",,,,,,,,,,,,,,,,,,,,,,,,,,,,"2009-07-08"
"72306013722","2020-05-06T05:51:00","FM-15","7",,,,,,,,,,,,,,,,,,,,,,,,,,,,,,,,,,,,,,"29.81","52","56","0.00",,,,"87","29.80","BKN:07 7 BKN:07 45 BKN:07 65","29.34","10.00","54","040",,"3",,,,,,,,,,,,,,,,,,,,,,,,,,,,,,,,,,,,,"MET11305/06/20 05:51:02 METAR KRDU 061051Z 04003KT 10SM BKN007 BKN045 BKN065 13/11 A2981 RMK AO2 SLP091 T01330111 (AWB)","FM-15","7",,,,,,,,,,,,,,,,,,,,,,,,,,,,"2009-07-08"
"72306013722","2020-05-06T06:51:00","FM-15","7",,,,,,,,,,,,,,,,,,,,,,,,,,,,,,,,,,,,,,"29.82","52","56","0.00",,"-0.04","1","87","29.81","BKN:07 9 BKN:07 45 BKN:07 70","29.35","10.00","54","000",,"0",,,,,,,,,,,,,,,,,,,,,,,,,,,,,,,,,,,,,"MET13705/06/20 06:51:02 METAR KRDU 061151Z 00000KT 10SM BKN009 BKN045 BKN070 13/11 A2982 RMK AO2 SLP095 60000 T01330111 10161 20128 51012 (KAH)","FM-15","7",,,,,,,,,,,,,,,,,,,,,,,,,,,,"2009-07-08"
"72306013722","2020-05-06T07:00:00","FM-12","4",,,,,,,,,,,,,,,,,,,,,,,,,,,,,,,,,,,,,,,"52","56",,,"-0.04","1","87","29.81","8","29.36","9.94","54","000",,"0",,,,,,,,,,,,,,,,,,,,,,,,,,,,,,,,,,,,,"SYN08672306 12366 80000 10133 20111 39943 40095 51012 69901 91151 333 10228 20128 555 90612=","FM-12","4",,,,,,,,,,,,,,,,,,,,,,,,,,,,"2009-07-08"
"72306013722","2020-05-06T07:34:00","FM-16","7",,,,,,,,,,,,,,,,,,,,,,,,,,,,,,,,,,,,,,"29.82","52","58",,,,,"81",,"SCT:04 10 SCT:04 70 BKN:07 250","29.35","10.00","55","000",,"0",,,,,,,,,,,,,,,,,,,,,,,,,,,,,,,,,,,,,"MET10605/06/20 07:34:02 SPECI KRDU 061234Z 00000KT 10SM SCT010 SCT070 BKN250 14/11 A2982 RMK AO2 T01440111 (KAH)","FM-16","7",,,,,,,,,,,,,,,,,,,,,,,,,,,,"2009-07-08"
"72306013722","2020-05-06T07:51:00","FM-15","7",,,,,,,,,,,,,,,,,,,,,,,,,,,,,,,,,,,,,,"29.83","53","58","0.00",,,,"84","29.82","SCT:04 12 SCT:04 75 BKN:07 250","29.36","10.00","55","260",,"5",,,,,,,,,,,,,,,,,,,,,,,,,,,,,,,,,,,,,"MET11305/06/20 07:51:02 METAR KRDU 061251Z 26004KT 10SM SCT012 SCT075 BKN250 14/12 A2983 RMK AO2 SLP098 T01440117 (KAH)","FM-15","7",,,,,,,,,,,,,,,,,,,,,,,,,,,,"2009-07-08"
"72306013722","2020-05-06T08:51:00","FM-15","7",,,,,,,,,,,,,,,,,,,,,,,,,,,,,,,,,,,,,,"29.82","53","62","0.00",,,,"73","29.81","SCT:04 20 SCT:04 75 BKN:07 250","29.35","10.00","57","VRB",,"3",,,,,,,,,,,,,,,,,,,,,,,,,,,,,,,,,,,,,"MET11305/06/20 08:51:02 METAR KRDU 061351Z VRB03KT 10SM SCT020 SCT075 BKN250 17/12 A2982 RMK AO2 SLP096 T01670117 (KAH)","FM-15","7",,,,,,,,,,,,,,,,,,,,,,,,,,,,"2009-07-08"
"72306013722","2020-05-06T09:51:00","FM-15","7",,,,,,,,,,,,,,,,,,,,,,,,,,,,,,,,,,,,,,"29.80","50","64","0.00",,"+0.01","8","60","29.80","SCT:04 30 SCT:04 250","29.33","10.00","56","300",,"6",,,,,,,,,,,,,,,,,,,,,,,,,,,,,,,,,,,,,"MET11205/06/20 09:51:02 METAR KRDU 061451Z 30005KT 10SM SCT030 SCT250 18/10 A2980 RMK AO2 SLP090 T01780100 58004 (KAH)","FM-15","7",,,,,,,,,,,,,,,,,,,,,,,,,,,,"2009-07-08"
"72306013722","2020-05-06T10:51:00","FM-15","7",,,,,,,,,,,,,,,,,,,,,,,,,,,,,,,,,,,,,,"29.79","49","67","0.00",,,,"53","29.78","SCT:04 42 SCT:04 250","29.32","10.00","57","260","16","13",,,,,,,,,,,,,,,,,,,,,,,,,,,,,,,,,,,,,"MET10905/06/20 10:51:02 METAR KRDU 061551Z 26011G14KT 10SM SCT042 SCT250 19/09 A2979 RMK AO2 SLP083 T01940094 (KAH)","FM-15","7",,,,,,,,,,,,,,,,,,,,,,,,,,,,"2009-07-08"
"72306013722","2020-05-06T11:51:00","FM-15","7",,,,,,,,,,,,,,,,,,,,,,,,,,,,,,,,,,,,,,"29.77","47","65","0.00",,,,"52","29.76","BKN:07 45 BKN:07 65","29.30","10.00","55","290","17","7",,,,,,,,,,,,,,,,,,,,,,,,,,,,,,,,,,,,,"MET10905/06/20 11:51:02 METAR KRDU 061651Z 29006G15KT 10SM BKN045 BKN065 18/08 A2977 RMK AO2 SLP079 T01830083 (KAH)","FM-15","7",,,,,,,,,,,,,,,,,,,,,,,,,,,,"2009-07-08"
"72306013722","2020-05-06T12:51:00","FM-15","7",,,,,,,,,,,,,,,,,,,,,,,,,,,,,,,,,,,,,,"29.75","47","69","0.00",,"+0.05","8","45","29.75","SCT:04 50 BKN:07 80","29.28","10.00","57","270","17","9",,,,,,,,,,,,,,,,,,,,,,,,,,,,,,,,,,,,,"MET12705/06/20 12:51:02 METAR KRDU 061751Z 27008G15KT 10SM SCT050 BKN080 21/08 A2975 RMK AO2 SLP073 T02060083 10211 20133 58017 (KAH)","FM-15","7",,,,,,,,,,,,,,,,,,,,,,,,,,,,"2009-07-08"
"72306013722","2020-05-06T13:00:00","FM-12","4",,,,,,,,,,,,,,,,,,,,,,,,,,,,,,,,,,,,,,,"47","69",,,"+0.05","8","45","29.75","57","29.29","9.94","57","270",,"9",,,,,,,,,,,,,,,,,,,,,,,,,,,,,,,,,,,,,"SYN08672306 32766 62708 10206 20083 39920 40073 58017 91751 333 10211 20133 91015 555 90618=","FM-12","4",,,,,,,,,,,,,,,,,,,,,,,,,,,,"2009-07-08"
"72306013722","2020-05-06T13:51:00","FM-15","7",,,,,,,,,,,,,,,,,,,,,,,,,,,,,,,,,,,,,,"29.74","46","71","0.00",,,,"41","29.73","SCT:04 60 BKN:07 80","29.27","10.00","57","VRB",,"9",,,,,,,,,,,,,,,,,,,,,,,,,,,,,,,,,,,,,"MET10605/06/20 13:51:02 METAR KRDU 061851Z 31008KT 10SM SCT060 BKN080 22/08 A2974 RMK AO2 SLP067 T02170078 (KAH)","FM-15","7",,,,,,,,,,,,,,,,,,,,,,,,,,,,"2009-07-08"
"72306013722","2020-05-06T14:51:00","FM-15","7",,,,,,,,,,,,,,,,,,,,,,,,,,,,,,,,,,,,,,"29.75","45","67","T","-RA:02 |RA |RA",,,"45","29.74","FEW:02 60 BKN:07 80 BKN:07 110","29.28","10.00","55","VRB","25","11",,,,,,,,,,,,,,,,,,,,,,,,,,,,,,,,,,,,,"MET13205/06/20 14:51:02 METAR KRDU 061951Z 33010G22KT 10SM -RA FEW060 BKN080 BKN110 19/07 A2975 RMK AO2 RAB47 SLP070 P0000 T01940072 (JBA)","FM-15","7",,,,,,,,,,,,,,,,,,,,,,,,,,,,"2009-07-08"
"72306013722","2020-05-06T15:00:00","FM-16","7",,,,,,,,,,,,,,,,,,,,,,,,,,,,,,,,,,,,,,"29.74","47","66","T",,,,"50",,"FEW:02 60 BKN:07 80 BKN:07 110","29.27","10.00","56","VRB","22","13",,,,,,,,,,,,,,,,,,,,,,,,,,,,,,,,,,,,,"MET13205/06/20 15:00:02 SPECI KRDU 062000Z 33011G19KT 10SM FEW060 BKN080 BKN110 19/08 A2974 RMK AO2 WSHFT 1943 RAE00 P0000 T01890083 (JBA)","FM-16","7",,,,,,,,,,,,,,,,,,,,,,,,,,,,"2009-07-08"
"72306013722","2020-05-06T15:51:00","FM-15","7",,,,,,,,,,,,,,,,,,,,,,,,,,,,,,,,,,,,,,"29.75","45","67","T",,"+0.01","5","45","29.74","FEW:02 60 SCT:04 80 BKN:07 110","29.28","10.00","55","VRB","22","9",,,,,,,,,,,,,,,,,,,,,,,,,,,,,,,,,,,,,"MET15105/06/20 15:51:02 METAR KRDU 062051Z 31008G19KT 10SM FEW060 SCT080 BKN110 19/07 A2975 RMK AO2 WSHFT 1943 RAE00 SLP070 P0000 60000 T01940072 55002 (JBA)","FM-15","7",,,,,,,,,,,,,,,,,,,,,,,,,,,,"2009-07-08"
"72306013722","2020-05-06T16:51:00","FM-15","7",,,,,,,,,,,,,,,,,,,,,,,,,,,,,,,,,,,,,,"29.76","44","65","0.00",,,,"47","29.75","FEW:02 60 SCT:04 90 BKN:07 110","29.29","10.00","54","VRB","22","9",,,,,,,,,,,,,,,,,,,,,,,,,,,,,,,,,,,,,"MET11605/06/20 16:51:02 METAR KRDU 062151Z 33008G19KT 10SM FEW060 SCT090 BKN110 18/07 A2976 RMK AO2 SLP076 T01830067 (JBA)","FM-15","7",,,,,,,,,,,,,,,,,,,,,,,,,,,,"2009-07-08"
"72306013722","2020-05-06T17:51:00","FM-15","7",,,,,,,,,,,,,,,,,,,,,,,,,,,,,,,,,,,,,,"29.79","45","61","T","-RA:02 |RA |RA",,,"56","29.78","BKN:07 85 BKN:07 100 BKN:07 250","29.32","10.00","53","300","20","6",,,,,,,,,,,,,,,,,,,,,,,,,,,,,,,,,,,,,"MET13205/06/20 17:51:02 METAR KRDU 062251Z 30005G17KT 10SM -RA BKN085 BKN100 BKN250 16/07 A2979 RMK AO2 RAB42 SLP085 P0000 T01610072 (JBA)","FM-15","7",,,,,,,,,,,,,,,,,,,,,,,,,,,,"2009-07-08"
"72306013722","2020-05-06T18:51:00","FM-15","7",,,,,,,,,,,,,,,,,,,,,,,,,,,,,,,,,,,,,,"29.81","41","59","T",,"-0.06","3","51","29.80","SCT:04 42 BKN:07 70 BKN:07 85","29.34","10.00","50","340","20","13",,,,,,,,,,,,,,,,,,,,,,,,,,,,,,,,,,,,,"MET15205/06/20 18:51:02 METAR KRDU 062351Z 34011G17KT 10SM SCT042 BKN070 BKN085 15/05 A2981 RMK AO2 RAE32 SLP093 P0000 60000 T01500050 10222 20150 53022 (JBA)","FM-15","7",,,,,,,,,,,,,,,,,,,,,,,,,,,,"2009-07-08"
"72306013722","2020-05-06T19:00:00","FM-12","4",,,,,,,,,,,,,,,,,,,,,,,,,,,,,,,,,,,,,,,"41","59",,,"-0.06","3","51","29.80","41","29.35","9.94","50","340",,"13",,,,,,,,,,,,,,,,,,,,,,,,,,,,,,,,,,,,,"SYN09272306 12666 83411 10150 20050 39940 40093 53022 69901 92351 333 10222 20128 91017 555 90700=","FM-12","4",,,,,,,,,,,,,,,,,,,,,,,,,,,,"2009-07-08"
"72306013722","2020-05-06T19:51:00","FM-15","7",,,,,,,,,,,,,,,,,,,,,,,,,,,,,,,,,,,,,,"29.84","38","57","T",,,,"49","29.83","BKN:07 55 BKN:07 70 BKN:07 100","29.37","10.00","48","VRB",,"5",,,,,,,,,,,,,,,,,,,,,,,,,,,,,,,,,,,,,"MET12205/06/20 19:51:01 METAR KRDU 070051Z VRB04KT 10SM BKN055 BKN070 BKN100 14/03 A2984 RMK AO2 RAB00E37 SLP103 P0000 T01390033","FM-15","7",,,,,,,,,,,,,,,,,,,,,,,,,,,,"2009-07-08"
"72306013722","2020-05-06T20:51:00","FM-15","7",,,,,,,,,,,,,,,,,,,,,,,,,,,,,,,,,,,,,,"29.87","36","54","0.00",,,,"51","29.87","SCT:04 100 BKN:07 250","29.40","10.00","46","VRB","24","9",,,,,,,,,,,,,,,,,,,,,,,,,,,,,,,,,,,,,"MET10305/06/20 20:51:01 METAR KRDU 070151Z 34008G21KT 10SM SCT100 BKN250 12/02 A2987 RMK AO2 SLP114 T01220022","FM-15","7",,,,,,,,,,,,,,,,,,,,,,,,,,,,"2009-07-08"
"72306013722","2020-05-06T21:51:00","FM-15","7",,,,,,,,,,,,,,,,,,,,,,,,,,,,,,,,,,,,,,"29.90","35","52","0.00",,"-0.09","1","53","29.90","FEW:02 100 FEW:02 250","29.43","10.00","44","320","22","8",,,,,,,,,,,,,,,,,,,,,,,,,,,,,,,,,,,,,"MET11505/06/20 21:51:01 METAR KRDU 070251Z 32007G19KT 10SM FEW100 FEW250 11/02 A2990 RMK AO2 SLP124 60000 T01110017 51030","FM-15","7",,,,,,,,,,,,,,,,,,,,,,,,,,,,"2009-07-08"
"72306013722","2020-05-06T22:51:00","FM-15","7",,,,,,,,,,,,,,,,,,,,,,,,,,,,,,,,,,,,,,"29.92","34","50","0.00",,,,"54","29.91","FEW:02 60 FEW:02 250","29.45","10.00","43","VRB",,"8",,,,,,,,,,,,,,,,,,,,,,,,,,,,,,,,,,,,,"MET10005/06/20 22:51:02 METAR KRDU 070351Z 31007KT 10SM FEW060 FEW250 10/01 A2992 RMK AO2 SLP130 T01000011","FM-15","7",,,,,,,,,,,,,,,,,,,,,,,,,,,,"2009-07-08"
"72306013722","2020-05-06T23:51:00","FM-15","7",,,,,,,,,,,,,,,,,,,,,,,,,,,,,,,,,,,,,,"29.93","34","49","0.00",,,,"56","29.92","FEW:02 60","29.46","10.00","42","VRB",,"6",,,,,,,,,,,,,,,,,,,,,,,,,,,,,,,,,,,,,"MET10305/06/20 23:51:02 METAR KRDU 070451Z VRB05KT 10SM FEW060 09/01 A2993 RMK AO2 SLP132 T00940011 402220094","FM-15","7",,,,,,,,,,,,,,,,,,,,,,,,,,,,"2009-07-08"
"72306013722","2020-05-06T23:59:00","SOD  ","6",,,,,,,,,,,,,,,"46","61","63","29.80","29.31","53","6.9","0","-4.3","4","72","49","270","26","T","0","0.0","310","17","RA",,,,,,,,,,,,,,,,,,,,,,,,,,,,,,,,,,,,,,,,,,,,,,,,,,,,,,,,"SOD73924 HR PRECIPITATION (IN):    T SNOW DEPTH (IN):0     24 HR SNOWFALL (IN):0.0  24 HR MAX TEMP (F): 7224 HR MIN TEMP (F): 49AVERAGE STATION PRESSURE:29.315 MINIMUM SEA LEVEL PRESSURE:29.72 TIME OF OCCURRENCE:1443 PEAK WIND SPEED (MPH): 26 PEAK WIND DIR (DEG):270 PEAK WIND TIME (LST):      FASTEST 2MIN SPEED (MPH): 17FASTEST 2MIN DIR (DEG):310 FASTEST 2MIN TIME (LST):     AVERAGE WIND SPEED (MPH): 6.9 24 HR AVG TEMP (F): 61DEPART FROM NORMAL: -4  HEATING DEGREE DAYS:  4 COOLING DEGREE DAYS:  0 LATEST DAY MAX TEMP (0700-1900 LST):72  LATEST NIGHT MIN TEMP(1900-0800 LST):55 HOURLY INCREMENTAL PRECIPITATION VALUES (IN):.00 T    T    T    0.00 0.00 0.00 0.00 0.00 0.00 0.00 0.00 0.00 0.00 T    T    0.00 T    T    T    0.00 0.00 0.00 0.00","SOD  ","6",,,,,,,,,,,,,,,,,,,,,,,,,"0517","1907",,"2009-07-08"
"72306013722","2020-05-07T00:51:00","FM-15","7",,,,,,,,,,,,,,,,,,,,,,,,,,,,,,,,,,,,,,"29.93","34","48","0.00",,"-0.03","1","58","29.92","FEW:02 70","29.46","10.00","42","330",,"8",,,,,,,,,,,,,,,,,,,,,,,,,,,,,,,,,,,,,"MET12305/07/20 00:51:02 METAR KRDU 070551Z 33007KT 10SM FEW070 09/01 A2993 RMK AO2 SLP133 60000 T00890011 10150 20089 51009 (AWB)","FM-15","7",,,,,,,,,,,,,,,,,,,,,,,,,,,,"2009-07-08"
"72306013722","2020-05-07T01:00:00","FM-12","4",,,,,,,,,,,,,,,,,,,,,,,,,,,,,,,,,,,,,,,"34","48",,,"-0.03","1","58","29.92","74","29.47","9.94","42","330",,"8",,,,,,,,,,,,,,,,,,,,,,,,,,,,,,,,,,,,,"SYN08672306 12866 23307 10089 20011 39980 40133 51009 69901 90551 333 10161 20089 555 90706=","FM-12","4",,,,,,,,,,,,,,,,,,,,,,,,,,,,"2009-07-08"
"72306013722","2020-05-07T01:51:00","FM-15","7",,,,,,,,,,,,,,,,,,,,,,,,,,,,,,,,,,,,,,"29.92","35","47","0.00",,,,"63","29.91","FEW:02 70","29.45","10.00","42","280",,"3",,,,,,,,,,,,,,,,,,,,,,,,,,,,,,,,,,,,,"MET09905/07/20 01:51:02 METAR KRDU 070651Z 28003KT 10SM FEW070 08/02 A2992 RMK AO2 SLP128 T00830017 (AWB)","FM-15","7",,,,,,,,,,,,,,,,,,,,,,,,,,,,"2009-07-08"
"72306013722","2020-05-07T02:51:00","FM-15","7",,,,,,,,,,,,,,,,,,,,,,,,,,,,,,,,,,,,,,"29.92","35","44","0.00",,,,"71","29.91","CLR:00","29.45","10.00","40","000",,"0",,,,,,,,,,,,,,,,,,,,,,,,,,,,,,,,,,,,,"MET09605/07/20 02:51:02 METAR KRDU 070751Z 00000KT 10SM CLR 07/02 A2992 RMK AO2 SLP129 T00670017 (AWB)","FM-15","7",,,,,,,,,,,,,,,,,,,,,,,,,,,,"2009-07-08"
"72306013722","2020-05-07T03:51:00","FM-15","7",,,,,,,,,,,,,,,,,,,,,,,,,,,,,,,,,,,,,,"29.92","35","43","0.00",,"+0.01","5","74","29.92","CLR:00","29.45","10.00","40","000",,"0",,,,,,,,,,,,,,,,,,,,,,,,,,,,,,,,,,,,,"MET10205/07/20 03:51:02 METAR KRDU 070851Z 00000KT 10SM CLR 06/02 A2992 RMK AO2 SLP132 T00610017 55002 (AWB)","FM-15","7",,,,,,,,,,,,,,,,,,,,,,,,,,,,"2009-07-08"
"72306013722","2020-05-07T04:51:00","FM-15","7",,,,,,,,,,,,,,,,,,,,,,,,,,,,,,,,,,,,,,"29.94","35","42","0.00",,,,"76","29.93","CLR:00","29.47","10.00","39","000",,"0",,,,,,,,,,,,,,,,,,,,,,,,,,,,,,,,,,,,,"MET09605/07/20 04:51:02 METAR KRDU 070951Z 00000KT 10SM CLR 06/02 A2994 RMK AO2 SLP137 T00560017 (AWB)","FM-15","7",,,,,,,,,,,,,,,,,,,,,,,,,,,,"2009-07-08"
"72306013722","2020-05-07T05:51:00","FM-15","7",,,,,,,,,,,,,,,,,,,,,,,,,,,,,,,,,,,,,,"29.96","36","42","0.00",,,,"79","29.96","CLR:00","29.49","10.00","39","000",,"0",,,,,,,,,,,,,,,,,,,,,,,,,,,,,,,,,,,,,"MET09605/07/20 05:51:02 METAR KRDU 071051Z 00000KT 10SM CLR 06/02 A2996 RMK AO2 SLP144 T00560022 (AWB)","FM-15","7",,,,,,,,,,,,,,,,,,,,,,,,,,,,"2009-07-08"
"72306013722","2020-05-07T06:51:00","FM-15","7",,,,,,,,,,,,,,,,,,,,,,,,,,,,,,,,,,,,,,"29.99","37","47","0.00",,"-0.06","3","69","29.98","CLR:00","29.52","10.00","42","VRB",,"3",,,,,,,,,,,,,,,,,,,,,,,,,,,,,,,,,,,,,"MET11405/07/20 06:51:02 METAR KRDU 071151Z VRB03KT 10SM CLR 08/03 A2999 RMK AO2 SLP154 T00830028 10089 20044 53022 (KAH)","FM-15","7",,,,,,,,,,,,,,,,,,,,,,,,,,,,"2009-07-08"
"72306013722","2020-05-07T07:00:00","FM-12","4",,,,,,,,,,,,,,,,,,,,,,,,,,,,,,,,,,,,,,,"37","47",,,"-0.06","3","69","29.98",,"29.53","9.94","42",,,"3",,,,,,,,,,,,,,,,,,,,,,,,,,,,,,,,,,,,,"SYN08072306 32966 0//03 10083 20028 30000 40154 53022 91151 333 10222 20044 555 90712=","FM-12","4",,,,,,,,,,,,,,,,,,,,,,,,,,,,"2009-07-08"
"72306013722","2020-05-07T07:51:00","FM-15","7",,,,,,,,,,,,,,,,,,,,,,,,,,,,,,,,,,,,,,"30.00","36","52","0.00",,,,"55","30.00","CLR:00","29.53","10.00","45","VRB",,"5",,,,,,,,,,,,,,,,,,,,,,,,,,,,,,,,,,,,,"MET09605/07/20 07:51:02 METAR KRDU 071251Z VRB04KT 10SM CLR 11/02 A3000 RMK AO2 SLP159 T01110022 (KAH)","FM-15","7",,,,,,,,,,,,,,,,,,,,,,,,,,,,"2009-07-08"
"72306013722","2020-05-07T08:51:00","FM-15","7",,,,,,,,,,,,,,,,,,,,,,,,,,,,,,,,,,,,,,"30.02","33","55","0.00",,,,"44","30.02","FEW:02 250","29.55","10.00","45","VRB","17","7",,,,,,,,,,,,,,,,,,,,,,,,,,,,,,,,,,,,,"MET10205/07/20 08:51:02 METAR KRDU 071351Z VRB06G15KT 10SM FEW250 13/01 A3002 RMK AO2 SLP165 T01280006 (KAH)","FM-15","7",,,,,,,,,,,,,,,,,,,,,,,,,,,,"2009-07-08"
"72306013722","2020-05-07T09:51:00","FM-15","7",,,,,,,,,,,,,,,,,,,,,,,,,,,,,,,,,,,,,,"30.03","30","58","0.00",,"-0.04","1","35","30.02","FEW:02 250","29.56","10.00","45","VRB",,"8",,,,,,,,,,,,,,,,,,,,,,,,,,,,,,,,,,,,,"MET10605/07/20 09:51:02 METAR KRDU 071451Z 34007KT 10SM FEW250 14/M01 A3003 RMK AO2 SLP167 T01441011 51013 (KAH)","FM-15","7",,,,,,,,,,,,,,,,,,,,,,,,,,,,"2009-07-08"
"72306013722","2020-05-07T10:51:00","FM-15","7",,,,,,,,,,,,,,,,,,,,,,,,,,,,,,,,,,,,,,"30.03","29","59","0.00",,,,"32","30.02","FEW:02 250","29.56","10.00","46","VRB","18","7",,,,,,,,,,,,,,,,,,,,,,,,,,,,,,,,,,,,,"MET10305/07/20 10:51:02 METAR KRDU 071551Z VRB06G16KT 10SM FEW250 15/M02 A3003 RMK AO2 SLP167 T01501017 (KAH)","FM-15","7",,,,,,,,,,,,,,,,,,,,,,,,,,,,"2009-07-08"
"72306013722","2020-05-07T11:51:00","FM-15","7",,,,,,,,,,,,,,,,,,,,,,,,,,,,,,,,,,,,,,"30.01","30","62","0.00",,,,"30","30.01","FEW:02 70 SCT:04 250","29.54","10.00","47","030",,"7",,,,,,,,,,,,,,,,,,,,,,,,,,,,,,,,,,,,,"MET10705/07/20 11:51:02 METAR KRDU 071651Z 03006KT 10SM FEW070 SCT250 17/M01 A3001 RMK AO2 SLP161 T01671011 (KAH)","FM-15","7",,,,,,,,,,,,,,,,,,,,,,,,,,,,"2009-07-08"
"72306013722","2020-05-07T12:51:00","FM-15","7",,,,,,,,,,,,,,,,,,,,,,,,,,,,,,,,,,,,,,"30.00","31","63","0.00",,"+0.03","8","30","29.99","FEW:02 70 BKN:07 250","29.53","10.00","48","VRB",,"3",,,,,,,,,,,,,,,,,,,,,,,,,,,,,,,,,,,,,"MET12505/07/20 12:51:02 METAR KRDU 071751Z VRB03KT 10SM FEW070 BKN250 17/M01 A3000 RMK AO2 SLP157 T01721006 10178 20083 58009 (KAH)","FM-15","7",,,,,,,,,,,,,,,,,,,,,,,,,,,,"2009-07-08"
"72306013722","2020-05-07T13:00:00","FM-12","4",,,,,,,,,,,,,,,,,,,,,,,,,,,,,,,,,,,,,,,"31","63",,,"+0.03","8","30","29.99","74","29.54","9.94","48",,,"3",,,,,,,,,,,,,,,,,,,,,,,,,,,,,,,,,,,,,"SYN08072306 32866 6//03 10172 21006 30003 40157 58009 91751 333 10178 20083 555 90718=","FM-12","4",,,,,,,,,,,,,,,,,,,,,,,,,,,,"2009-07-08"
"72306013722","2020-05-07T13:51:00","FM-15","7",,,,,,,,,,,,,,,,,,,,,,,,,,,,,,,,,,,,,,"29.99","31","65","0.00",,,,"28","29.98","FEW:02 75 BKN:07 250","29.52","10.00","49","260",,"9",,,,,,,,,,,,,,,,,,,,,,,,,,,,,,,,,,,,,"MET10705/07/20 13:51:02 METAR KRDU 071851Z 26008KT 10SM FEW075 BKN250 18/M01 A2999 RMK AO2 SLP153 T01831006 (KAH)","FM-15","7",,,,,,,,,,,,,,,,,,,,,,,,,,,,"2009-07-08"
"72306013722","2020-05-07T14:51:00","FM-15","7",,,,,,,,,,,,,,,,,,,,,,,,,,,,,,,,,,,,,,"29.97","32","66","0.00",,,,"28","29.97","FEW:02 75 BKN:07 250","29.50","10.00","50","VRB","22","7",,,,,,,,,,,,,,,,,,,,,,,,,,,,,,,,,,,,,"MET10905/07/20 14:51:02 METAR KRDU 071951Z VRB06G19KT 10SM FEW075 BKN250 19/00 A2997 RMK AO2 SLP148 T01890000 (JBA)","FM-15","7",,,,,,,,,,,,,,,,,,,,,,,,,,,,"2009-07-08"
"72306013722","2020-05-07T15:51:00","FM-15","7",,,,,,,,,,,,,,,,,,,,,,,,,,,,,,,,,,,,,,"29.96","34","66","0.00",,"+0.04","6","30","29.96","FEW:02 75 FEW:02 250","29.49","10.00","51","270","18","11",,,,,,,,,,,,,,,,,,,,,,,,,,,,,,,,,,,,,"MET11505/07/20 15:51:02 METAR KRDU 072051Z 27010G16KT 10SM FEW075 FEW250 19/01 A2996 RMK AO2 SLP145 T01890011 56013 (JBA)","FM-15","7",,,,,,,,,,,,,,,,,,,,,,,,,,,,"2009-07-08"
"72306013722","2020-05-07T16:51:00","FM-15","7",,,,,,,,,,,,,,,,,,,,,,,,,,,,,,,,,,,,,,"29.97","34","66","0.00",,,,"30","29.96","FEW:02 75","29.50","10.00","51","VRB",,"9",,,,,,,,,,,,,,,,,,,,,,,,,,,,,,,,,,,,,"MET09905/07/20 16:51:02 METAR KRDU 072151Z 28008KT 10SM FEW075 19/01 A2997 RMK AO2 SLP147 T01890011 (JBA)","FM-15","7",,,,,,,,,,,,,,,,,,,,,,,,,,,,"2009-07-08"
"72306013722","2020-05-07T17:51:00","FM-15","7",,,,,,,,,,,,,,,,,,,,,,,,,,,,,,,,,,,,,,"29.97","32","65","0.00",,,,"29","29.97","CLR:00","29.50","10.00","49","260",,"9",,,,,,,,,,,,,,,,,,,,,,,,,,,,,,,,,,,,,"MET09605/07/20 17:51:02 METAR KRDU 072251Z 26008KT 10SM CLR 18/00 A2997 RMK AO2 SLP148 T01830000 (JBA)","FM-15","7",,,,,,,,,,,,,,,,,,,,,,,,,,,,"2009-07-08"
"72306013722","2020-05-07T18:51:00","FM-15","7",,,,,,,,,,,,,,,,,,,,,,,,,,,,,,,,,,,,,,"29.98","33","61","0.00",,"-0.02","3","35","29.98","FEW:02 250","29.51","10.00","48","240",,"7",,,,,,,,,,,,,,,,,,,,,,,,,,,,,,,,,,,,,"MET11705/07/20 18:51:02 METAR KRDU 072351Z 24006KT 10SM FEW250 16/01 A2998 RMK AO2 SLP152 T01610006 10194 20161 53007 (JBA)","FM-15","7",,,,,,,,,,,,,,,,,,,,,,,,,,,,"2009-07-08"
"72306013722","2020-05-07T19:00:00","FM-12","4",,,,,,,,,,,,,,,,,,,,,,,,,,,,,,,,,,,,,,,"33","61",,,"-0.02","3","35","29.98",,"29.52","9.94","48","240",,"7",,,,,,,,,,,,,,,,,,,,,,,,,,,,,,,,,,,,,"SYN08072306 32966 22406 10161 20006 39996 40152 53007 92351 333 10194 20044 555 90800=","FM-12","4",,,,,,,,,,,,,,,,,,,,,,,,,,,,"2009-07-08"
"72306013722","2020-05-07T19:51:00","FM-15","7",,,,,,,,,,,,,,,,,,,,,,,,,,,,,,,,,,,,,,"29.99","35","56","0.00",,,,"46","29.99","FEW:02 250","29.52","10.00","46","230",,"6",,,,,,,,,,,,,,,,,,,,,,,,,,,,,,,,,,,,,"MET09305/07/20 19:51:01 METAR KRDU 080051Z 23005KT 10SM FEW250 13/02 A2999 RMK AO2 SLP155 T01330017","FM-15","7",,,,,,,,,,,,,,,,,,,,,,,,,,,,"2009-07-08"
"72306013722","2020-05-07T20:51:00","FM-15","7",,,,,,,,,,,,,,,,,,,,,,,,,,,,,,,,,,,,,,"30.01","37","54","0.00",,,,"53","30.01","FEW:02 250","29.54","10.00","46","230",,"7",,,,,,,,,,,,,,,,,,,,,,,,,,,,,,,,,,,,,"MET09305/07/20 20:51:01 METAR KRDU 080151Z 23006KT 10SM FEW250 12/03 A3001 RMK AO2 SLP162 T01220028","FM-15","7",,,,,,,,,,,,,,,,,,,,,,,,,,,,"2009-07-08"
"72306013722","2020-05-07T21:51:00","FM-15","7",,,,,,,,,,,,,,,,,,,,,,,,,,,,,,,,,,,,,,"30.03","38","52","0.00",,"-0.04","3","59","30.03","CLR:00","29.56","10.00","45","240",,"6",,,,,,,,,,,,,,,,,,,,,,,,,,,,,,,,,,,,,"MET09605/07/20 21:51:01 METAR KRDU 080251Z 24005KT 10SM CLR 11/03 A3003 RMK AO2 SLP168 T01110033 53015","FM-15","7",,,,,,,,,,,,,,,,,,,,,,,,,,,,"2009-07-08"
"72306013722","2020-05-07T22:51:00","FM-15","7",,,,,,,,,,,,,,,,,,,,,,,,,,,,,,,,,,,,,,"30.03","38","51","0.00",,,,"61","30.03","CLR:00","29.56","10.00","45","240",,"6",,,,,,,,,,,,,,,,,,,,,,,,,,,,,,,,,,,,,"MET09005/07/20 22:51:02 METAR KRDU 080351Z 24005KT 10SM CLR 11/03 A3003 RMK AO2 SLP168 T01060033","FM-15","7",,,,,,,,,,,,,,,,,,,,,,,,,,,,"2009-07-08"
"72306013722","2020-05-07T23:51:00","FM-15","7",,,,,,,,,,,,,,,,,,,,,,,,,,,,,,,,,,,,,,"30.02","38","51","0.00",,,,"61","30.01","CLR:00","29.55","10.00","45","230",,"3",,,,,,,,,,,,,,,,,,,,,,,,,,,,,,,,,,,,,"MET10005/07/20 23:51:02 METAR KRDU 080451Z 23003KT 10SM CLR 11/03 A3002 RMK AO2 SLP164 T01060033 401940044","FM-15","7",,,,,,,,,,,,,,,,,,,,,,,,,,,,"2009-07-08"
"72306013722","2020-05-07T23:59:00","SOD  ","6",,,,,,,,,,,,,,,"34","54","49","29.98","29.50","45","5.5","0","-11.6","11","67","40","280","22","0.00","0","0.0","270","16",,,,,,,,,,,,,,,,,,,,,,,,,,,,,,,,,,,,,,,,,,,,,,,,,,,,,,,,,"SOD73924 HR PRECIPITATION (IN): 0.00 SNOW DEPTH (IN):0     24 HR SNOWFALL (IN):0.0  24 HR MAX TEMP (F): 6724 HR MIN TEMP (F): 40AVERAGE STATION PRESSURE:29.500 MINIMUM SEA LEVEL PRESSURE:29.91 TIME OF OCCURRENCE:0332 PEAK WIND SPEED (MPH): 22 PEAK WIND DIR (DEG):280 PEAK WIND TIME (LST):      FASTEST 2MIN SPEED (MPH): 16FASTEST 2MIN DIR (DEG):270 FASTEST 2MIN TIME (LST):     AVERAGE WIND SPEED (MPH): 5.5 24 HR AVG TEMP (F): 54DEPART FROM NORMAL:-12  HEATING DEGREE DAYS: 11 COOLING DEGREE DAYS:  0 LATEST DAY MAX TEMP (0700-1900 LST):67  LATEST NIGHT MIN TEMP(1900-0800 LST):40 HOURLY INCREMENTAL PRECIPITATION VALUES (IN):.00 0.00 0.00 0.00 0.00 0.00 0.00 0.00 0.00 0.00 0.00 0.00 0.00 0.00 0.00 0.00 0.00 0.00 0.00 0.00 0.00 0.00 0.00 0.00","SOD  ","6",,,,,,,,,,,,,,,,,,,,,,,,,"0516","1908",,"2009-07-08"
"72306013722","2020-05-08T00:51:00","FM-15","7",,,,,,,,,,,,,,,,,,,,,,,,,,,,,,,,,,,,,,"30.01","38","50","0.00",,"+0.02","8","63","30.00","CLR:00","29.54","10.00","44","000",,"0",,,,,,,,,,,,,,,,,,,,,,,,,,,,,,,,,,,,,"MET11405/08/20 00:51:02 METAR KRDU 080551Z 00000KT 10SM CLR 10/03 A3001 RMK AO2 SLP159 T01000033 10161 20094 58007 (AWB)","FM-15","7",,,,,,,,,,,,,,,,,,,,,,,,,,,,"2009-07-08"
"72306013722","2020-05-08T01:00:00","FM-12","4",,,,,,,,,,,,,,,,,,,,,,,,,,,,,,,,,,,,,,,"38","50",,,"+0.02","8","63","30.00",,"29.55","9.94","44","000",,"0",,,,,,,,,,,,,,,,,,,,,,,,,,,,,,,,,,,,,"SYN08072306 32966 00000 10100 20033 30007 40159 58007 90551 333 10161 20044 555 90806=","FM-12","4",,,,,,,,,,,,,,,,,,,,,,,,,,,,"2009-07-08"
"72306013722","2020-05-08T01:51:00","FM-15","7",,,,,,,,,,,,,,,,,,,,,,,,,,,,,,,,,,,,,,"29.99","38","49","0.00",,,,"66","29.98","FEW:02 250","29.52","10.00","44","240",,"5",,,,,,,,,,,,,,,,,,,,,,,,,,,,,,,,,,,,,"MET09905/08/20 01:51:02 METAR KRDU 080651Z 24004KT 10SM FEW250 09/03 A2999 RMK AO2 SLP154 T00940033 (AWB)","FM-15","7",,,,,,,,,,,,,,,,,,,,,,,,,,,,"2009-07-08"
"72306013722","2020-05-08T02:51:00","FM-15","7",,,,,,,,,,,,,,,,,,,,,,,,,,,,,,,,,,,,,,"30.00","39","46","0.00",,,,"77","30.00","FEW:02 250","29.53","10.00","43","240",,"6",,,,,,,,,,,,,,,,,,,,,,,,,,,,,,,,,,,,,"MET09905/08/20 02:51:02 METAR KRDU 080751Z 24005KT 10SM FEW250 08/04 A3000 RMK AO2 SLP159 T00780039 (AWB)","FM-15","7",,,,,,,,,,,,,,,,,,,,,,,,,,,,"2009-07-08"
"72306013722","2020-05-08T03:51:00","FM-15","7",,,,,,,,,,,,,,,,,,,,,,,,,,,,,,,,,,,,,,"30.01","39","48","0.00",,"+0.00","5","71","30.00","FEW:02 250","29.54","10.00","44","240",,"3",,,,,,,,,,,,,,,,,,,,,,,,,,,,,,,,,,,,,"MET10505/08/20 03:51:02 METAR KRDU 080851Z 24003KT 10SM FEW250 09/04 A3001 RMK AO2 SLP159 T00890039 55000 (AWB)","FM-15","7",,,,,,,,,,,,,,,,,,,,,,,,,,,,"2009-07-08"
"72306013722","2020-05-08T04:51:00","FM-15","7",,,,,,,,,,,,,,,,,,,,,,,,,,,,,,,,,,,,,,"30.01","39","45","0.00",,,,"80","30.01","FEW:02 250","29.54","10.00","42","240",,"6",,,,,,,,,,,,,,,,,,,,,,,,,,,,,,,,,,,,,"MET09905/08/20 04:51:02 METAR KRDU 080951Z 24005KT 10SM FEW250 07/04 A3001 RMK AO2 SLP161 T00720039 (AWB)","FM-15","7",,,,,,,,,,,,,,,,,,,,,,,,,,,,"2009-07-08"
"72306013722","2020-05-08T05:51:00","FM-15","7",,,,,,,,,,,,,,,,,,,,,,,,,,,,,,,,,,,,,,"30.01","39","45","0.00",,,,"80","30.01","FEW:02 150 FEW:02 250","29.54","10.00","42","230",,"5",,,,,,,,,,,,,,,,,,,,,,,,,,,,,,,,,,,,,"MET10605/08/20 05:51:02 METAR KRDU 081051Z 23004KT 10SM FEW150 FEW250 07/04 A3001 RMK AO2 SLP161 T00720039 (AWB)","FM-15","7",,,,,,,,,,,,,,,,,,,,,,,,,,,,"2009-07-08"
"72306013722","2020-05-08T06:51:00","FM-15","7",,,,,,,,,,,,,,,,,,,,,,,,,,,,,,,,,,,,,,"30.01","44","50","0.00",,"-0.01","1","80","30.01","FEW:02 150 FEW:02 250","29.54","10.00","47","230",,"7",,,,,,,,,,,,,,,,,,,,,,,,,,,,,,,,,,,,,"MET12405/08/20 06:51:02 METAR KRDU 081151Z 23006KT 10SM FEW150 FEW250 10/07 A3001 RMK AO2 SLP161 T01000067 10106 20067 51002 (KAH)","FM-15","7",,,,,,,,,,,,,,,,,,,,,,,,,,,,"2009-07-08"
"72306013722","2020-05-08T07:00:00","FM-12","4",,,,,,,,,,,,,,,,,,,,,,,,,,,,,,,,,,,,,,,"44","50",,,"-0.01","1","80","30.01",,"29.55","9.94","47","230",,"7",,,,,,,,,,,,,,,,,,,,,,,,,,,,,,,,,,,,,"SYN08072306 32966 22306 10100 20067 30007 40161 51002 91151 333 10194 20067 555 90812=","FM-12","4",,,,,,,,,,,,,,,,,,,,,,,,,,,,"2009-07-08"
"72306013722","2020-05-08T07:51:00","FM-15","7",,,,,,,,,,,,,,,,,,,,,,,,,,,,,,,,,,,,,,"29.99","44","58","0.00",,,,"60","29.98","FEW:02 150 SCT:04 250","29.52","10.00","51","220",,"8",,,,,,,,,,,,,,,,,,,,,,,,,,,,,,,,,,,,,"MET10605/08/20 07:51:02 METAR KRDU 081251Z 22007KT 10SM FEW150 SCT250 14/07 A2999 RMK AO2 SLP152 T01440067 (KAH)","FM-15","7",,,,,,,,,,,,,,,,,,,,,,,,,,,,"2009-07-08"
"72306013722","2020-05-08T08:51:00","FM-15","7",,,,,,,,,,,,,,,,,,,,,,,,,,,,,,,,,,,,,,"29.97","41","62","0.00",,,,"46","29.96","SCT:04 150 SCT:04 250","29.50","10.00","51","240",,"16",,,,,,,,,,,,,,,,,,,,,,,,,,,,,,,,,,,,,"MET10605/08/20 08:51:02 METAR KRDU 081351Z 24014KT 10SM SCT150 SCT250 17/05 A2997 RMK AO2 SLP145 T01670050 (KAH)","FM-15","7",,,,,,,,,,,,,,,,,,,,,,,,,,,,"2009-07-08"
"72306013722","2020-05-08T09:51:00","FM-15","7",,,,,,,,,,,,,,,,,,,,,,,,,,,,,,,,,,,,,,"29.94","43","66","0.00",,"+0.07","6","43","29.93","BKN:07 140 BKN:07 250","29.47","10.00","54","210",,"14",,,,,,,,,,,,,,,,,,,,,,,,,,,,,,,,,,,,,"MET11205/08/20 09:51:02 METAR KRDU 081451Z 21012KT 10SM BKN140 BKN250 19/06 A2994 RMK AO2 SLP136 T01890061 56024 (KAH)","FM-15","7",,,,,,,,,,,,,,,,,,,,,,,,,,,,"2009-07-08"
"72306013722","2020-05-08T10:51:00","FM-15","7",,,,,,,,,,,,,,,,,,,,,,,,,,,,,,,,,,,,,,"29.92","41","67","0.00",,,,"39","29.91","FEW:02 55 BKN:07 130 BKN:07 250","29.45","10.00","54","230","30","24",,,,,,,,,,,,,,,,,,,,,,,,,,,,,,,,,,,,,"MET13405/08/20 10:51:02 METAR KRDU 081551Z 23021G26KT 10SM FEW055 BKN130 BKN250 19/05 A2992 RMK AO2 PK WND 24030/1538 SLP129 T01940050 (KAH)","FM-15","7",,,,,,,,,,,,,,,,,,,,,,,,,,,,"2009-07-08"
"72306013722","2020-05-08T11:51:00","FM-15","7",,,,,,,,,,,,,,,,,,,,,,,,,,,,,,,,,,,,,,"29.89","40","66","0.00",,,,"39","29.89","FEW:02 60 BKN:07 110 OVC:08 130","29.42","10.00","53","230","36","22",,,,,,,,,,,,,,,,,,,,,,,,,,,,,,,,,,,,,"MET13405/08/20 11:51:02 METAR KRDU 081651Z 23019G31KT 10SM FEW060 BKN110 OVC130 19/04 A2989 RMK AO2 PK WND 23031/1644 SLP121 T01890044 (KAH)","FM-15","7",,,,,,,,,,,,,,,,,,,,,,,,,,,,"2009-07-08"
"72306013722","2020-05-08T12:51:00","FM-15","7",,,,,,,,,,,,,,,,,,,,,,,,,,,,,,,,,,,,,,"29.88","40","65","0.00",,"+0.06","6","40","29.87","FEW:02 55 BKN:07 85 OVC:08 110","29.41","10.00","52","240","33","18",,,,,,,,,,,,,,,,,,,,,,,,,,,,,,,,,,,,,"MET15205/08/20 12:51:02 METAR KRDU 081751Z 24016G29KT 10SM FEW055 BKN085 OVC110 18/04 A2988 RMK AO2 PK WND 23034/1652 SLP116 T01830044 10211 20100 56020 (KAH)","FM-15","7",,,,,,,,,,,,,,,,,,,,,,,,,,,,"2009-07-08"
"72306013722","2020-05-08T13:00:00","FM-12","4",,,,,,,,,,,,,,,,,,,,,,,,,,,,,,,,,,,,,,,"40","65",,,"+0.06","6","40","29.87","57","29.42","9.94","52","240",,"18",,,,,,,,,,,,,,,,,,,,,,,,,,,,,,,,,,,,,"SYN08672306 32766 82416 10183 20044 39963 40116 56020 91751 333 10211 20100 91029 555 90818=","FM-12","4",,,,,,,,,,,,,,,,,,,,,,,,,,,,"2009-07-08"
"72306013722","2020-05-08T13:51:00","FM-15","7",,,,,,,,,,,,,,,,,,,,,,,,,,,,,,,,,,,,,,"29.87","42","65","0.00",,,,"43","29.86","FEW:02 55 BKN:07 80 OVC:08 100","29.40","10.00","53","240","30","15",,,,,,,,,,,,,,,,,,,,,,,,,,,,,,,,,,,,,"MET13405/08/20 13:51:02 METAR KRDU 081851Z 24013G26KT 10SM FEW055 BKN080 OVC100 18/06 A2987 RMK AO2 PK WND 23027/1811 SLP113 T01830056 (KAH)","FM-15","7",,,,,,,,,,,,,,,,,,,,,,,,,,,,"2009-07-08"
"72306013722","2020-05-08T14:51:00","FM-15","7",,,,,,,,,,,,,,,,,,,,,,,,,,,,,,,,,,,,,,"29.85","43","63","T","-RA:02 |RA |RA",,,"48","29.85","FEW:02 55 BKN:07 70 OVC:08 85","29.38","10.00","53","250",,"13",,,,,,,,,,,,,,,,,,,,,,,,,,,,,,,,,,,,,"MET14105/08/20 14:51:02 METAR KRDU 081951Z 25011KT 10SM -RA FEW055 BKN070 OVC085 17/06 A2985 RMK AO2 PK WND 22033/1929 RAB18 SLP108 P0000 T01720061","FM-15","7",,,,,,,,,,,,,,,,,,,,,,,,,,,,"2009-07-08"
"72306013722","2020-05-08T15:51:00","FM-15","7",,,,,,,,,,,,,,,,,,,,,,,,,,,,,,,,,,,,,,"29.81","42","63","T",,"+0.06","8","47","29.81","FEW:02 70 SCT:04 85 OVC:08 100","29.34","10.00","52","240","33","17",,,,,,,,,,,,,,,,,,,,,,,,,,,,,,,,,,,,,"MET15805/08/20 15:51:02 METAR KRDU 082051Z 24015G29KT 10SM FEW070 SCT085 OVC100 17/06 A2981 RMK AO2 PK WND 22029/2044 RAE01 SLP094 P0000 60000 T01720056 58022 (JBA)","FM-15","7",,,,,,,,,,,,,,,,,,,,,,,,,,,,"2009-07-08"
"72306013722","2020-05-08T16:51:00","FM-15","7",,,,,,,,,,,,,,,,,,,,,,,,,,,,,,,,,,,,,,"29.83","47","58","T","-RA:02 |RA |RA",,,"67","29.83","SCT:04 50 OVC:08 65","29.36","8.00","52","250","24","14",,,,,,,,,,,,,,,,,,,,,,,,,,,,,,,,,,,,,"MET14205/08/20 16:51:02 METAR KRDU 082151Z 25012G21KT 8SM -RA SCT050 OVC065 14/08 A2983 RMK AO2 PK WND 23037/2109 RAB07 SLP101 P0000 T01440083 (JBA)","FM-15","7",,,,,,,,,,,,,,,,,,,,,,,,,,,,"2009-07-08"
"72306013722","2020-05-08T17:51:00","FM-15","7",,,,,,,,,,,,,,,,,,,,,,,,,,,,,,,,,,,,,,"29.80","50","55","0.01","-RA:02 |RA |RA",,,"83","29.79","BKN:07 60 OVC:08 85","29.33","7.00","52","240",,"9",,,,,,,,,,,,,,,,,,,,,,,,,,,,,,,,,,,,,"MET11505/08/20 17:51:02 METAR KRDU 082251Z 24008KT 7SM -RA BKN060 OVC085 13/10 A2980 RMK AO2 SLP089 P0001 T01280100 (JBA)","FM-15","7",,,,,,,,,,,,,,,,,,,,,,,,,,,,"2009-07-08"
"72306013722","2020-05-08T18:51:00","FM-15","7",,,,,,,,,,,,,,,,,,,,,,,,,,,,,,,,,,,,,,"29.80","52","54","0.01","-RA:02 |RA |RA","+0.01","8","93","29.80","FEW:02 10 BKN:07 60 OVC:08 85","29.33","8.00","53","240",,"17",,,,,,,,,,,,,,,,,,,,,,,,,,,,,,,,,,,,,"MET14605/08/20 18:51:02 METAR KRDU 082351Z 24015KT 8SM -RA FEW010 BKN060 OVC085 12/11 A2980 RMK AO2 SLP092 P0001 60002 T01220111 10183 20122 58003 (JBA)","FM-15","7",,,,,,,,,,,,,,,,,,,,,,,,,,,,"2009-07-08"
"72306013722","2020-05-08T19:00:00","FM-12","4",,,,,,,,,,,,,,,,,,,,,,,,,,,,,,,,,,,,,,,"52","54",,"||RA","+0.01","8","93","29.80","15","29.34","7.46","53","240",,"17",,,,,,,,,,,,,,,,,,,,,,,,,,,,,,,,,,,,,"SYN09272306 11462 82415 10122 20111 39936 40092 58003 69951 761// 92351 333 10211 20067 555 90900=","FM-12","4",,,,,,,,,,,,,,,,,,,,,,,,,,,,"2009-07-08"
"72306013722","2020-05-08T19:51:00","FM-15","7",,,,,,,,,,,,,,,,,,,,,,,,,,,,,,,,,,,,,,"29.81","52","54","0.02","-RA:02 |RA |RA",,,"93","29.81","SCT:04 10 BKN:07 75 OVC:08 100","29.34","8.00","53","240","26","16",,,,,,,,,,,,,,,,,,,,,,,,,,,,,,,,,,,,,"MET11905/08/20 19:51:01 METAR KRDU 090051Z 24014G23KT 8SM -RA SCT010 BKN075 OVC100 12/11 A2981 RMK AO2 SLP094 P0002 T01220111","FM-15","7",,,,,,,,,,,,,,,,,,,,,,,,,,,,"2009-07-08"
"72306013722","2020-05-08T20:06:00","FM-16","7",,,,,,,,,,,,,,,,,,,,,,,,,,,,,,,,,,,,,,"29.81","52","54","T","-RA:02 |RA |RA",,,"93",,"BKN:07 10 BKN:07 65 OVC:08 85","29.34","8.00","53","240","23","14",,,,,,,,,,,,,,,,,,,,,,,,,,,,,,,,,,,,,"MET11205/08/20 20:06:01 SPECI KRDU 090106Z 24012G20KT 8SM -RA BKN010 BKN065 OVC085 12/11 A2981 RMK AO2 P0000 T01220111","FM-16","7",,,,,,,,,,,,,,,,,,,,,,,,,,,,"2009-07-08"
"72306013722","2020-05-08T20:21:00","FM-16","7",,,,,,,,,,,,,,,,,,,,,,,,,,,,,,,,,,,,,,"29.81","52","54","0.01","-RA:02 |RA |RA",,,"93",,"SCT:04 13 BKN:07 60 OVC:08 90","29.34","8.00","53","240",,"16",,,,,,,,,,,,,,,,,,,,,,,,,,,,,,,,,,,,,"MET10905/08/20 20:21:01 SPECI KRDU 090121Z 24014KT 8SM -RA SCT013 BKN060 OVC090 12/11 A2981 RMK AO2 P0001 T01220111","FM-16","7",,,,,,,,,,,,,,,,,,,,,,,,,,,,"2009-07-08"
"72306013722","2020-05-08T20:51:00","FM-15","7",,,,,,,,,,,,,,,,,,,,,,,,,,,,,,,,,,,,,,"29.82","52","54","0.01","-RA:02 |RA |RA",,,"93","29.81","FEW:02 13 BKN:07 60 OVC:08 70","29.35","10.00","53","250","23","16",,,,,,,,,,,,,,,,,,,,,,,,,,,,,,,,,,,,,"MET12005/08/20 20:51:01 METAR KRDU 090151Z 25014G20KT 10SM -RA FEW013 BKN060 OVC070 12/11 A2982 RMK AO2 SLP096 P0001 T01220111","FM-15","7",,,,,,,,,,,,,,,,,,,,,,,,,,,,"2009-07-08"
"72306013722","2020-05-08T21:51:00","FM-15","7",,,,,,,,,,,,,,,,,,,,,,,,,,,,,,,,,,,,,,"29.83","51","54","T",,"-0.03","3","90","29.83","BKN:07 60 OVC:08 80","29.36","10.00","52","250",,"10",,,,,,,,,,,,,,,,,,,,,,,,,,,,,,,,,,,,,"MET12405/08/20 21:51:01 METAR KRDU 090251Z 25009KT 10SM BKN060 OVC080 12/11 A2983 RMK AO2 RAE32 SLP100 P0000 60003 T01220106 53009","FM-15","7",,,,,,,,,,,,,,,,,,,,,,,,,,,,"2009-07-08"
"72306013722","2020-05-08T22:51:00","FM-15","7",,,,,,,,,,,,,,,,,,,,,,,,,,,,,,,,,,,,,,"29.85","51","54","0.00",,,,"90","29.84","SCT:04 60 OVC:08 80","29.38","10.00","52","270",,"9",,,,,,,,,,,,,,,,,,,,,,,,,,,,,,,,,,,,,"MET10005/08/20 22:51:02 METAR KRDU 090351Z 27008KT 10SM SCT060 OVC080 12/11 A2985 RMK AO2 SLP105 T01220106","FM-15","7",,,,,,,,,,,,,,,,,,,,,,,,,,,,"2009-07-08"
"72306013722","2020-05-08T23:51:00","FM-15","7",,,,,,,,,,,,,,,,,,,,,,,,,,,,,,,,,,,,,,"29.89","48","52","T","-DZ:01 |DZ |DZ",,,"86","29.88","SCT:04 18 BKN:07 37 OVC:08 60","29.42","10.00","50","330",,"5",,,,,,,,,,,,,,,,,,,,,,,,,,,,,,,,,,,,,"MET13305/08/20 23:51:02 METAR KRDU 090451Z 33004KT 10SM -DZ SCT018 BKN037 OVC060 11/09 A2989 RMK AO2 DZB44 SLP119 P0000 T01110089 402110067","FM-15","7",,,,,,,,,,,,,,,,,,,,,,,,,,,,"2009-07-08"
"72306013722","2020-05-08T23:59:00","SOD  ","6",,,,,,,,,,,,,,,"44","57","68","29.90","29.45","50","11.5","0","-8.8","8","70","44","230","43","0.05","0","0.0","240","28","RA DZ",,,,,,,,,,,,,,,,,,,,,,,,,,,,,,,,,,,,,,,,,,,,,,,,,,,,,,,,"SOD75324 HR PRECIPITATION (IN): 0.05 SNOW DEPTH (IN):0     24 HR SNOWFALL (IN):0.0  WEATHER(CODE):1  24 HR MAX TEMP (F): 7024 HR MIN TEMP (F): 44AVERAGE STATION PRESSURE:29.450 MINIMUM SEA LEVEL PRESSURE:29.79 TIME OF OCCURRENCE:1838 PEAK WIND SPEED (MPH): 43 PEAK WIND DIR (DEG):230 PEAK WIND TIME (LST):      FASTEST 2MIN SPEED (MPH): 28FASTEST 2MIN DIR (DEG):240 FASTEST 2MIN TIME (LST):     AVERAGE WIND SPEED (MPH):11.5 24 HR AVG TEMP (F): 57DEPART FROM NORMAL: -9  HEATING DEGREE DAYS:  8 COOLING DEGREE DAYS:  0 LATEST DAY MAX TEMP (0700-1900 LST):70  LATEST NIGHT MIN TEMP(1900-0800 LST):44 HOURLY INCREMENTAL PRECIPITATION VALUES (IN):.00 0.00 0.00 0.00 0.00 0.00 0.00 0.00 0.00 0.00 0.00 0.00 0.00 0.00 T    T    T    0.01 0.01 0.02 0.01 T    0.00 T","SOD  ","6",,,,,,,,,,,,,,,,,,,,,,,,,"0515","1909",,"2009-07-08"
"72306013722","2020-05-09T00:51:00","FM-15","7",,,,,,,,,,,,,,,,,,,,,,,,,,,,,,,,,,,,,,"29.93","43","50","T",,"-0.09","3","77","29.92","FEW:02 18 OVC:08 34","29.46","10.00","47","350",,"8",,,,,,,,,,,,,,,,,,,,,,,,,,,,,,,,,,,,,"MET14205/09/20 00:51:02 METAR KRDU 090551Z 35007KT 10SM FEW018 OVC034 10/06 A2993 RMK AO2 DZE31 SLP133 P0000 60003 T01000061 10122 20100 53032 (SMK)","FM-15","7",,,,,,,,,,,,,,,,,,,,,,,,,,,,"2009-07-08"
"72306013722","2020-05-09T01:00:00","FM-12","4",,,,,,,,,,,,,,,,,,,,,,,,,,,,,,,,,,,,,,,"43","50",,,"-0.09","3","77","29.92","15","29.47","9.94","47","350",,"8",,,,,,,,,,,,,,,,,,,,,,,,,,,,,,,,,,,,,"SYN08672306 12466 83507 10100 20061 39980 40133 53032 69981 90551 333 10122 20067 555 90906=","FM-12","4",,,,,,,,,,,,,,,,,,,,,,,,,,,,"2009-07-08"
"72306013722","2020-05-09T01:51:00","FM-15","7",,,,,,,,,,,,,,,,,,,,,,,,,,,,,,,,,,,,,,"29.96","39","48","0.00",,,,"71","29.96","FEW:02 18 SCT:04 34 SCT:04 70","29.49","10.00","44","VRB","22","9",,,,,,,,,,,,,,,,,,,,,,,,,,,,,,,,,,,,,"MET11605/09/20 01:51:02 METAR KRDU 090651Z 33008G19KT 10SM FEW018 SCT034 SCT070 09/04 A2996 RMK AO2 SLP144 T00890039 (SMK)","FM-15","7",,,,,,,,,,,,,,,,,,,,,,,,,,,,"2009-07-08"
"72306013722","2020-05-09T02:51:00","FM-15","7",,,,,,,,,,,,,,,,,,,,,,,,,,,,,,,,,,,,,,"29.99","29","44","0.00",,,,"55","29.99","FEW:02 70","29.52","10.00","38","VRB","17","6",,,,,,,,,,,,,,,,,,,,,,,,,,,,,,,,,,,,,"MET10305/09/20 02:51:02 METAR KRDU 090751Z VRB05G15KT 10SM FEW070 07/M02 A2999 RMK AO2 SLP156 T00671017 (SMK)","FM-15","7",,,,,,,,,,,,,,,,,,,,,,,,,,,,"2009-07-08"
"72306013722","2020-05-09T03:51:00","FM-15","7",,,,,,,,,,,,,,,,,,,,,,,,,,,,,,,,,,,,,,"30.02","24","43","0.00",,"-0.09","1","47","30.02","CLR:00","29.55","10.00","36","VRB",,"6",,,,,,,,,,,,,,,,,,,,,,,,,,,,,,,,,,,,,"MET10305/09/20 03:51:02 METAR KRDU 090851Z VRB05KT 10SM CLR 06/M04 A3002 RMK AO2 SLP165 T00611044 51030 (SMK)","FM-15","7",,,,,,,,,,,,,,,,,,,,,,,,,,,,"2009-07-08"
"72306013722","2020-05-09T04:51:00","FM-15","7",,,,,,,,,,,,,,,,,,,,,,,,,,,,,,,,,,,,,,"30.05","24","41","0.00",,,,"51","30.05","CLR:00","29.58","10.00","35","000",,"0",,,,,,,,,,,,,,,,,,,,,,,,,,,,,,,,,,,,,"MET09705/09/20 04:51:02 METAR KRDU 090951Z 00000KT 10SM CLR 05/M04 A3005 RMK AO2 SLP176 T00501044 (SMK)","FM-15","7",,,,,,,,,,,,,,,,,,,,,,,,,,,,"2009-07-08"
"72306013722","2020-05-09T05:51:00","FM-15","7",,,,,,,,,,,,,,,,,,,,,,,,,,,,,,,,,,,,,,"30.07","26","40","0.00",,,,"58","30.07","FEW:02 250","29.60","10.00","35","000",,"0",,,,,,,,,,,,,,,,,,,,,,,,,,,,,,,,,,,,,"MET10005/09/20 05:51:02 METAR KRDU 091051Z 00000KT 10SM FEW250 04/M03 A3007 RMK AO2 SLP184 T00441033 (SMK)","FM-15","7",,,,,,,,,,,,,,,,,,,,,,,,,,,,"2009-07-08"
"72306013722","2020-05-09T06:51:00","FM-15","7",,,,,,,,,,,,,,,,,,,,,,,,,,,,,,,,,,,,,,"30.11","26","43","0.00",,"-0.09","3","51","30.11","FEW:02 250","29.64","10.00","36","VRB",,"6",,,,,,,,,,,,,,,,,,,,,,,,,,,,,,,,,,,,,"MET12305/09/20 06:51:02 METAR KRDU 091151Z VRB05KT 10SM FEW250 06/M03 A3011 RMK AO2 SLP196 70005 T00611033 10100 20039 53030 (RP)","FM-15","7",,,,,,,,,,,,,,,,,,,,,,,,,,,,"2009-07-08"
"72306013722","2020-05-09T07:00:00","FM-12","4",,,,,,,,,,,,,,,,,,,,,,,,,,,,,,,,,,,,,,,"26","43",,,"-0.09","3","51","30.11",,"29.65","9.94","36",,,"6",,,,,,,,,,,,,,,,,,,,,,,,,,,,,,,,,,,,,"SYN08672306 32966 2//05 10061 21033 30040 40196 53030 91151 333 10211 20039 70013 555 90912=","FM-12","4",,,,,,,,,,,,,,,,,,,,,,,,,,,,"2009-07-08"
"72306013722","2020-05-09T07:51:00","FM-15","7",,,,,,,,,,,,,,,,,,,,,,,,,,,,,,,,,,,,,,"30.12","25","46","0.00",,,,"44","30.12","CLR:00","29.65","10.00","38","VRB",,"9",,,,,,,,,,,,,,,,,,,,,,,,,,,,,,,,,,,,,"MET09605/09/20 07:51:02 METAR KRDU 091251Z 36008KT 10SM CLR 08/M04 A3012 RMK AO2 SLP200 T00781039 (RP)","FM-15","7",,,,,,,,,,,,,,,,,,,,,,,,,,,,"2009-07-08"
"72306013722","2020-05-09T08:51:00","FM-15","7",,,,,,,,,,,,,,,,,,,,,,,,,,,,,,,,,,,,,,"30.13","27","49","0.00",,,,"43","30.13","CLR:00","29.66","10.00","40","000",,"0",,,,,,,,,,,,,,,,,,,,,,,,,,,,,,,,,,,,,"MET09605/09/20 08:51:02 METAR KRDU 091351Z 00000KT 10SM CLR 09/M03 A3013 RMK AO2 SLP203 T00941028 (RP)","FM-15","7",,,,,,,,,,,,,,,,,,,,,,,,,,,,"2009-07-08"
"72306013722","2020-05-09T09:51:00","FM-15","7",,,,,,,,,,,,,,,,,,,,,,,,,,,,,,,,,,,,,,"30.13","28","51","0.00",,"-0.02","1","41","30.13","FEW:02 50","29.66","10.00","41","VRB",,"7",,,,,,,,,,,,,,,,,,,,,,,,,,,,,,,,,,,,,"MET10505/09/20 09:51:02 METAR KRDU 091451Z VRB06KT 10SM FEW050 11/M02 A3013 RMK AO2 SLP203 T01061022 51007 (RP)","FM-15","7",,,,,,,,,,,,,,,,,,,,,,,,,,,,"2009-07-08"
"72306013722","2020-05-09T10:51:00","FM-15","7",,,,,,,,,,,,,,,,,,,,,,,,,,,,,,,,,,,,,,"30.13","28","52","0.00",,,,"40","30.12","SCT:04 55","29.66","10.00","42","VRB","18","7",,,,,,,,,,,,,,,,,,,,,,,,,,,,,,,,,,,,,"MET10205/09/20 10:51:02 METAR KRDU 091551Z VRB06G16KT 10SM SCT055 11/M02 A3013 RMK AO2 SLP201 T01111022 (RP)","FM-15","7",,,,,,,,,,,,,,,,,,,,,,,,,,,,"2009-07-08"
"72306013722","2020-05-09T11:51:00","FM-15","7",,,,,,,,,,,,,,,,,,,,,,,,,,,,,,,,,,,,,,"30.12","31","55","0.00",,,,"40","30.12","SCT:04 60","29.65","10.00","44","VRB",,"14",,,,,,,,,,,,,,,,,,,,,,,,,,,,,,,,,,,,,"MET09905/09/20 11:51:02 METAR KRDU 091651Z 29012KT 10SM SCT060 13/M01 A3012 RMK AO2 SLP199 T01281006 (RP)","FM-15","7",,,,,,,,,,,,,,,,,,,,,,,,,,,,"2009-07-08"
"72306013722","2020-05-09T12:51:00","FM-15","7",,,,,,,,,,,,,,,,,,,,,,,,,,,,,,,,,,,,,,"30.10","33","58","0.00",,"+0.03","8","39","30.10","SCT:04 65","29.63","10.00","46","VRB","22","10",,,,,,,,,,,,,,,,,,,,,,,,,,,,,,,,,,,,,"MET11905/09/20 12:51:02 METAR KRDU 091751Z 27009G19KT 10SM SCT065 14/01 A3010 RMK AO2 SLP192 T01440006 10150 20061 58011 (RP)","FM-15","7",,,,,,,,,,,,,,,,,,,,,,,,,,,,"2009-07-08"
"72306013722","2020-05-09T13:00:00","FM-12","4",,,,,,,,,,,,,,,,,,,,,,,,,,,,,,,,,,,,,,,"33","58",,,"+0.03","8","39","30.10","57","29.64","9.94","47","270",,"10",,,,,,,,,,,,,,,,,,,,,,,,,,,,,,,,,,,,,"SYN08672306 32766 42709 10144 20006 30037 40192 58011 91751 333 10150 20061 91019 555 90918=","FM-12","4",,,,,,,,,,,,,,,,,,,,,,,,,,,,"2009-07-08"
"72306013722","2020-05-09T13:51:00","FM-15","7",,,,,,,,,,,,,,,,,,,,,,,,,,,,,,,,,,,,,,"30.09","30","57","0.00",,,,"36","30.09","SCT:04 65","29.62","10.00","45","000",,"0",,,,,,,,,,,,,,,,,,,,,,,,,,,,,,,,,,,,,"MET09905/09/20 13:51:02 METAR KRDU 091851Z 00000KT 10SM SCT065 14/M01 A3009 RMK AO2 SLP189 T01391011 (VD)","FM-15","7",,,,,,,,,,,,,,,,,,,,,,,,,,,,"2009-07-08"
"72306013722","2020-05-09T14:51:00","FM-15","7",,,,,,,,,,,,,,,,,,,,,,,,,,,,,,,,,,,,,,"30.09","25","60","0.00",,,,"26","30.08","FEW:02 70","29.62","10.00","45","270","24","10",,,,,,,,,,,,,,,,,,,,,,,,,,,,,,,,,,,,,"MET12005/09/20 14:51:02 METAR KRDU 091951Z 27009G21KT 10SM FEW070 16/M04 A3009 RMK AO2 PK WND 27028/1918 SLP187 T01561039 (VD)","FM-15","7",,,,,,,,,,,,,,,,,,,,,,,,,,,,"2009-07-08"
"72306013722","2020-05-09T15:51:00","FM-15","7",,,,,,,,,,,,,,,,,,,,,,,,,,,,,,,,,,,,,,"30.08","28","63","0.00",,"+0.02","7","27","30.08","FEW:02 250","29.61","10.00","47","VRB","22","10",,,,,,,,,,,,,,,,,,,,,,,,,,,,,,,,,,,,,"MET10805/09/20 15:51:02 METAR KRDU 092051Z 28009G19KT 10SM FEW250 17/M02 A3008 RMK AO2 SLP185 T01721022 57007 (VD)","FM-15","7",,,,,,,,,,,,,,,,,,,,,,,,,,,,"2009-07-08"
"72306013722","2020-05-09T16:51:00","FM-15","7",,,,,,,,,,,,,,,,,,,,,,,,,,,,,,,,,,,,,,"30.09","25","61","0.00",,,,"25","30.09","FEW:02 250","29.62","10.00","45","VRB","17","10",,,,,,,,,,,,,,,,,,,,,,,,,,,,,,,,,,,,,"MET10205/09/20 16:51:02 METAR KRDU 092151Z 29009G15KT 10SM FEW250 16/M04 A3009 RMK AO2 SLP188 T01611039 (VD)","FM-15","7",,,,,,,,,,,,,,,,,,,,,,,,,,,,"2009-07-08"
"72306013722","2020-05-09T17:51:00","FM-15","7",,,,,,,,,,,,,,,,,,,,,,,,,,,,,,,,,,,,,,"30.11","26","60","0.00",,,,"27","30.10","FEW:02 250","29.64","10.00","45","300",,"7",,,,,,,,,,,,,,,,,,,,,,,,,,,,,,,,,,,,,"MET09905/09/20 17:51:02 METAR KRDU 092251Z 30006KT 10SM FEW250 16/M03 A3011 RMK AO2 SLP194 T01561033 (VD)","FM-15","7",,,,,,,,,,,,,,,,,,,,,,,,,,,,"2009-07-08"
"72306013722","2020-05-09T18:51:00","FM-15","7",,,,,,,,,,,,,,,,,,,,,,,,,,,,,,,,,,,,,,"30.14","27","58","0.00",,"-0.06","3","31","30.13","FEW:02 250","29.67","10.00","45","310",,"5",,,,,,,,,,,,,,,,,,,,,,,,,,,,,,,,,,,,,"MET11705/09/20 18:51:02 METAR KRDU 092351Z 31004KT 10SM FEW250 14/M03 A3014 RMK AO2 SLP204 T01441028 10172 20133 53019 (VD)","FM-15","7",,,,,,,,,,,,,,,,,,,,,,,,,,,,"2009-07-08"
"72306013722","2020-05-09T19:00:00","FM-12","4",,,,,,,,,,,,,,,,,,,,,,,,,,,,,,,,,,,,,,,"27","58",,,"-0.06","3","31","30.13",,"29.68","9.94","45","310",,"5",,,,,,,,,,,,,,,,,,,,,,,,,,,,,,,,,,,,,"SYN08072306 32966 23104 10144 21028 30050 40204 53019 92351 333 10172 20039 555 91000=","FM-12","4",,,,,,,,,,,,,,,,,,,,,,,,,,,,"2009-07-08"
"72306013722","2020-05-09T19:51:00","FM-15","7",,,,,,,,,,,,,,,,,,,,,,,,,,,,,,,,,,,,,,"30.16","32","50","0.00",,,,"50","30.16","FEW:02 250","29.69","10.00","42","000",,"0",,,,,,,,,,,,,,,,,,,,,,,,,,,,,,,,,,,,,"MET09305/09/20 19:51:01 METAR KRDU 100051Z 00000KT 10SM FEW250 10/00 A3016 RMK AO2 SLP214 T01000000","FM-15","7",,,,,,,,,,,,,,,,,,,,,,,,,,,,"2009-07-08"
"72306013722","2020-05-09T20:51:00","FM-15","7",,,,,,,,,,,,,,,,,,,,,,,,,,,,,,,,,,,,,,"30.19","34","46","0.00",,,,"63","30.19","FEW:02 250","29.72","10.00","41","000",,"0",,,,,,,,,,,,,,,,,,,,,,,,,,,,,,,,,,,,,"MET09305/09/20 20:51:01 METAR KRDU 100151Z 00000KT 10SM FEW250 08/01 A3019 RMK AO2 SLP224 T00780011","FM-15","7",,,,,,,,,,,,,,,,,,,,,,,,,,,,"2009-07-08"
"72306013722","2020-05-09T21:51:00","FM-15","7",,,,,,,,,,,,,,,,,,,,,,,,,,,,,,,,,,,,,,"30.22","33","43","0.00",,"-0.09","3","68","30.22","FEW:02 250","29.75","10.00","39","000",,"0",,,,,,,,,,,,,,,,,,,,,,,,,,,,,,,,,,,,,"MET09905/09/20 21:51:01 METAR KRDU 100251Z 00000KT 10SM FEW250 06/01 A3022 RMK AO2 SLP235 T00610006 53030","FM-15","7",,,,,,,,,,,,,,,,,,,,,,,,,,,,"2009-07-08"
"72306013722","2020-05-09T22:51:00","FM-15","7",,,,,,,,,,,,,,,,,,,,,,,,,,,,,,,,,,,,,,"30.24","33","42","0.00",,,,"71","30.24","FEW:02 250","29.77","10.00","38","000",,"0",,,,,,,,,,,,,,,,,,,,,,,,,,,,,,,,,,,,,"MET09305/09/20 22:51:02 METAR KRDU 100351Z 00000KT 10SM FEW250 06/01 A3024 RMK AO2 SLP240 T00560006","FM-15","7",,,,,,,,,,,,,,,,,,,,,,,,,,,,"2009-07-08"
"72306013722","2020-05-09T23:51:00","FM-15","7",,,,,,,,,,,,,,,,,,,,,,,,,,,,,,,,,,,,,,"30.25","33","40","0.00",,,,"77","30.25","FEW:02 250","29.78","10.00","37","000",,"0",,,,,,,,,,,,,,,,,,,,,,,,,,,,,,,,,,,,,"MET10305/09/20 23:51:02 METAR KRDU 100451Z 00000KT 10SM FEW250 04/01 A3025 RMK AO2 SLP245 T00440006 401720039","FM-15","7",,,,,,,,,,,,,,,,,,,,,,,,,,,,"2009-07-08"
"72306013722","2020-05-09T23:59:00","SOD  ","6",,,,,,,,,,,,,,,"30","51","47","30.10","29.59","41","5.2","0","-15.1","14","63","39","270","32","0.00","0","0.0","250","18",,,,,,,,,,,,,,,,,,,,,,,,,,,,,,,,,,,,,,,,,,,,,,,,,,,,,,,,,"SOD73924 HR PRECIPITATION (IN):    T SNOW DEPTH (IN):0     24 HR SNOWFALL (IN):0.0  24 HR MAX TEMP (F): 6324 HR MIN TEMP (F): 39AVERAGE STATION PRESSURE:29.590 MINIMUM SEA LEVEL PRESSURE:29.89 TIME OF OCCURRENCE:0018 PEAK WIND SPEED (MPH): 32 PEAK WIND DIR (DEG):270 PEAK WIND TIME (LST):      FASTEST 2MIN SPEED (MPH): 18FASTEST 2MIN DIR (DEG):250 FASTEST 2MIN TIME (LST):     AVERAGE WIND SPEED (MPH): 5.2 24 HR AVG TEMP (F): 51DEPART FROM NORMAL:-15  HEATING DEGREE DAYS: 14 COOLING DEGREE DAYS:  0 LATEST DAY MAX TEMP (0700-1900 LST):63  LATEST NIGHT MIN TEMP(1900-0800 LST):39 HOURLY INCREMENTAL PRECIPITATION VALUES (IN):    0.00 0.00 0.00 0.00 0.00 0.00 0.00 0.00 0.00 0.00 0.00 0.00 0.00 0.00 0.00 0.00 0.00 0.00 0.00 0.00 0.00 0.00 0.00","SOD  ","6",,,,,,,,,,,,,,,,,,,,,,,,,"0514","1909",,"2009-07-08"
"72306013722","2020-05-10T00:51:00","FM-15","7",,,,,,,,,,,,,,,,,,,,,,,,,,,,,,,,,,,,,,"30.25","34","39","0.00",,"-0.03","0","82","30.25","CLR:00","29.78","10.00","37","000",,"0",,,,,,,,,,,,,,,,,,,,,,,,,,,,,,,,,,,,,"MET11405/10/20 00:51:02 METAR KRDU 100551Z 00000KT 10SM CLR 04/01 A3025 RMK AO2 SLP245 T00390011 10144 20033 50009 (SMK)","FM-15","7",,,,,,,,,,,,,,,,,,,,,,,,,,,,"2009-07-08"
"72306013722","2020-05-10T01:00:00","FM-12","4",,,,,,,,,,,,,,,,,,,,,,,,,,,,,,,,,,,,,,,"34","39",,,"0.03","9","82","30.25",,"29.79","9.94","37","000",,"0",,,,,,,,,,,,,,,,,,,,,,,,,,,,,,,,,,,,,"SYN08072306 32966 00000 10039 20011 30087 40245 50009 90551 333 10144 20033 555 91006=","FM-12","4",,,,,,,,,,,,,,,,,,,,,,,,,,,,"2009-07-08"
"72306013722","2020-05-10T01:51:00","FM-15","7",,,,,,,,,,,,,,,,,,,,,,,,,,,,,,,,,,,,,,"30.25","34","38","0.00",,,,"86","30.25","CLR:00","29.78","10.00","36","050",,"5",,,,,,,,,,,,,,,,,,,,,,,,,,,,,,,,,,,,,"MET09605/10/20 01:51:02 METAR KRDU 100651Z 05004KT 10SM CLR 03/01 A3025 RMK AO2 SLP245 T00330011 (SMK)","FM-15","7",,,,,,,,,,,,,,,,,,,,,,,,,,,,"2009-07-08"
"72306013722","2020-05-10T02:51:00","FM-15","7",,,,,,,,,,,,,,,,,,,,,,,,,,,,,,,,,,,,,,"30.26","34","38","0.00",,,,"86","30.26","CLR:00","29.79","10.00","36","000",,"0",,,,,,,,,,,,,,,,,,,,,,,,,,,,,,,,,,,,,"MET09605/10/20 02:51:02 METAR KRDU 100751Z 00000KT 10SM CLR 03/01 A3026 RMK AO2 SLP246 T00330011 (SMK)","FM-15","7",,,,,,,,,,,,,,,,,,,,,,,,,,,,"2009-07-08"
"72306013722","2020-05-10T03:51:00","FM-15","7",,,,,,,,,,,,,,,,,,,,,,,,,,,,,,,,,,,,,,"30.28","29","40","0.00",,"-0.03","3","65","30.28","FEW:02 250","29.81","10.00","36","100",,"6",,,,,,,,,,,,,,,,,,,,,,,,,,,,,,,,,,,,,"MET10605/10/20 03:51:02 METAR KRDU 100851Z 10005KT 10SM FEW250 04/M02 A3028 RMK AO2 SLP254 T00441017 53010 (SMK)","FM-15","7",,,,,,,,,,,,,,,,,,,,,,,,,,,,"2009-07-08"
"72306013722","2020-05-10T04:51:00","FM-15","7",,,,,,,,,,,,,,,,,,,,,,,,,,,,,,,,,,,,,,"30.28","29","41","0.00",,,,"62","30.28","FEW:02 250","29.81","10.00","36","090",,"5",,,,,,,,,,,,,,,,,,,,,,,,,,,,,,,,,,,,,"MET10005/10/20 04:51:02 METAR KRDU 100951Z 09004KT 10SM FEW250 05/M02 A3028 RMK AO2 SLP254 T00501017 (SMK)","FM-15","7",,,,,,,,,,,,,,,,,,,,,,,,,,,,"2009-07-08"
"72306013722","2020-05-10T05:51:00","FM-15","7",,,,,,,,,,,,,,,,,,,,,,,,,,,,,,,,,,,,,,"30.30","29","40","0.00",,,,"65","30.30","FEW:02 250","29.83","10.00","36","100",,"5",,,,,,,,,,,,,,,,,,,,,,,,,,,,,,,,,,,,,"MET10005/10/20 05:51:02 METAR KRDU 101051Z 10004KT 10SM FEW250 04/M02 A3030 RMK AO2 SLP261 T00441017 (SMK)","FM-15","7",,,,,,,,,,,,,,,,,,,,,,,,,,,,"2009-07-08"
"72306013722","2020-05-10T06:51:00","FM-15","7",,,,,,,,,,,,,,,,,,,,,,,,,,,,,,,,,,,,,,"30.31","31","45","0.00",,"-0.03","3","58","30.31","FEW:02 250","29.84","10.00","39","120",,"9",,,,,,,,,,,,,,,,,,,,,,,,,,,,,,,,,,,,,"MET11705/10/20 06:51:02 METAR KRDU 101151Z 12008KT 10SM FEW250 07/M01 A3031 RMK AO2 SLP264 T00721006 10072 20022 53010 (RP)","FM-15","7",,,,,,,,,,,,,,,,,,,,,,,,,,,,"2009-07-08"
"72306013722","2020-05-10T07:00:00","FM-12","4",,,,,,,,,,,,,,,,,,,,,,,,,,,,,,,,,,,,,,,"31","45",,,"-0.03","3","58","30.31",,"29.85","9.94","39","120",,"9",,,,,,,,,,,,,,,,,,,,,,,,,,,,,,,,,,,,,"SYN08072306 32966 21208 10072 21006 30107 40264 53010 91151 333 10172 20022 555 91012=","FM-12","4",,,,,,,,,,,,,,,,,,,,,,,,,,,,"2009-07-08"
"72306013722","2020-05-10T07:51:00","FM-15","7",,,,,,,,,,,,,,,,,,,,,,,,,,,,,,,,,,,,,,"30.32","33","50","0.00",,,,"52","30.31","FEW:02 250","29.85","10.00","43","130",,"10",,,,,,,,,,,,,,,,,,,,,,,,,,,,,,,,,,,,,"MET09805/10/20 07:51:02 METAR KRDU 101251Z 13009KT 10SM FEW250 10/01 A3032 RMK AO2 SLP265 T01000006 (RP)","FM-15","7",,,,,,,,,,,,,,,,,,,,,,,,,,,,"2009-07-08"
"72306013722","2020-05-10T08:51:00","FM-15","7",,,,,,,,,,,,,,,,,,,,,,,,,,,,,,,,,,,,,,"30.31","34","55","0.00",,,,"45","30.30","FEW:02 250","29.84","10.00","45","150",,"8",,,,,,,,,,,,,,,,,,,,,,,,,,,,,,,,,,,,,"MET09805/10/20 08:51:02 METAR KRDU 101351Z 15007KT 10SM FEW250 13/01 A3031 RMK AO2 SLP262 T01280011 (RP)","FM-15","7",,,,,,,,,,,,,,,,,,,,,,,,,,,,"2009-07-08"
"72306013722","2020-05-10T09:51:00","FM-15","7",,,,,,,,,,,,,,,,,,,,,,,,,,,,,,,,,,,,,,"30.29","33","59","0.00",,"+0.02","8","38","30.29","SCT:04 250","29.82","10.00","47","120",,"6",,,,,,,,,,,,,,,,,,,,,,,,,,,,,,,,,,,,,"MET10405/10/20 09:51:02 METAR KRDU 101451Z 12005KT 10SM SCT250 15/01 A3029 RMK AO2 SLP257 T01500006 58007 (RP)","FM-15","7",,,,,,,,,,,,,,,,,,,,,,,,,,,,"2009-07-08"
"72306013722","2020-05-10T10:51:00","FM-15","7",,,,,,,,,,,,,,,,,,,,,,,,,,,,,,,,,,,,,,"30.28","34","62","0.00",,,,"35","30.28","SCT:04 250","29.81","10.00","49","VRB",,"5",,,,,,,,,,,,,,,,,,,,,,,,,,,,,,,,,,,,,"MET09805/10/20 10:51:02 METAR KRDU 101551Z VRB04KT 10SM SCT250 17/01 A3028 RMK AO2 SLP253 T01670011 (RP)","FM-15","7",,,,,,,,,,,,,,,,,,,,,,,,,,,,"2009-07-08"
"72306013722","2020-05-10T11:51:00","FM-15","7",,,,,,,,,,,,,,,,,,,,,,,,,,,,,,,,,,,,,,"30.24","38","65","0.00",,,,"37","30.24","SCT:04 250","29.77","10.00","52","210",,"9",,,,,,,,,,,,,,,,,,,,,,,,,,,,,,,,,,,,,"MET09805/10/20 11:51:02 METAR KRDU 101651Z 21008KT 10SM SCT250 18/03 A3024 RMK AO2 SLP241 T01830033 (RP)","FM-15","7",,,,,,,,,,,,,,,,,,,,,,,,,,,,"2009-07-08"
"72306013722","2020-05-10T12:51:00","FM-15","7",,,,,,,,,,,,,,,,,,,,,,,,,,,,,,,,,,,,,,"30.21","39","67","0.00",,"+0.08","8","36","30.21","FEW:02 65 FEW:02 250","29.74","10.00","53","240",,"9",,,,,,,,,,,,,,,,,,,,,,,,,,,,,,,,,,,,,"MET12305/10/20 12:51:02 METAR KRDU 101751Z 24008KT 10SM FEW065 FEW250 19/04 A3021 RMK AO2 SLP230 T01940039 10194 20078 58026 (RP)","FM-15","7",,,,,,,,,,,,,,,,,,,,,,,,,,,,"2009-07-08"
"72306013722","2020-05-10T13:00:00","FM-12","4",,,,,,,,,,,,,,,,,,,,,,,,,,,,,,,,,,,,,,,"39","67",,,"+0.08","8","36","30.21","57","29.75","9.94","53","240",,"9",,,,,,,,,,,,,,,,,,,,,,,,,,,,,,,,,,,,,"SYN08072306 32766 22408 10194 20039 30073 40230 58026 91751 333 10194 20078 555 91018=","FM-12","4",,,,,,,,,,,,,,,,,,,,,,,,,,,,"2009-07-08"
"72306013722","2020-05-10T13:51:00","FM-15","7",,,,,,,,,,,,,,,,,,,,,,,,,,,,,,,,,,,,,,"30.17","39","68","0.00",,,,"35","30.17","FEW:02 65 FEW:02 250","29.70","10.00","53","220","21","14",,,,,,,,,,,,,,,,,,,,,,,,,,,,,,,,,,,,,"MET10805/10/20 13:51:02 METAR KRDU 101851Z 22012G18KT 10SM FEW065 FEW250 20/04 A3017 RMK AO2 SLP217 T02000039 (RP)","FM-15","7",,,,,,,,,,,,,,,,,,,,,,,,,,,,"2009-07-08"
"72306013722","2020-05-10T14:51:00","FM-15","7",,,,,,,,,,,,,,,,,,,,,,,,,,,,,,,,,,,,,,"30.14","40","70","0.00",,,,"34","30.14","FEW:02 65 FEW:02 250","29.67","10.00","55","200","20","13",,,,,,,,,,,,,,,,,,,,,,,,,,,,,,,,,,,,,"MET10805/10/20 14:51:02 METAR KRDU 101951Z 20011G17KT 10SM FEW065 FEW250 21/04 A3014 RMK AO2 SLP206 T02110044 (HA)","FM-15","7",,,,,,,,,,,,,,,,,,,,,,,,,,,,"2009-07-08"
"72306013722","2020-05-10T15:51:00","FM-15","7",,,,,,,,,,,,,,,,,,,,,,,,,,,,,,,,,,,,,,"30.11","39","69","0.00",,"+0.10","6","33","30.11","FEW:02 65 FEW:02 250","29.64","10.00","54","210","23","18",,,,,,,,,,,,,,,,,,,,,,,,,,,,,,,,,,,,,"MET11405/10/20 15:51:02 METAR KRDU 102051Z 21016G20KT 10SM FEW065 FEW250 21/04 A3011 RMK AO2 SLP197 T02060039 56033 (HA)","FM-15","7",,,,,,,,,,,,,,,,,,,,,,,,,,,,"2009-07-08"
"72306013722","2020-05-10T16:51:00","FM-15","7",,,,,,,,,,,,,,,,,,,,,,,,,,,,,,,,,,,,,,"30.10","38","69","0.00",,,,"32","30.10","FEW:02 65","29.63","10.00","53","240",,"8",,,,,,,,,,,,,,,,,,,,,,,,,,,,,,,,,,,,,"MET09805/10/20 16:51:02 METAR KRDU 102151Z 24007KT 10SM FEW065 21/03 A3010 RMK AO2 SLP192 T02060033 (HA)","FM-15","7",,,,,,,,,,,,,,,,,,,,,,,,,,,,"2009-07-08"
"72306013722","2020-05-10T17:51:00","FM-15","7",,,,,,,,,,,,,,,,,,,,,,,,,,,,,,,,,,,,,,"30.08","38","68","0.00",,,,"33","30.08","SCT:04 65","29.61","10.00","53","220","23","14",,,,,,,,,,,,,,,,,,,,,,,,,,,,,,,,,,,,,"MET10105/10/20 17:51:02 METAR KRDU 102251Z 22012G20KT 10SM SCT065 20/03 A3008 RMK AO2 SLP185 T02000033 (HA)","FM-15","7",,,,,,,,,,,,,,,,,,,,,,,,,,,,"2009-07-08"
"72306013722","2020-05-10T18:51:00","FM-15","7",,,,,,,,,,,,,,,,,,,,,,,,,,,,,,,,,,,,,,"30.08","40","64","0.00",,"+0.04","6","41","30.07","FEW:02 65","29.61","10.00","52","210",,"10",,,,,,,,,,,,,,,,,,,,,,,,,,,,,,,,,,,,,"MET11605/10/20 18:51:02 METAR KRDU 102351Z 21009KT 10SM FEW065 18/04 A3008 RMK AO2 SLP184 T01780044 10211 20178 56013 (HA)","FM-15","7",,,,,,,,,,,,,,,,,,,,,,,,,,,,"2009-07-08"
"72306013722","2020-05-10T19:00:00","FM-12","4",,,,,,,,,,,,,,,,,,,,,,,,,,,,,,,,,,,,,,,"40","64",,,"+0.04","6","41","30.07","57","29.62","9.94","52","210",,"10",,,,,,,,,,,,,,,,,,,,,,,,,,,,,,,,,,,,,"SYN08072306 32766 22109 10178 20044 30030 40184 56013 92351 333 10211 20022 555 91100=","FM-12","4",,,,,,,,,,,,,,,,,,,,,,,,,,,,"2009-07-08"
"72306013722","2020-05-10T19:51:00","FM-15","7",,,,,,,,,,,,,,,,,,,,,,,,,,,,,,,,,,,,,,"30.07","41","61","0.00",,,,"48","30.07","FEW:02 65","29.60","10.00","51","180",,"7",,,,,,,,,,,,,,,,,,,,,,,,,,,,,,,,,,,,,"MET09305/10/20 19:51:01 METAR KRDU 110051Z 18006KT 10SM FEW065 16/05 A3007 RMK AO2 SLP182 T01610050","FM-15","7",,,,,,,,,,,,,,,,,,,,,,,,,,,,"2009-07-08"
"72306013722","2020-05-10T20:51:00","FM-15","7",,,,,,,,,,,,,,,,,,,,,,,,,,,,,,,,,,,,,,"30.07","41","60","0.00",,,,"50","30.06","CLR:00","29.60","10.00","51","190",,"8",,,,,,,,,,,,,,,,,,,,,,,,,,,,,,,,,,,,,"MET09005/10/20 20:51:01 METAR KRDU 110151Z 19007KT 10SM CLR 16/05 A3007 RMK AO2 SLP180 T01560050","FM-15","7",,,,,,,,,,,,,,,,,,,,,,,,,,,,"2009-07-08"
"72306013722","2020-05-10T21:51:00","FM-15","7",,,,,,,,,,,,,,,,,,,,,,,,,,,,,,,,,,,,,,"30.06","42","59","0.00",,"+0.01","8","54","30.06","CLR:00","29.59","10.00","50","180",,"7",,,,,,,,,,,,,,,,,,,,,,,,,,,,,,,,,,,,,"MET09605/10/20 21:51:01 METAR KRDU 110251Z 18006KT 10SM CLR 15/06 A3006 RMK AO2 SLP178 T01500056 58004","FM-15","7",,,,,,,,,,,,,,,,,,,,,,,,,,,,"2009-07-08"
"72306013722","2020-05-10T22:51:00","FM-15","7",,,,,,,,,,,,,,,,,,,,,,,,,,,,,,,,,,,,,,"30.05","45","59","0.00",,,,"60","30.05","CLR:00","29.58","10.00","52","190",,"13",,,,,,,,,,,,,,,,,,,,,,,,,,,,,,,,,,,,,"MET09005/10/20 22:51:02 METAR KRDU 110351Z 19011KT 10SM CLR 15/07 A3005 RMK AO2 SLP175 T01500072","FM-15","7",,,,,,,,,,,,,,,,,,,,,,,,,,,,"2009-07-08"
"72306013722","2020-05-10T23:51:00","FM-15","7",,,,,,,,,,,,,,,,,,,,,,,,,,,,,,,,,,,,,,"30.04","46","58","0.00",,,,"65","30.03","CLR:00","29.57","10.00","52","210",,"11",,,,,,,,,,,,,,,,,,,,,,,,,,,,,,,,,,,,,"MET10005/10/20 23:51:02 METAR KRDU 110451Z 21010KT 10SM CLR 14/08 A3004 RMK AO2 SLP170 T01440078 402110022","FM-15","7",,,,,,,,,,,,,,,,,,,,,,,,,,,,"2009-07-08"
"72306013722","2020-05-10T23:59:00","SOD  ","6",,,,,,,,,,,,,,,"37","53","50","30.19","29.73","47","8.3","0","-13.4","12","70","36","220","27","0.00","0","0.0","230","21",,,,,,,,,,,,,,,,,,,,,,,,,,,,,,,,,,,,,,,,,,,,,,,,,,,,,,,,,"SOD73924 HR PRECIPITATION (IN): 0.00 SNOW DEPTH (IN):0     24 HR SNOWFALL (IN):0.0  24 HR MAX TEMP (F): 7024 HR MIN TEMP (F): 36AVERAGE STATION PRESSURE:29.735 MINIMUM SEA LEVEL PRESSURE:30.03 TIME OF OCCURRENCE:2359 PEAK WIND SPEED (MPH): 27 PEAK WIND DIR (DEG):220 PEAK WIND TIME (LST):      FASTEST 2MIN SPEED (MPH): 21FASTEST 2MIN DIR (DEG):230 FASTEST 2MIN TIME (LST):     AVERAGE WIND SPEED (MPH): 8.3 24 HR AVG TEMP (F): 53DEPART FROM NORMAL:-13  HEATING DEGREE DAYS: 12 COOLING DEGREE DAYS:  0 LATEST DAY MAX TEMP (0700-1900 LST):70  LATEST NIGHT MIN TEMP(1900-0800 LST):36 HOURLY INCREMENTAL PRECIPITATION VALUES (IN):.00 0.00 0.00 0.00 0.00 0.00 0.00 0.00 0.00 0.00 0.00 0.00 0.00 0.00 0.00 0.00 0.00 0.00 0.00 0.00 0.00 0.00 0.00 0.00","SOD  ","6",,,,,,,,,,,,,,,,,,,,,,,,,"0513","1910",,"2009-07-08"
"72306013722","2020-05-11T00:51:00","FM-15","7",,,,,,,,,,,,,,,,,,,,,,,,,,,,,,,,,,,,,,"30.02","47","57","0.00",,"+0.04","8","69","30.01","CLR:00","29.55","10.00","52","210",,"11",,,,,,,,,,,,,,,,,,,,,,,,,,,,,,,,,,,,,"MET11405/11/20 00:51:02 METAR KRDU 110551Z 21010KT 10SM CLR 14/08 A3002 RMK AO2 SLP162 T01390083 10178 20139 58015 (SMK)","FM-15","7",,,,,,,,,,,,,,,,,,,,,,,,,,,,"2009-07-08"
"72306013722","2020-05-11T01:00:00","FM-12","4",,,,,,,,,,,,,,,,,,,,,,,,,,,,,,,,,,,,,,,"47","57",,,"+0.04","8","69","30.01",,"29.56","9.94","52","210",,"11",,,,,,,,,,,,,,,,,,,,,,,,,,,,,,,,,,,,,"SYN08072306 32966 02110 10139 20083 30010 40162 58015 90551 333 10178 20022 555 91106=","FM-12","4",,,,,,,,,,,,,,,,,,,,,,,,,,,,"2009-07-08"
"72306013722","2020-05-11T01:51:00","FM-15","7",,,,,,,,,,,,,,,,,,,,,,,,,,,,,,,,,,,,,,"29.99","48","57","0.00",,,,"72","29.98","CLR:00","29.52","10.00","52","220",,"9",,,,,,,,,,,,,,,,,,,,,,,,,,,,,,,,,,,,,"MET09605/11/20 01:51:02 METAR KRDU 110651Z 22008KT 10SM CLR 14/09 A2999 RMK AO2 SLP153 T01390089 (SMK)","FM-15","7",,,,,,,,,,,,,,,,,,,,,,,,,,,,"2009-07-08"
"72306013722","2020-05-11T02:51:00","FM-15","7",,,,,,,,,,,,,,,,,,,,,,,,,,,,,,,,,,,,,,"29.97","48","56","0.00",,,,"75","29.96","CLR:00","29.50","10.00","52","210",,"13",,,,,,,,,,,,,,,,,,,,,,,,,,,,,,,,,,,,,"MET09605/11/20 02:51:02 METAR KRDU 110751Z 21011KT 10SM CLR 13/09 A2997 RMK AO2 SLP147 T01330089 (SMK)","FM-15","7",,,,,,,,,,,,,,,,,,,,,,,,,,,,"2009-07-08"
"72306013722","2020-05-11T03:51:00","FM-15","7",,,,,,,,,,,,,,,,,,,,,,,,,,,,,,,,,,,,,,"29.98","49","54","0.00",,"+0.04","5","83","29.97","CLR:00","29.51","10.00","51","220",,"7",,,,,,,,,,,,,,,,,,,,,,,,,,,,,,,,,,,,,"MET10205/11/20 03:51:02 METAR KRDU 110851Z 22006KT 10SM CLR 12/09 A2998 RMK AO2 SLP149 T01220094 55014 (SMK)","FM-15","7",,,,,,,,,,,,,,,,,,,,,,,,,,,,"2009-07-08"
"72306013722","2020-05-11T04:51:00","FM-15","7",,,,,,,,,,,,,,,,,,,,,,,,,,,,,,,,,,,,,,"29.99","49","52","0.00",,,,"89","29.99","CLR:00","29.52","10.00","50","250",,"6",,,,,,,,,,,,,,,,,,,,,,,,,,,,,,,,,,,,,"MET09605/11/20 04:51:02 METAR KRDU 110951Z 25005KT 10SM CLR 11/09 A2999 RMK AO2 SLP155 T01110094 (SMK)","FM-15","7",,,,,,,,,,,,,,,,,,,,,,,,,,,,"2009-07-08"
"72306013722","2020-05-11T05:51:00","FM-15","7",,,,,,,,,,,,,,,,,,,,,,,,,,,,,,,,,,,,,,"30.01","49","51","0.00",,,,"92","30.00","FEW:02 120","29.54","10.00","50","250",,"3",,,,,,,,,,,,,,,,,,,,,,,,,,,,,,,,,,,,,"MET09905/11/20 05:51:02 METAR KRDU 111051Z 25003KT 10SM FEW120 11/09 A3001 RMK AO2 SLP160 T01060094 (SMK)","FM-15","7",,,,,,,,,,,,,,,,,,,,,,,,,,,,"2009-07-08"
"72306013722","2020-05-11T06:51:00","FM-15","7",,,,,,,,,,,,,,,,,,,,,,,,,,,,,,,,,,,,,,"30.02","49","55","0.00",,"-0.04","2","80","30.02","FEW:02 80 FEW:02 110","29.55","10.00","52","VRB",,"8",,,,,,,,,,,,,,,,,,,,,,,,,,,,,,,,,,,,,"MET12405/11/20 06:51:02 METAR KRDU 111151Z 27007KT 10SM FEW080 FEW110 13/09 A3002 RMK AO2 SLP165 T01280094 10139 20100 52015 (KAH)","FM-15","7",,,,,,,,,,,,,,,,,,,,,,,,,,,,"2009-07-08"
"72306013722","2020-05-11T07:00:00","FM-12","4",,,,,,,,,,,,,,,,,,,,,,,,,,,,,,,,,,,,,,,"49","55",,,"-0.04","2","80","30.02","74","29.56","9.94","52","270",,"8",,,,,,,,,,,,,,,,,,,,,,,,,,,,,,,,,,,,,"SYN08072306 32866 22707 10128 20094 30010 40165 52015 91151 333 10211 20100 555 91112=","FM-12","4",,,,,,,,,,,,,,,,,,,,,,,,,,,,"2009-07-08"
"72306013722","2020-05-11T07:51:00","FM-15","7",,,,,,,,,,,,,,,,,,,,,,,,,,,,,,,,,,,,,,"30.03","44","59","0.00",,,,"58","30.03","FEW:02 80 SCT:04 110","29.56","10.00","51","290","21","11",,,,,,,,,,,,,,,,,,,,,,,,,,,,,,,,,,,,,"MET10905/11/20 07:51:02 METAR KRDU 111251Z 29010G18KT 10SM FEW080 SCT110 15/07 A3003 RMK AO2 SLP168 T01500067 (KAH)","FM-15","7",,,,,,,,,,,,,,,,,,,,,,,,,,,,"2009-07-08"
"72306013722","2020-05-11T08:51:00","FM-15","7",,,,,,,,,,,,,,,,,,,,,,,,,,,,,,,,,,,,,,"30.04","35","60","0.00",,,,"39","30.04","FEW:02 55 FEW:02 80 FEW:02 110","29.57","10.00","48","310","25","8",,,,,,,,,,,,,,,,,,,,,,,,,,,,,,,,,,,,,"MET11605/11/20 08:51:02 METAR KRDU 111351Z 31007G22KT 10SM FEW055 FEW080 FEW110 16/02 A3004 RMK AO2 SLP172 T01560017 (KAH)","FM-15","7",,,,,,,,,,,,,,,,,,,,,,,,,,,,"2009-07-08"
"72306013722","2020-05-11T09:51:00","FM-15","7",,,,,,,,,,,,,,,,,,,,,,,,,,,,,,,,,,,,,,"30.05","32","62","0.00",,"-0.02","1","32","30.04","FEW:02 60 FEW:02 110","29.58","10.00","48","280","24","11",,,,,,,,,,,,,,,,,,,,,,,,,,,,,,,,,,,,,"MET11505/11/20 09:51:02 METAR KRDU 111451Z 28010G21KT 10SM FEW060 FEW110 17/00 A3005 RMK AO2 SLP172 T01670000 51007 (KAH)","FM-15","7",,,,,,,,,,,,,,,,,,,,,,,,,,,,"2009-07-08"
"72306013722","2020-05-11T10:51:00","FM-15","7",,,,,,,,,,,,,,,,,,,,,,,,,,,,,,,,,,,,,,"30.03","30","63","0.00",,,,"29","30.03","FEW:02 70","29.56","10.00","48","310","21","8",,,,,,,,,,,,,,,,,,,,,,,,,,,,,,,,,,,,,"MET10305/11/20 10:51:02 METAR KRDU 111551Z 31007G18KT 10SM FEW070 17/M01 A3003 RMK AO2 SLP168 T01721011 (KAH)","FM-15","7",,,,,,,,,,,,,,,,,,,,,,,,,,,,"2009-07-08"
"72306013722","2020-05-11T11:51:00","FM-15","7",,,,,,,,,,,,,,,,,,,,,,,,,,,,,,,,,,,,,,"30.03","30","63","0.00",,,,"29","30.02","FEW:02 75","29.56","10.00","48","290","26","13",,,,,,,,,,,,,,,,,,,,,,,,,,,,,,,,,,,,,"MET10305/11/20 11:51:02 METAR KRDU 111651Z 29011G23KT 10SM FEW075 17/M01 A3003 RMK AO2 SLP166 T01721011 (KAH)","FM-15","7",,,,,,,,,,,,,,,,,,,,,,,,,,,,"2009-07-08"
"72306013722","2020-05-11T12:51:00","FM-15","7",,,,,,,,,,,,,,,,,,,,,,,,,,,,,,,,,,,,,,"30.02","31","64","0.00",,"+0.02","6","29","30.01","FEW:02 75","29.55","10.00","49","290","31","15",,,,,,,,,,,,,,,,,,,,,,,,,,,,,,,,,,,,,"MET13905/11/20 12:51:02 METAR KRDU 111751Z 29013G27KT 10SM FEW075 18/M01 A3002 RMK AO2 PK WND 27027/1747 SLP164 T01781006 10183 20128 56008 (KAH)","FM-15","7",,,,,,,,,,,,,,,,,,,,,,,,,,,,"2009-07-08"
"72306013722","2020-05-11T13:00:00","FM-12","4",,,,,,,,,,,,,,,,,,,,,,,,,,,,,,,,,,,,,,,"31","64",,,"+0.02","6","29","30.01","74","29.56","9.94","49","290",,"15",,,,,,,,,,,,,,,,,,,,,,,,,,,,,,,,,,,,,"SYN08672306 32866 22913 10178 21006 30010 40164 56008 91751 333 10183 20128 91027 555 91118=","FM-12","4",,,,,,,,,,,,,,,,,,,,,,,,,,,,"2009-07-08"
"72306013722","2020-05-11T13:51:00","FM-15","7",,,,,,,,,,,,,,,,,,,,,,,,,,,,,,,,,,,,,,"30.00","35","66","0.00",,,,"32","29.99","FEW:02 70","29.53","10.00","51","VRB","18","8",,,,,,,,,,,,,,,,,,,,,,,,,,,,,,,,,,,,,"MET10205/11/20 13:51:02 METAR KRDU 111851Z 32007G16KT 10SM FEW070 19/02 A3000 RMK AO2 SLP157 T01890017 (KAH)","FM-15","7",,,,,,,,,,,,,,,,,,,,,,,,,,,,"2009-07-08"
"72306013722","2020-05-11T14:51:00","FM-15","7",,,,,,,,,,,,,,,,,,,,,,,,,,,,,,,,,,,,,,"30.00","33","65","0.00",,,,"31","29.99","FEW:02 70","29.53","10.00","50","270","25","9",,,,,,,,,,,,,,,,,,,,,,,,,,,,,,,,,,,,,"MET10205/11/20 14:51:02 METAR KRDU 111951Z 27008G22KT 10SM FEW070 18/01 A3000 RMK AO2 SLP156 T01830006 (JBA)","FM-15","7",,,,,,,,,,,,,,,,,,,,,,,,,,,,"2009-07-08"
"72306013722","2020-05-11T15:51:00","FM-15","7",,,,,,,,,,,,,,,,,,,,,,,,,,,,,,,,,,,,,,"30.01","32","65","0.00",,"+0.01","5","29","30.00","SCT:04 70","29.54","10.00","49","290","21","11",,,,,,,,,,,,,,,,,,,,,,,,,,,,,,,,,,,,,"MET12605/11/20 15:51:02 METAR KRDU 112051Z 29010G18KT 10SM SCT070 18/00 A3001 RMK AO2 PK WND 31027/2032 SLP160 T01830000 55004 (JBA)","FM-15","7",,,,,,,,,,,,,,,,,,,,,,,,,,,,"2009-07-08"
"72306013722","2020-05-11T16:51:00","FM-15","7",,,,,,,,,,,,,,,,,,,,,,,,,,,,,,,,,,,,,,"30.03","32","64","0.00",,,,"30","30.02","SCT:04 80","29.56","10.00","49","290","20","13",,,,,,,,,,,,,,,,,,,,,,,,,,,,,,,,,,,,,"MET10205/11/20 16:51:02 METAR KRDU 112151Z 29011G17KT 10SM SCT080 18/00 A3003 RMK AO2 SLP166 T01780000 (JBA)","FM-15","7",,,,,,,,,,,,,,,,,,,,,,,,,,,,"2009-07-08"
"72306013722","2020-05-11T17:51:00","FM-15","7",,,,,,,,,,,,,,,,,,,,,,,,,,,,,,,,,,,,,,"30.05","32","61","0.00",,,,"34","30.04","SCT:04 80","29.58","10.00","48","310","18","7",,,,,,,,,,,,,,,,,,,,,,,,,,,,,,,,,,,,,"MET10205/11/20 17:51:02 METAR KRDU 112251Z 31006G16KT 10SM SCT080 16/00 A3005 RMK AO2 SLP172 T01610000 (JBA)","FM-15","7",,,,,,,,,,,,,,,,,,,,,,,,,,,,"2009-07-08"
"72306013722","2020-05-11T18:51:00","FM-15","7",,,,,,,,,,,,,,,,,,,,,,,,,,,,,,,,,,,,,,"30.08","31","58","0.00",,"-0.07","3","36","30.07","FEW:02 80","29.61","10.00","46","VRB",,"8",,,,,,,,,,,,,,,,,,,,,,,,,,,,,,,,,,,,,"MET11805/11/20 18:51:02 METAR KRDU 112351Z 35007KT 10SM FEW080 14/M01 A3008 RMK AO2 SLP184 T01441006 10194 20144 53023 (JBA)","FM-15","7",,,,,,,,,,,,,,,,,,,,,,,,,,,,"2009-07-08"
"72306013722","2020-05-11T19:00:00","FM-12","4",,,,,,,,,,,,,,,,,,,,,,,,,,,,,,,,,,,,,,,"31","58",,,"-0.07","3","36","30.07","74","29.62","9.94","46","350",,"8",,,,,,,,,,,,,,,,,,,,,,,,,,,,,,,,,,,,,"SYN08072306 32866 23507 10144 21006 30030 40184 53023 92351 333 10194 20100 555 91200=","FM-12","4",,,,,,,,,,,,,,,,,,,,,,,,,,,,"2009-07-08"
"72306013722","2020-05-11T19:51:00","FM-15","7",,,,,,,,,,,,,,,,,,,,,,,,,,,,,,,,,,,,,,"30.11","30","55","0.00",,,,"38","30.11","FEW:02 80","29.64","10.00","44","350",,"9",,,,,,,,,,,,,,,,,,,,,,,,,,,,,,,,,,,,,"MET09405/11/20 19:51:01 METAR KRDU 120051Z 35008KT 10SM FEW080 13/M01 A3011 RMK AO2 SLP196 T01281011","FM-15","7",,,,,,,,,,,,,,,,,,,,,,,,,,,,"2009-07-08"
"72306013722","2020-05-11T20:51:00","FM-15","7",,,,,,,,,,,,,,,,,,,,,,,,,,,,,,,,,,,,,,"30.14","30","52","0.00",,,,"43","30.14","CLR:00","29.67","10.00","42","350",,"3",,,,,,,,,,,,,,,,,,,,,,,,,,,,,,,,,,,,,"MET09105/11/20 20:51:01 METAR KRDU 120151Z 35003KT 10SM CLR 11/M01 A3014 RMK AO2 SLP206 T01111011","FM-15","7",,,,,,,,,,,,,,,,,,,,,,,,,,,,"2009-07-08"
"72306013722","2020-05-11T21:51:00","FM-15","7",,,,,,,,,,,,,,,,,,,,,,,,,,,,,,,,,,,,,,"30.16","31","50","0.00",,"-0.08","1","48","30.16","CLR:00","29.69","10.00","42","030",,"5",,,,,,,,,,,,,,,,,,,,,,,,,,,,,,,,,,,,,"MET09705/11/20 21:51:01 METAR KRDU 120251Z 03004KT 10SM CLR 10/M01 A3016 RMK AO2 SLP212 T01001006 51028","FM-15","7",,,,,,,,,,,,,,,,,,,,,,,,,,,,"2009-07-08"
"72306013722","2020-05-11T22:51:00","FM-15","7",,,,,,,,,,,,,,,,,,,,,,,,,,,,,,,,,,,,,,"30.16","31","47","0.00",,,,"54","30.16","CLR:00","29.69","10.00","40","000",,"0",,,,,,,,,,,,,,,,,,,,,,,,,,,,,,,,,,,,,"MET09105/11/20 22:51:02 METAR KRDU 120351Z 00000KT 10SM CLR 08/M01 A3016 RMK AO2 SLP214 T00831006","FM-15","7",,,,,,,,,,,,,,,,,,,,,,,,,,,,"2009-07-08"
"72306013722","2020-05-11T23:51:00","FM-15","7",,,,,,,,,,,,,,,,,,,,,,,,,,,,,,,,,,,,,,"30.17","31","46","0.00",,,,"56","30.17","FEW:02 250","29.70","10.00","40","VRB",,"3",,,,,,,,,,,,,,,,,,,,,,,,,,,,,,,,,,,,,"MET10405/11/20 23:51:02 METAR KRDU 120451Z VRB03KT 10SM FEW250 08/M01 A3017 RMK AO2 SLP217 T00781006 401940078","FM-15","7",,,,,,,,,,,,,,,,,,,,,,,,,,,,"2009-07-08"
"72306013722","2020-05-11T23:59:00","SOD  ","6",,,,,,,,,,,,,,,"37","57","49","30.04","29.56","48","8.4","0","-9.6","8","67","46","270","31","0.00","0","0.0","290","20",,,,,,,,,,,,,,,,,,,,,,,,,,,,,,,,,,,,,,,,,,,,,,,,,,,,,,,,,"SOD73924 HR PRECIPITATION (IN): 0.00 SNOW DEPTH (IN):0     24 HR SNOWFALL (IN):0.0  24 HR MAX TEMP (F): 6724 HR MIN TEMP (F): 46AVERAGE STATION PRESSURE:29.560 MINIMUM SEA LEVEL PRESSURE:29.96 TIME OF OCCURRENCE:0346 PEAK WIND SPEED (MPH): 31 PEAK WIND DIR (DEG):270 PEAK WIND TIME (LST):      FASTEST 2MIN SPEED (MPH): 20FASTEST 2MIN DIR (DEG):290 FASTEST 2MIN TIME (LST):     AVERAGE WIND SPEED (MPH): 8.4 24 HR AVG TEMP (F): 57DEPART FROM NORMAL:-10  HEATING DEGREE DAYS:  8 COOLING DEGREE DAYS:  0 LATEST DAY MAX TEMP (0700-1900 LST):67  LATEST NIGHT MIN TEMP(1900-0800 LST):50 HOURLY INCREMENTAL PRECIPITATION VALUES (IN):.00 0.00 0.00 0.00 0.00 0.00 0.00 0.00 0.00 0.00 0.00 0.00 0.00 0.00 0.00 0.00 0.00 0.00 0.00 0.00 0.00 0.00 0.00 0.00","SOD  ","6",,,,,,,,,,,,,,,,,,,,,,,,,"0512","1911",,"2009-07-08"
"72306013722","2020-05-12T00:51:00","FM-15","7",,,,,,,,,,,,,,,,,,,,,,,,,,,,,,,,,,,,,,"30.17","31","43","0.00",,"-0.01","2","63","30.17","FEW:02 250","29.70","10.00","38","VRB",,"3",,,,,,,,,,,,,,,,,,,,,,,,,,,,,,,,,,,,,"MET11805/12/20 00:51:02 METAR KRDU 120551Z VRB03KT 10SM FEW250 06/M01 A3017 RMK AO2 SLP217 T00611006 10144 20061 52004 (AWB)","FM-15","7",,,,,,,,,,,,,,,,,,,,,,,,,,,,"2009-07-08"
"72306013722","2020-05-12T01:00:00","FM-12","4",,,,,,,,,,,,,,,,,,,,,,,,,,,,,,,,,,,,,,,"31","43",,,"-0.01","2","63","30.17",,"29.71","9.94","38",,,"3",,,,,,,,,,,,,,,,,,,,,,,,,,,,,,,,,,,,,"SYN08072306 32966 2//03 10061 21006 30060 40217 52004 90551 333 10144 20061 555 91206=","FM-12","4",,,,,,,,,,,,,,,,,,,,,,,,,,,,"2009-07-08"
"72306013722","2020-05-12T01:51:00","FM-15","7",,,,,,,,,,,,,,,,,,,,,,,,,,,,,,,,,,,,,,"30.17","30","44","0.00",,,,"58","30.16","FEW:02 250","29.70","10.00","38","000",,"0",,,,,,,,,,,,,,,,,,,,,,,,,,,,,,,,,,,,,"MET10005/12/20 01:51:02 METAR KRDU 120651Z 00000KT 10SM FEW250 07/M01 A3017 RMK AO2 SLP215 T00671011 (AWB)","FM-15","7",,,,,,,,,,,,,,,,,,,,,,,,,,,,"2009-07-08"
"72306013722","2020-05-12T02:51:00","FM-15","7",,,,,,,,,,,,,,,,,,,,,,,,,,,,,,,,,,,,,,"30.18","30","43","0.00",,,,"60","30.17","SCT:04 250","29.71","10.00","38","000",,"0",,,,,,,,,,,,,,,,,,,,,,,,,,,,,,,,,,,,,"MET10005/12/20 02:51:02 METAR KRDU 120751Z 00000KT 10SM SCT250 06/M01 A3018 RMK AO2 SLP218 T00611011 (AWB)","FM-15","7",,,,,,,,,,,,,,,,,,,,,,,,,,,,"2009-07-08"
"72306013722","2020-05-12T03:51:00","FM-15","7",,,,,,,,,,,,,,,,,,,,,,,,,,,,,,,,,,,,,,"30.20","31","42","0.00",,"-0.03","3","65","30.20","BKN:07 250","29.73","10.00","37","000",,"0",,,,,,,,,,,,,,,,,,,,,,,,,,,,,,,,,,,,,"MET10605/12/20 03:51:02 METAR KRDU 120851Z 00000KT 10SM BKN250 06/M01 A3020 RMK AO2 SLP226 T00561006 53009 (AWB)","FM-15","7",,,,,,,,,,,,,,,,,,,,,,,,,,,,"2009-07-08"
"72306013722","2020-05-12T04:51:00","FM-15","7",,,,,,,,,,,,,,,,,,,,,,,,,,,,,,,,,,,,,,"30.22","31","38","0.00",,,,"76","30.21","BKN:07 250","29.75","10.00","35","000",,"0",,,,,,,,,,,,,,,,,,,,,,,,,,,,,,,,,,,,,"MET10005/12/20 04:51:02 METAR KRDU 120951Z 00000KT 10SM BKN250 03/M01 A3022 RMK AO2 SLP231 T00331006 (AWB)","FM-15","7",,,,,,,,,,,,,,,,,,,,,,,,,,,,"2009-07-08"
"72306013722","2020-05-12T05:51:00","FM-15","7",,,,,,,,,,,,,,,,,,,,,,,,,,,,,,,,,,,,,,"30.24","33","41","0.00",,,,"73","30.24","BKN:07 220 BKN:07 250","29.77","10.00","38","000",,"0",,,,,,,,,,,,,,,,,,,,,,,,,,,,,,,,,,,,,"MET10605/12/20 05:51:02 METAR KRDU 121051Z 00000KT 10SM BKN220 BKN250 05/01 A3024 RMK AO2 SLP239 T00500006 (AWB)","FM-15","7",,,,,,,,,,,,,,,,,,,,,,,,,,,,"2009-07-08"
"72306013722","2020-05-12T06:51:00","FM-15","7",,,,,,,,,,,,,,,,,,,,,,,,,,,,,,,,,,,,,,"30.26","37","44","0.00",,"-0.06","3","76","30.26","SCT:04 210 BKN:07 250","29.79","10.00","41","250",,"3",,,,,,,,,,,,,,,,,,,,,,,,,,,,,,,,,,,,,"MET12405/12/20 06:51:02 METAR KRDU 121151Z 25003KT 10SM SCT210 BKN250 07/03 A3026 RMK AO2 SLP248 T00670028 10072 20033 53021 (KAH)","FM-15","7",,,,,,,,,,,,,,,,,,,,,,,,,,,,"2009-07-08"
"72306013722","2020-05-12T07:00:00","FM-12","4",,,,,,,,,,,,,,,,,,,,,,,,,,,,,,,,,,,,,,,"37","44",,,"-0.06","3","76","30.26",,"29.80","9.94","41","250",,"3",,,,,,,,,,,,,,,,,,,,,,,,,,,,,,,,,,,,,"SYN08072306 32966 62503 10067 20028 30090 40248 53021 91151 333 10194 20033 555 91212=","FM-12","4",,,,,,,,,,,,,,,,,,,,,,,,,,,,"2009-07-08"
"72306013722","2020-05-12T07:51:00","FM-15","7",,,,,,,,,,,,,,,,,,,,,,,,,,,,,,,,,,,,,,"30.27","35","50","0.00",,,,"57","30.27","FEW:02 210 BKN:07 250","29.80","10.00","43","VRB",,"7",,,,,,,,,,,,,,,,,,,,,,,,,,,,,,,,,,,,,"MET10605/12/20 07:51:02 METAR KRDU 121251Z VRB06KT 10SM FEW210 BKN250 10/02 A3027 RMK AO2 SLP251 T01000017 (KAH)","FM-15","7",,,,,,,,,,,,,,,,,,,,,,,,,,,,"2009-07-08"
"72306013722","2020-05-12T08:51:00","FM-15","7",,,,,,,,,,,,,,,,,,,,,,,,,,,,,,,,,,,,,,"30.28","34","53","0.00",,,,"48","30.28","SCT:04 45 SCT:04 210 BKN:07 250","29.81","10.00","44","VRB",,"7",,,,,,,,,,,,,,,,,,,,,,,,,,,,,,,,,,,,,"MET11305/12/20 08:51:02 METAR KRDU 121351Z VRB06KT 10SM SCT045 SCT210 BKN250 12/01 A3028 RMK AO2 SLP254 T01170011 (KAH)","FM-15","7",,,,,,,,,,,,,,,,,,,,,,,,,,,,"2009-07-08"
"72306013722","2020-05-12T09:51:00","FM-15","7",,,,,,,,,,,,,,,,,,,,,,,,,,,,,,,,,,,,,,"30.27","33","56","0.00",,"-0.01","0","42","30.27","SCT:04 50 SCT:04 160 BKN:07 250","29.80","10.00","46","360",,"7",,,,,,,,,,,,,,,,,,,,,,,,,,,,,,,,,,,,,"MET11905/12/20 09:51:02 METAR KRDU 121451Z 36006KT 10SM SCT050 SCT160 BKN250 13/01 A3027 RMK AO2 SLP250 T01330006 50003 (KAH)","FM-15","7",,,,,,,,,,,,,,,,,,,,,,,,,,,,"2009-07-08"
"72306013722","2020-05-12T10:51:00","FM-15","7",,,,,,,,,,,,,,,,,,,,,,,,,,,,,,,,,,,,,,"30.25","34","58","0.00",,,,"41","30.25","FEW:02 55 SCT:04 170 BKN:07 250","29.78","10.00","47","VRB",,"7",,,,,,,,,,,,,,,,,,,,,,,,,,,,,,,,,,,,,"MET11305/12/20 10:51:02 METAR KRDU 121551Z VRB06KT 10SM FEW055 SCT170 BKN250 14/01 A3025 RMK AO2 SLP243 T01440011 (KAH)","FM-15","7",,,,,,,,,,,,,,,,,,,,,,,,,,,,"2009-07-08"
"72306013722","2020-05-12T11:51:00","FM-15","7",,,,,,,,,,,,,,,,,,,,,,,,,,,,,,,,,,,,,,"30.23","35","58","0.00",,,,"42","30.23","FEW:02 55 FEW:02 170 BKN:07 250","29.76","10.00","47","VRB",,"3",,,,,,,,,,,,,,,,,,,,,,,,,,,,,,,,,,,,,"MET11305/12/20 11:51:02 METAR KRDU 121651Z VRB03KT 10SM FEW055 FEW170 BKN250 14/02 A3023 RMK AO2 SLP236 T01440017 (KAH)","FM-15","7",,,,,,,,,,,,,,,,,,,,,,,,,,,,"2009-07-08"
"72306013722","2020-05-12T12:51:00","FM-15","7",,,,,,,,,,,,,,,,,,,,,,,,,,,,,,,,,,,,,,"30.21","34","59","0.00",,"+0.06","6","39","30.21","FEW:02 55 FEW:02 170 BKN:07 250","29.74","10.00","47","VRB",,"6",,,,,,,,,,,,,,,,,,,,,,,,,,,,,,,,,,,,,"MET13105/12/20 12:51:02 METAR KRDU 121751Z VRB05KT 10SM FEW055 FEW170 BKN250 15/01 A3021 RMK AO2 SLP231 T01500011 10161 20067 56019 (KAH)","FM-15","7",,,,,,,,,,,,,,,,,,,,,,,,,,,,"2009-07-08"
"72306013722","2020-05-12T13:00:00","FM-12","4",,,,,,,,,,,,,,,,,,,,,,,,,,,,,,,,,,,,,,,"34","59",,,"+0.06","6","39","30.21","57","29.75","9.94","47",,,"6",,,,,,,,,,,,,,,,,,,,,,,,,,,,,,,,,,,,,"SYN08072306 32766 6//05 10150 20011 30073 40231 56019 91751 333 10161 20067 555 91218=","FM-12","4",,,,,,,,,,,,,,,,,,,,,,,,,,,,"2009-07-08"
"72306013722","2020-05-12T13:51:00","FM-15","7",,,,,,,,,,,,,,,,,,,,,,,,,,,,,,,,,,,,,,"30.20","37","63","0.00",,,,"38","30.19","FEW:02 60 FEW:02 170 SCT:04 250","29.73","10.00","50","VRB","22","5",,,,,,,,,,,,,,,,,,,,,,,,,,,,,,,,,,,,,"MET11605/12/20 13:51:02 METAR KRDU 121851Z VRB04G19KT 10SM FEW060 FEW170 SCT250 17/03 A3020 RMK AO2 SLP225 T01720028 (KAH)","FM-15","7",,,,,,,,,,,,,,,,,,,,,,,,,,,,"2009-07-08"
"72306013722","2020-05-12T14:51:00","FM-15","7",,,,,,,,,,,,,,,,,,,,,,,,,,,,,,,,,,,,,,"30.19","37","65","0.00",,,,"36","30.18","FEW:02 60 FEW:02 170 SCT:04 250","29.72","10.00","51","240",,"10",,,,,,,,,,,,,,,,,,,,,,,,,,,,,,,,,,,,,"MET11305/12/20 14:51:02 METAR KRDU 121951Z 24009KT 10SM FEW060 FEW170 SCT250 18/03 A3019 RMK AO2 SLP221 T01830028 (JBA)","FM-15","7",,,,,,,,,,,,,,,,,,,,,,,,,,,,"2009-07-08"
"72306013722","2020-05-12T15:51:00","FM-15","7",,,,,,,,,,,,,,,,,,,,,,,,,,,,,,,,,,,,,,"30.17","36","64","0.00",,"+0.04","6","35","30.17","FEW:02 60 FEW:02 170 SCT:04 250","29.70","10.00","50","VRB","18","5",,,,,,,,,,,,,,,,,,,,,,,,,,,,,,,,,,,,,"MET12205/12/20 15:51:02 METAR KRDU 122051Z VRB04G16KT 10SM FEW060 FEW170 SCT250 18/02 A3017 RMK AO2 SLP216 T01780022 56014 (JBA)","FM-15","7",,,,,,,,,,,,,,,,,,,,,,,,,,,,"2009-07-08"
"72306013722","2020-05-12T16:51:00","FM-15","7",,,,,,,,,,,,,,,,,,,,,,,,,,,,,,,,,,,,,,"30.19","35","64","0.00",,,,"34","30.19","FEW:02 60 BKN:07 250","29.72","10.00","50","270","17","9",,,,,,,,,,,,,,,,,,,,,,,,,,,,,,,,,,,,,"MET10905/12/20 16:51:02 METAR KRDU 122151Z 27008G15KT 10SM FEW060 BKN250 18/02 A3019 RMK AO2 SLP222 T01780017 (JBA)","FM-15","7",,,,,,,,,,,,,,,,,,,,,,,,,,,,"2009-07-08"
"72306013722","2020-05-12T17:51:00","FM-15","7",,,,,,,,,,,,,,,,,,,,,,,,,,,,,,,,,,,,,,"30.19","37","63","0.00",,,,"38","30.19","FEW:02 60 SCT:04 250","29.72","10.00","50","250",,"10",,,,,,,,,,,,,,,,,,,,,,,,,,,,,,,,,,,,,"MET10605/12/20 17:51:02 METAR KRDU 122251Z 25009KT 10SM FEW060 SCT250 17/03 A3019 RMK AO2 SLP223 T01720028 (JBA)","FM-15","7",,,,,,,,,,,,,,,,,,,,,,,,,,,,"2009-07-08"
"72306013722","2020-05-12T18:51:00","FM-15","7",,,,,,,,,,,,,,,,,,,,,,,,,,,,,,,,,,,,,,"30.21","37","58","0.00",,"-0.04","2","46","30.21","FEW:02 60 SCT:04 250","29.74","10.00","48","250",,"6",,,,,,,,,,,,,,,,,,,,,,,,,,,,,,,,,,,,,"MET12405/12/20 18:51:02 METAR KRDU 122351Z 25005KT 10SM FEW060 SCT250 14/03 A3021 RMK AO2 SLP229 T01440028 10183 20144 52013 (JBA)","FM-15","7",,,,,,,,,,,,,,,,,,,,,,,,,,,,"2009-07-08"
"72306013722","2020-05-12T19:00:00","FM-12","4",,,,,,,,,,,,,,,,,,,,,,,,,,,,,,,,,,,,,,,"37","58",,,"-0.04","2","46","30.21","57","29.75","9.94","48","250",,"6",,,,,,,,,,,,,,,,,,,,,,,,,,,,,,,,,,,,,"SYN08072306 32766 42505 10144 20028 30073 40229 52013 92351 333 10183 20033 555 91300=","FM-12","4",,,,,,,,,,,,,,,,,,,,,,,,,,,,"2009-07-08"
"72306013722","2020-05-12T19:51:00","FM-15","7",,,,,,,,,,,,,,,,,,,,,,,,,,,,,,,,,,,,,,"30.22","37","53","0.00",,,,"55","30.22","FEW:02 250","29.75","10.00","46","000",,"0",,,,,,,,,,,,,,,,,,,,,,,,,,,,,,,,,,,,,"MET09305/12/20 19:51:01 METAR KRDU 130051Z 00000KT 10SM FEW250 12/03 A3022 RMK AO2 SLP232 T01170028","FM-15","7",,,,,,,,,,,,,,,,,,,,,,,,,,,,"2009-07-08"
"72306013722","2020-05-12T20:51:00","FM-15","7",,,,,,,,,,,,,,,,,,,,,,,,,,,,,,,,,,,,,,"30.23","39","49","0.00",,,,"69","30.22","FEW:02 250","29.76","10.00","44","000",,"0",,,,,,,,,,,,,,,,,,,,,,,,,,,,,,,,,,,,,"MET09305/12/20 20:51:01 METAR KRDU 130151Z 00000KT 10SM FEW250 09/04 A3023 RMK AO2 SLP235 T00940039","FM-15","7",,,,,,,,,,,,,,,,,,,,,,,,,,,,"2009-07-08"
"72306013722","2020-05-12T21:51:00","FM-15","7",,,,,,,,,,,,,,,,,,,,,,,,,,,,,,,,,,,,,,"30.24","40","50","0.00",,"-0.03","3","68","30.23","CLR:00","29.77","10.00","45","000",,"0",,,,,,,,,,,,,,,,,,,,,,,,,,,,,,,,,,,,,"MET09605/12/20 21:51:01 METAR KRDU 130251Z 00000KT 10SM CLR 10/04 A3024 RMK AO2 SLP238 T01000044 53009","FM-15","7",,,,,,,,,,,,,,,,,,,,,,,,,,,,"2009-07-08"
"72306013722","2020-05-12T22:51:00","FM-15","7",,,,,,,,,,,,,,,,,,,,,,,,,,,,,,,,,,,,,,"30.24","40","48","0.00",,,,"74","30.24","BKN:07 250","29.77","10.00","44","000",,"0",,,,,,,,,,,,,,,,,,,,,,,,,,,,,,,,,,,,,"MET09305/12/20 22:51:02 METAR KRDU 130351Z 00000KT 10SM BKN250 09/04 A3024 RMK AO2 SLP241 T00890044","FM-15","7",,,,,,,,,,,,,,,,,,,,,,,,,,,,"2009-07-08"
"72306013722","2020-05-12T23:51:00","FM-15","7",,,,,,,,,,,,,,,,,,,,,,,,,,,,,,,,,,,,,,"30.25","40","46","0.00",,,,"79","30.24","BKN:07 250","29.78","10.00","43","000",,"0",,,,,,,,,,,,,,,,,,,,,,,,,,,,,,,,,,,,,"MET10305/12/20 23:51:02 METAR KRDU 130451Z 00000KT 10SM BKN250 08/04 A3025 RMK AO2 SLP242 T00780044 401830033","FM-15","7",,,,,,,,,,,,,,,,,,,,,,,,,,,,"2009-07-08"
"72306013722","2020-05-12T23:59:00","SOD  ","6",,,,,,,,,,,,,,,"35","52","54","30.22","29.74","44","3.7","0","-14.9","13","65","38","230","22","0.00","0","0.0","240","16",,,,,,,,,,,,,,,,,,,,,,,,,,,,,,,,,,,,,,,,,,,,,,,,,,,,,,,,,"SOD73924 HR PRECIPITATION (IN): 0.00 SNOW DEPTH (IN):0     24 HR SNOWFALL (IN):0.0  24 HR MAX TEMP (F): 6524 HR MIN TEMP (F): 38AVERAGE STATION PRESSURE:29.740 MINIMUM SEA LEVEL PRESSURE:30.16 TIME OF OCCURRENCE:0152 PEAK WIND SPEED (MPH): 22 PEAK WIND DIR (DEG):230 PEAK WIND TIME (LST):      FASTEST 2MIN SPEED (MPH): 16FASTEST 2MIN DIR (DEG):240 FASTEST 2MIN TIME (LST):     AVERAGE WIND SPEED (MPH): 3.7 24 HR AVG TEMP (F): 52DEPART FROM NORMAL:-15  HEATING DEGREE DAYS: 13 COOLING DEGREE DAYS:  0 LATEST DAY MAX TEMP (0700-1900 LST):65  LATEST NIGHT MIN TEMP(1900-0800 LST):38 HOURLY INCREMENTAL PRECIPITATION VALUES (IN):.00 0.00 0.00 0.00 0.00 0.00 0.00 0.00 0.00 0.00 0.00 0.00 0.00 0.00 0.00 0.00 0.00 0.00 0.00 0.00 0.00 0.00 0.00 0.00","SOD  ","6",,,,,,,,,,,,,,,,,,,,,,,,,"0511","1912",,"2009-07-08"
"72306013722","2020-05-13T00:51:00","FM-15","7",,,,,,,,,,,,,,,,,,,,,,,,,,,,,,,,,,,,,,"30.25","40","45","0.00",,"-0.01","1","83","30.25","BKN:07 250","29.78","10.00","43","000",,"0",,,,,,,,,,,,,,,,,,,,,,,,,,,,,,,,,,,,,"MET11705/13/20 00:51:02 METAR KRDU 130551Z 00000KT 10SM BKN250 07/04 A3025 RMK AO2 SLP243 T00720044 10144 20056 51004 (AWB)","FM-15","7",,,,,,,,,,,,,,,,,,,,,,,,,,,,"2009-07-08"
"72306013722","2020-05-13T01:00:00","FM-12","4",,,,,,,,,,,,,,,,,,,,,,,,,,,,,,,,,,,,,,,"40","45",,,"-0.01","1","83","30.25",,"29.79","9.94","43","000",,"0",,,,,,,,,,,,,,,,,,,,,,,,,,,,,,,,,,,,,"SYN08072306 32966 60000 10072 20044 30087 40243 51004 90551 333 10144 20033 555 91306=","FM-12","4",,,,,,,,,,,,,,,,,,,,,,,,,,,,"2009-07-08"
"72306013722","2020-05-13T01:51:00","FM-15","7",,,,,,,,,,,,,,,,,,,,,,,,,,,,,,,,,,,,,,"30.24","41","46","0.00",,,,"83","30.24","BKN:07 250","29.77","10.00","44","000",,"0",,,,,,,,,,,,,,,,,,,,,,,,,,,,,,,,,,,,,"MET09905/13/20 01:51:02 METAR KRDU 130651Z 00000KT 10SM BKN250 08/05 A3024 RMK AO2 SLP241 T00780050 (AWB)","FM-15","7",,,,,,,,,,,,,,,,,,,,,,,,,,,,"2009-07-08"
"72306013722","2020-05-13T02:51:00","FM-15","7",,,,,,,,,,,,,,,,,,,,,,,,,,,,,,,,,,,,,,"30.27","42","46","0.00",,,,"86","30.27","BKN:07 170 BKN:07 230","29.80","10.00","44","000",,"0",,,,,,,,,,,,,,,,,,,,,,,,,,,,,,,,,,,,,"MET10605/13/20 02:51:02 METAR KRDU 130751Z 00000KT 10SM BKN170 BKN230 08/06 A3027 RMK AO2 SLP250 T00780056 (AWB)","FM-15","7",,,,,,,,,,,,,,,,,,,,,,,,,,,,"2009-07-08"
"72306013722","2020-05-13T03:51:00","FM-15","7",,,,,,,,,,,,,,,,,,,,,,,,,,,,,,,,,,,,,,"30.28","43","48","0.00",,"-0.03","3","83","30.28","BKN:07 130 OVC:08 250","29.81","10.00","46","000",,"0",,,,,,,,,,,,,,,,,,,,,,,,,,,,,,,,,,,,,"MET11205/13/20 03:51:02 METAR KRDU 130851Z 00000KT 10SM BKN130 OVC250 09/06 A3028 RMK AO2 SLP253 T00890061 53011 (AWB)","FM-15","7",,,,,,,,,,,,,,,,,,,,,,,,,,,,"2009-07-08"
"72306013722","2020-05-13T04:51:00","FM-15","7",,,,,,,,,,,,,,,,,,,,,,,,,,,,,,,,,,,,,,"30.31","43","50","0.00",,,,"77","30.30","FEW:02 110 BKN:07 140 OVC:08 250","29.84","10.00","47","360",,"3",,,,,,,,,,,,,,,,,,,,,,,,,,,,,,,,,,,,,"MET11305/13/20 04:51:02 METAR KRDU 130951Z 36003KT 10SM FEW110 BKN140 OVC250 10/06 A3031 RMK AO2 SLP262 T01000061 (AWB)","FM-15","7",,,,,,,,,,,,,,,,,,,,,,,,,,,,"2009-07-08"
"72306013722","2020-05-13T05:51:00","FM-15","7",,,,,,,,,,,,,,,,,,,,,,,,,,,,,,,,,,,,,,"30.33","44","49","0.00",,,,"83","30.32","FEW:02 70 BKN:07 100 OVC:08 250","29.85","10.00","47","000",,"0",,,,,,,,,,,,,,,,,,,,,,,,,,,,,,,,,,,,,"MET11305/13/20 05:51:02 METAR KRDU 131051Z 00000KT 10SM FEW070 BKN100 OVC250 09/07 A3033 RMK AO2 SLP268 T00940067 (AWB)","FM-15","7",,,,,,,,,,,,,,,,,,,,,,,,,,,,"2009-07-08"
"72306013722","2020-05-13T06:51:00","FM-15","7",,,,,,,,,,,,,,,,,,,,,,,,,,,,,,,,,,,,,,"30.35","42","52","0.00",,"-0.07","1","69","30.35","BKN:07 65 BKN:07 90 OVC:08 250","29.88","10.00","47","020",,"3",,,,,,,,,,,,,,,,,,,,,,,,,,,,,,,,,,,,,"MET12505/13/20 06:51:02 METAR KRDU 131151Z 02003KT 10SM BKN065 BKN090 OVC250 11/06 A3035 RMK AO2 SLP278 T01110056 10111 20061 51023","FM-15","7",,,,,,,,,,,,,,,,,,,,,,,,,,,,"2009-07-08"
"72306013722","2020-05-13T07:00:00","FM-12","4",,,,,,,,,,,,,,,,,,,,,,,,,,,,,,,,,,,,,,,"42","52",,,"-0.07","1","69","30.35","57","29.88","9.94","47","020",,"3",,,,,,,,,,,,,,,,,,,,,,,,,,,,,,,,,,,,,"SYN08072306 32766 80203 10111 20056 30120 40278 51023 91151 333 10183 20056 555 91312=","FM-12","4",,,,,,,,,,,,,,,,,,,,,,,,,,,,"2009-07-08"
"72306013722","2020-05-13T07:51:00","FM-15","7",,,,,,,,,,,,,,,,,,,,,,,,,,,,,,,,,,,,,,"30.37","42","54","T",,,,"64","30.36","BKN:07 70 BKN:07 90 OVC:08 250","29.90","10.00","48","VRB",,"3",,,,,,,,,,,,,,,,,,,,,,,,,,,,,,,,,,,,,"MET12805/13/20 07:51:02 METAR KRDU 131251Z VRB03KT 10SM BKN070 BKN090 OVC250 12/06 A3037 RMK AO2 RAB08E33 SLP282 P0000 T01220056 (KAH)","FM-15","7",,,,,,,,,,,,,,,,,,,,,,,,,,,,"2009-07-08"
"72306013722","2020-05-13T08:51:00","FM-15","7",,,,,,,,,,,,,,,,,,,,,,,,,,,,,,,,,,,,,,"30.38","43","56","T",,,,"62","30.38","FEW:02 60 BKN:07 75 OVC:08 90","29.91","10.00","50","140",,"5",,,,,,,,,,,,,,,,,,,,,,,,,,,,,,,,,,,,,"MET12805/13/20 08:51:02 METAR KRDU 131351Z 14004KT 10SM FEW060 BKN075 OVC090 13/06 A3038 RMK AO2 RAB06E51 SLP287 P0000 T01330061 (KAH)","FM-15","7",,,,,,,,,,,,,,,,,,,,,,,,,,,,"2009-07-08"
"72306013722","2020-05-13T09:51:00","FM-15","7",,,,,,,,,,,,,,,,,,,,,,,,,,,,,,,,,,,,,,"30.38","44","58","0.00",,"-0.02","0","60","30.37","BKN:07 60 BKN:07 75 OVC:08 90","29.91","10.00","51","000",,"0",,,,,,,,,,,,,,,,,,,,,,,,,,,,,,,,,,,,,"MET12505/13/20 09:51:02 METAR KRDU 131451Z 00000KT 10SM BKN060 BKN075 OVC090 14/07 A3038 RMK AO2 SLP286 60000 T01440067 50008 (KAH)","FM-15","7",,,,,,,,,,,,,,,,,,,,,,,,,,,,"2009-07-08"
"72306013722","2020-05-13T10:51:00","FM-15","7",,,,,,,,,,,,,,,,,,,,,,,,,,,,,,,,,,,,,,"30.38","44","59","0.00",,,,"58","30.37","BKN:07 50 OVC:08 70","29.91","10.00","51","000",,"0",,,,,,,,,,,,,,,,,,,,,,,,,,,,,,,,,,,,,"MET10805/13/20 10:51:02 METAR KRDU 131551Z 00000KT 10SM BKN050 OVC070 15/07 A3038 RMK AO2 SLP286 T01500067 $ (KAH)","FM-15","7",,,,,,,,,,,,,,,,,,,,,,,,,,,,"2009-07-08"
"72306013722","2020-05-13T11:51:00","FM-15","7",,,,,,,,,,,,,,,,,,,,,,,,,,,,,,,,,,,,,,"30.37","45","59","0.00",,,,"60","30.36","BKN:07 48 OVC:08 60","29.90","10.00","52","000",,"0",,,,,,,,,,,,,,,,,,,,,,,,,,,,,,,,,,,,,"MET10805/13/20 11:51:02 METAR KRDU 131651Z 00000KT 10SM BKN048 OVC060 15/07 A3037 RMK AO2 SLP282 T01500072 $ (KAH)","FM-15","7",,,,,,,,,,,,,,,,,,,,,,,,,,,,"2009-07-08"
"72306013722","2020-05-13T12:51:00","FM-15","7",,,,,,,,,,,,,,,,,,,,,,,,,,,,,,,,,,,,,,"30.35","45","61","0.00",,"+0.03","8","56","30.35","FEW:02 48 BKN:07 55 OVC:08 70","29.88","10.00","53","000",,"0",,,,,,,,,,,,,,,,,,,,,,,,,,,,,,,,,,,,,"MET13705/13/20 12:51:02 METAR KRDU 131751Z 00000KT 10SM FEW048 BKN055 OVC070 16/07 A3035 RMK AO2 SLP277 60000 T01610072 10161 20111 58009 (KAH)","FM-15","7",,,,,,,,,,,,,,,,,,,,,,,,,,,,"2009-07-08"
"72306013722","2020-05-13T13:00:00","FM-12","4",,,,,,,,,,,,,,,,,,,,,,,,,,,,,,,,,,,,,,,"45","61",,,"+0.03","8","56","30.35","41","29.88","9.94","53","000",,"0",,,,,,,,,,,,,,,,,,,,,,,,,,,,,,,,,,,,,"SYN08672306 12666 80000 10161 20072 30120 40277 58009 69901 91751 333 10161 20111 555 91318=","FM-12","4",,,,,,,,,,,,,,,,,,,,,,,,,,,,"2009-07-08"
"72306013722","2020-05-13T13:51:00","FM-15","7",,,,,,,,,,,,,,,,,,,,,,,,,,,,,,,,,,,,,,"30.33","45","64","0.00",,,,"50","30.33","BKN:07 55 BKN:07 75 BKN:07 100","29.85","10.00","54","000",,"0",,,,,,,,,,,,,,,,,,,,,,,,,,,,,,,,,,,,,"MET11505/13/20 13:51:02 METAR KRDU 131851Z 00000KT 10SM BKN055 BKN075 BKN100 18/07 A3033 RMK AO2 SLP271 T01780072 $ (KAH)","FM-15","7",,,,,,,,,,,,,,,,,,,,,,,,,,,,"2009-07-08"
"72306013722","2020-05-13T14:51:00","FM-15","7",,,,,,,,,,,,,,,,,,,,,,,,,,,,,,,,,,,,,,"30.31","47","66","0.00",,,,"50","30.30","SCT:04 55 BKN:07 100 BKN:07 140","29.84","10.00","56","300",,"5",,,,,,,,,,,,,,,,,,,,,,,,,,,,,,,,,,,,,"MET11505/13/20 14:51:02 METAR KRDU 131951Z 30004KT 10SM SCT055 BKN100 BKN140 19/08 A3031 RMK AO2 SLP261 T01890083 $ (JBA)","FM-15","7",,,,,,,,,,,,,,,,,,,,,,,,,,,,"2009-07-08"
"72306013722","2020-05-13T15:51:00","FM-15","7",,,,,,,,,,,,,,,,,,,,,,,,,,,,,,,,,,,,,,"30.29","48","69","0.00",,"+0.06","6","47","30.29","FEW:02 45 BKN:07 65 BKN:07 140","29.82","10.00","57","240",,"7",,,,,,,,,,,,,,,,,,,,,,,,,,,,,,,,,,,,,"MET12105/13/20 15:51:02 METAR KRDU 132051Z 24006KT 10SM FEW045 BKN065 BKN140 21/09 A3029 RMK AO2 SLP256 T02060089 56019 $ (JBA)","FM-15","7",,,,,,,,,,,,,,,,,,,,,,,,,,,,"2009-07-08"
"72306013722","2020-05-13T16:51:00","FM-15","7",,,,,,,,,,,,,,,,,,,,,,,,,,,,,,,,,,,,,,"30.29","48","67","0.00",,,,"51","30.29","FEW:02 45 SCT:04 95 BKN:07 140","29.82","10.00","57","240",,"8",,,,,,,,,,,,,,,,,,,,,,,,,,,,,,,,,,,,,"MET11505/13/20 16:51:02 METAR KRDU 132151Z 24007KT 10SM FEW045 SCT095 BKN140 19/09 A3029 RMK AO2 SLP256 T01940089 $ (JBA)","FM-15","7",,,,,,,,,,,,,,,,,,,,,,,,,,,,"2009-07-08"
"72306013722","2020-05-13T17:51:00","FM-15","7",,,,,,,,,,,,,,,,,,,,,,,,,,,,,,,,,,,,,,"30.29","48","66","0.00",,,,"52","30.29","BKN:07 90 BKN:07 140","29.82","10.00","56","260",,"5",,,,,,,,,,,,,,,,,,,,,,,,,,,,,,,,,,,,,"MET10805/13/20 17:51:02 METAR KRDU 132251Z 26004KT 10SM BKN090 BKN140 19/09 A3029 RMK AO2 SLP256 T01890089 $ (JBA)","FM-15","7",,,,,,,,,,,,,,,,,,,,,,,,,,,,"2009-07-08"
"72306013722","2020-05-13T18:51:00","FM-15","7",,,,,,,,,,,,,,,,,,,,,,,,,,,,,,,,,,,,,,"30.30","48","64","0.00",,"-0.01","3","56","30.30","BKN:07 100 BKN:07 140","29.83","10.00","55","000",,"0",,,,,,,,,,,,,,,,,,,,,,,,,,,,,,,,,,,,,"MET12605/13/20 18:51:02 METAR KRDU 132351Z 00000KT 10SM BKN100 BKN140 18/09 A3030 RMK AO2 SLP260 T01780089 10211 20156 53003 $ (JBA)","FM-15","7",,,,,,,,,,,,,,,,,,,,,,,,,,,,"2009-07-08"
"72306013722","2020-05-13T19:00:00","FM-12","4",,,,,,,,,,,,,,,,,,,,,,,,,,,,,,,,,,,,,,,"48","64",,,"-0.01","3","56","30.30",,"29.83","9.94","55","000",,"0",,,,,,,,,,,,,,,,,,,,,,,,,,,,,,,,,,,,,"SYN08072306 32966 60000 10178 20089 30103 40260 53003 92351 333 10211 20061 555 91400=","FM-12","4",,,,,,,,,,,,,,,,,,,,,,,,,,,,"2009-07-08"
"72306013722","2020-05-13T19:51:00","FM-15","7",,,,,,,,,,,,,,,,,,,,,,,,,,,,,,,,,,,,,,"30.31","50","61","0.00",,,,"67","30.30","BKN:07 85 OVC:08 250","29.84","10.00","55","000",,"0",,,,,,,,,,,,,,,,,,,,,,,,,,,,,,,,,,,,,"MET10205/13/20 19:51:01 METAR KRDU 140051Z 00000KT 10SM BKN085 OVC250 16/10 A3031 RMK AO2 SLP261 T01610100 $","FM-15","7",,,,,,,,,,,,,,,,,,,,,,,,,,,,"2009-07-08"
"72306013722","2020-05-13T20:51:00","FM-15","7",,,,,,,,,,,,,,,,,,,,,,,,,,,,,,,,,,,,,,"30.31","51","60","0.00",,,,"72","30.31","BKN:07 85 OVC:08 250","29.84","10.00","55","000",,"0",,,,,,,,,,,,,,,,,,,,,,,,,,,,,,,,,,,,,"MET10205/13/20 20:51:01 METAR KRDU 140151Z 00000KT 10SM BKN085 OVC250 16/11 A3031 RMK AO2 SLP263 T01560106 $","FM-15","7",,,,,,,,,,,,,,,,,,,,,,,,,,,,"2009-07-08"
"72306013722","2020-05-13T21:51:00","FM-15","7",,,,,,,,,,,,,,,,,,,,,,,,,,,,,,,,,,,,,,"30.32","52","59","0.00",,"-0.02","3","78","30.32","OVC:08 80","29.85","10.00","55","000",,"0",,,,,,,,,,,,,,,,,,,,,,,,,,,,,,,,,,,,,"MET10105/13/20 21:51:01 METAR KRDU 140251Z 00000KT 10SM OVC080 15/11 A3032 RMK AO2 SLP266 T01500111 53006 $","FM-15","7",,,,,,,,,,,,,,,,,,,,,,,,,,,,"2009-07-08"
"72306013722","2020-05-13T22:51:00","FM-15","7",,,,,,,,,,,,,,,,,,,,,,,,,,,,,,,,,,,,,,"30.31","51","60","0.00",,,,"72","30.31","BKN:07 75 OVC:08 90","29.84","10.00","55","000",,"0",,,,,,,,,,,,,,,,,,,,,,,,,,,,,,,,,,,,,"MET10205/13/20 22:51:02 METAR KRDU 140351Z 00000KT 10SM BKN075 OVC090 16/11 A3031 RMK AO2 SLP263 T01560106 $","FM-15","7",,,,,,,,,,,,,,,,,,,,,,,,,,,,"2009-07-08"
"72306013722","2020-05-13T23:51:00","FM-15","7",,,,,,,,,,,,,,,,,,,,,,,,,,,,,,,,,,,,,,"30.31","52","59","0.00",,,,"78","30.31","BKN:07 75 OVC:08 90","29.84","10.00","55","000",,"0",,,,,,,,,,,,,,,,,,,,,,,,,,,,,,,,,,,,,"MET11205/13/20 23:51:02 METAR KRDU 140451Z 00000KT 10SM BKN075 OVC090 15/11 A3031 RMK AO2 SLP263 T01500111 402110056 $","FM-15","7",,,,,,,,,,,,,,,,,,,,,,,,,,,,"2009-07-08"
"72306013722","2020-05-13T23:59:00","SOD  ","6",,,,,,,,,,,,,,,"46","56","66","30.31","29.83","51","1.6","0","-11.1","9","70","42","230","15","T","0","0.0","240","10",,,,,,,,,,,,,,,,,,,,,,,,,,,,,,,,,,,,,,,,,,,,,,,,,,,,,,,,,"SOD71324 HR PRECIPITATION (IN):    T SNOW DEPTH (IN):0    24 HR MAX TEMP (F): 7024 HR MIN TEMP (F): 42AVERAGE STATION PRESSURE:29.835 MINIMUM SEA LEVEL PRESSURE:30.24 TIME OF OCCURRENCE:0207 PEAK WIND SPEED (MPH): 15 PEAK WIND DIR (DEG):230 PEAK WIND TIME (LST):      FASTEST 2MIN SPEED (MPH): 10FASTEST 2MIN DIR (DEG):240 FASTEST 2MIN TIME (LST):     AVERAGE WIND SPEED (MPH): 1.6 24 HR AVG TEMP (F): 56DEPART FROM NORMAL:-11  HEATING DEGREE DAYS:  9 COOLING DEGREE DAYS:  0 LATEST DAY MAX TEMP (0700-1900 LST):70  LATEST NIGHT MIN TEMP(1900-0800 LST):42 HOURLY INCREMENTAL PRECIPITATION VALUES (IN):.00 0.00 0.00 0.00 0.00 0.00 0.00 T    T    0.00 0.00 0.00 0.00 0.00 0.00 0.00 0.00 0.00 0.00 0.00 0.00 0.00 0.00 0.00","SOD  ","6",,,,,,,,,,,,,,,,,,,,,,,,,"0511","1913",,"2009-07-08"
"72306013722","2020-05-14T00:51:00","FM-15","7",,,,,,,,,,,,,,,,,,,,,,,,,,,,,,,,,,,,,,"30.31","51","60","0.00",,"+0.01","6","72","30.30","FEW:02 60 BKN:07 80 BKN:07 110","29.84","10.00","55","140",,"6",,,,,,,,,,,,,,,,,,,,,,,,,,,,,,,,,,,,,"MET13305/14/20 00:51:02 METAR KRDU 140551Z 14005KT 10SM FEW060 BKN080 BKN110 16/11 A3031 RMK AO2 SLP261 T01560106 10178 20144 56005 $ (AWB)","FM-15","7",,,,,,,,,,,,,,,,,,,,,,,,,,,,"2009-07-08"
"72306013722","2020-05-14T01:00:00","FM-12","4",,,,,,,,,,,,,,,,,,,,,,,,,,,,,,,,,,,,,,,"51","60",,,"+0.01","6","72","30.30","57","29.85","9.94","55","140",,"6",,,,,,,,,,,,,,,,,,,,,,,,,,,,,,,,,,,,,"SYN08072306 32766 61405 10156 20106 30107 40261 56005 90551 333 10178 20061 555 91406=","FM-12","4",,,,,,,,,,,,,,,,,,,,,,,,,,,,"2009-07-08"
"72306013722","2020-05-14T01:51:00","FM-15","7",,,,,,,,,,,,,,,,,,,,,,,,,,,,,,,,,,,,,,"30.29","50","60","0.00",,,,"70","30.29","FEW:02 50 BKN:07 85 BKN:07 110","29.82","10.00","55","000",,"0",,,,,,,,,,,,,,,,,,,,,,,,,,,,,,,,,,,,,"MET11505/14/20 01:51:02 METAR KRDU 140651Z 00000KT 10SM FEW050 BKN085 BKN110 16/10 A3029 RMK AO2 SLP256 T01560100 $ (AWB)","FM-15","7",,,,,,,,,,,,,,,,,,,,,,,,,,,,"2009-07-08"
"72306013722","2020-05-14T02:51:00","FM-15","7",,,,,,,,,,,,,,,,,,,,,,,,,,,,,,,,,,,,,,"30.29","52","58","0.00",,,,"81","30.28","FEW:02 50 BKN:07 95 OVC:08 110","29.82","10.00","55","000",,"0",,,,,,,,,,,,,,,,,,,,,,,,,,,,,,,,,,,,,"MET11505/14/20 02:51:02 METAR KRDU 140751Z 00000KT 10SM FEW050 BKN095 OVC110 14/11 A3029 RMK AO2 SLP254 T01440111 $ (AWB)","FM-15","7",,,,,,,,,,,,,,,,,,,,,,,,,,,,"2009-07-08"
"72306013722","2020-05-14T03:51:00","FM-15","7",,,,,,,,,,,,,,,,,,,,,,,,,,,,,,,,,,,,,,"30.29","51","59","0.00",,"+0.02","6","75","30.28","FEW:02 90 BKN:07 110","29.82","10.00","55","190",,"5",,,,,,,,,,,,,,,,,,,,,,,,,,,,,,,,,,,,,"MET11405/14/20 03:51:02 METAR KRDU 140851Z 19004KT 10SM FEW090 BKN110 15/11 A3029 RMK AO2 SLP253 T01500106 56006 $ (AWB)","FM-15","7",,,,,,,,,,,,,,,,,,,,,,,,,,,,"2009-07-08"
"72306013722","2020-05-14T04:51:00","FM-15","7",,,,,,,,,,,,,,,,,,,,,,,,,,,,,,,,,,,,,,"30.29","52","59","0.00",,,,"78","30.28","FEW:02 90 BKN:07 110","29.82","10.00","55","240",,"5",,,,,,,,,,,,,,,,,,,,,,,,,,,,,,,,,,,,,"MET10805/14/20 04:51:02 METAR KRDU 140951Z 24004KT 10SM FEW090 BKN110 15/11 A3029 RMK AO2 SLP255 T01500111 $ (AWB)","FM-15","7",,,,,,,,,,,,,,,,,,,,,,,,,,,,"2009-07-08"
"72306013722","2020-05-14T05:51:00","FM-15","7",,,,,,,,,,,,,,,,,,,,,,,,,,,,,,,,,,,,,,"30.32","52","59","0.00",,,,"78","30.31","SCT:04 70 BKN:07 110","29.85","10.00","55","220",,"7",,,,,,,,,,,,,,,,,,,,,,,,,,,,,,,,,,,,,"MET10805/14/20 05:51:02 METAR KRDU 141051Z 22006KT 10SM SCT070 BKN110 15/11 A3032 RMK AO2 SLP265 T01500111 $ (AWB)","FM-15","7",,,,,,,,,,,,,,,,,,,,,,,,,,,,"2009-07-08"
"72306013722","2020-05-14T06:51:00","FM-15","7",,,,,,,,,,,,,,,,,,,,,,,,,,,,,,,,,,,,,,"30.33","53","61","0.00",,"-0.05","3","75","30.32","BKN:07 70 BKN:07 110","29.85","10.00","57","230",,"6",,,,,,,,,,,,,,,,,,,,,,,,,,,,,,,,,,,,,"MET12605/14/20 06:51:02 METAR KRDU 141151Z 23005KT 10SM BKN070 BKN110 16/12 A3033 RMK AO2 SLP269 T01610117 10161 20144 53016 $ (KAH)","FM-15","7",,,,,,,,,,,,,,,,,,,,,,,,,,,,"2009-07-08"
"72306013722","2020-05-14T07:00:00","FM-12","4",,,,,,,,,,,,,,,,,,,,,,,,,,,,,,,,,,,,,,,"53","61",,,"-0.05","3","75","30.32","74","29.87","9.94","57","230",,"6",,,,,,,,,,,,,,,,,,,,,,,,,,,,,,,,,,,,,"SYN08072306 32866 62305 10161 20117 30114 40269 53016 91151 333 10211 20144 555 91412=","FM-12","4",,,,,,,,,,,,,,,,,,,,,,,,,,,,"2009-07-08"
"72306013722","2020-05-14T07:51:00","FM-15","7",,,,,,,,,,,,,,,,,,,,,,,,,,,,,,,,,,,,,,"30.34","54","64","0.00",,,,"70","30.33","SCT:04 70 SCT:04 90 BKN:07 120","29.87","10.00","58","230",,"8",,,,,,,,,,,,,,,,,,,,,,,,,,,,,,,,,,,,,"MET11305/14/20 07:51:02 METAR KRDU 141251Z 23007KT 10SM SCT070 SCT090 BKN120 18/12 A3034 RMK AO2 SLP270 T01780122 (KAH)","FM-15","7",,,,,,,,,,,,,,,,,,,,,,,,,,,,"2009-07-08"
"72306013722","2020-05-14T08:51:00","FM-15","7",,,,,,,,,,,,,,,,,,,,,,,,,,,,,,,,,,,,,,"30.35","54","67","0.00",,,,"63","30.34","SCT:04 75 SCT:04 90 BKN:07 120","29.88","10.00","60","250",,"8",,,,,,,,,,,,,,,,,,,,,,,,,,,,,,,,,,,,,"MET11305/14/20 08:51:02 METAR KRDU 141351Z 25007KT 10SM SCT075 SCT090 BKN120 19/12 A3035 RMK AO2 SLP273 T01940122 (KAH)","FM-15","7",,,,,,,,,,,,,,,,,,,,,,,,,,,,"2009-07-08"
"72306013722","2020-05-14T09:51:00","FM-15","7",,,,,,,,,,,,,,,,,,,,,,,,,,,,,,,,,,,,,,"30.33","53","71","0.00",,"+0.01","8","53","30.32","FEW:02 75 SCT:04 90 BKN:07 110","29.85","10.00","61","230",,"13",,,,,,,,,,,,,,,,,,,,,,,,,,,,,,,,,,,,,"MET11905/14/20 09:51:02 METAR KRDU 141451Z 23011KT 10SM FEW075 SCT090 BKN110 22/12 A3033 RMK AO2 SLP267 T02170117 58002 (KAH)","FM-15","7",,,,,,,,,,,,,,,,,,,,,,,,,,,,"2009-07-08"
"72306013722","2020-05-14T10:51:00","FM-15","7",,,,,,,,,,,,,,,,,,,,,,,,,,,,,,,,,,,,,,"30.32","53","70","0.00",,,,"55","30.31","BKN:07 80 BKN:07 110 BKN:07 250","29.85","10.00","60","230",,"11",,,,,,,,,,,,,,,,,,,,,,,,,,,,,,,,,,,,,"MET11305/14/20 10:51:02 METAR KRDU 141551Z 23010KT 10SM BKN080 BKN110 BKN250 21/12 A3032 RMK AO2 SLP263 T02110117 (KAH)","FM-15","7",,,,,,,,,,,,,,,,,,,,,,,,,,,,"2009-07-08"
"72306013722","2020-05-14T11:51:00","FM-15","7",,,,,,,,,,,,,,,,,,,,,,,,,,,,,,,,,,,,,,"30.31","54","68","T",,,,"61","30.30","FEW:02 35 BKN:07 75 OVC:08 110","29.84","10.00","60","250",,"8",,,,,,,,,,,,,,,,,,,,,,,,,,,,,,,,,,,,,"MET12805/14/20 11:51:02 METAR KRDU 141651Z 25007KT 10SM FEW035 BKN075 OVC110 20/12 A3031 RMK AO2 RAB27E48 SLP260 P0000 T02000122 (KAH)","FM-15","7",,,,,,,,,,,,,,,,,,,,,,,,,,,,"2009-07-08"
"72306013722","2020-05-14T12:51:00","FM-15","7",,,,,,,,,,,,,,,,,,,,,,,,,,,,,,,,,,,,,,"30.28","57","71","0.00",,"+0.04","8","61","30.27","FEW:02 40 BKN:07 75 BKN:07 110","29.81","10.00","63","180",,"8",,,,,,,,,,,,,,,,,,,,,,,,,,,,,,,,,,,,,"MET13705/14/20 12:51:02 METAR KRDU 141751Z 18007KT 10SM FEW040 BKN075 BKN110 22/14 A3028 RMK AO2 SLP251 60000 T02170139 10228 20161 58015 (KAH)","FM-15","7",,,,,,,,,,,,,,,,,,,,,,,,,,,,"2009-07-08"
"72306013722","2020-05-14T13:00:00","FM-12","4",,,,,,,,,,,,,,,,,,,,,,,,,,,,,,,,,,,,,,,"57","71",,,"+0.04","8","61","30.27","41","29.82","9.94","63","180",,"8",,,,,,,,,,,,,,,,,,,,,,,,,,,,,,,,,,,,,"SYN08672306 12666 61807 10217 20139 30097 40251 58015 69901 91751 333 10228 20156 555 91418=","FM-12","4",,,,,,,,,,,,,,,,,,,,,,,,,,,,"2009-07-08"
"72306013722","2020-05-14T13:51:00","FM-15","7",,,,,,,,,,,,,,,,,,,,,,,,,,,,,,,,,,,,,,"30.24","58","76","0.00",,,,"54","30.23","FEW:02 40 SCT:04 70 BKN:07 110","29.77","10.00","65","VRB",,"7",,,,,,,,,,,,,,,,,,,,,,,,,,,,,,,,,,,,,"MET11305/14/20 13:51:02 METAR KRDU 141851Z VRB06KT 10SM FEW040 SCT070 BKN110 24/14 A3024 RMK AO2 SLP238 T02440144 (KAH)","FM-15","7",,,,,,,,,,,,,,,,,,,,,,,,,,,,"2009-07-08"
"72306013722","2020-05-14T14:51:00","FM-15","7",,,,,,,,,,,,,,,,,,,,,,,,,,,,,,,,,,,,,,"30.22","59","79","0.00",,,,"50","30.21","FEW:02 49 SCT:04 75 BKN:07 110","29.75","10.00","67","230",,"9",,,,,,,,,,,,,,,,,,,,,,,,,,,,,,,,,,,,,"MET11305/14/20 14:51:02 METAR KRDU 141951Z 23008KT 10SM FEW049 SCT075 BKN110 26/15 A3022 RMK AO2 SLP229 T02610150 (JBA)","FM-15","7",,,,,,,,,,,,,,,,,,,,,,,,,,,,"2009-07-08"
"72306013722","2020-05-14T15:51:00","FM-15","7",,,,,,,,,,,,,,,,,,,,,,,,,,,,,,,,,,,,,,"30.20","57","77","0.00",,"+0.08","6","50","30.19","SCT:04 55 BKN:07 75 BKN:07 110","29.73","10.00","65","230",,"13",,,,,,,,,,,,,,,,,,,,,,,,,,,,,,,,,,,,,"MET11905/14/20 15:51:02 METAR KRDU 142051Z 23011KT 10SM SCT055 BKN075 BKN110 25/14 A3020 RMK AO2 SLP223 T02500139 56027 (JBA)","FM-15","7",,,,,,,,,,,,,,,,,,,,,,,,,,,,"2009-07-08"
"72306013722","2020-05-14T16:51:00","FM-15","7",,,,,,,,,,,,,,,,,,,,,,,,,,,,,,,,,,,,,,"30.18","58","80","0.00",,,,"47","30.17","SCT:04 55 BKN:07 250","29.71","10.00","66","210",,"13",,,,,,,,,,,,,,,,,,,,,,,,,,,,,,,,,,,,,"MET10605/14/20 16:51:02 METAR KRDU 142151Z 21011KT 10SM SCT055 BKN250 27/14 A3018 RMK AO2 SLP216 T02670144 (JBA)","FM-15","7",,,,,,,,,,,,,,,,,,,,,,,,,,,,"2009-07-08"
"72306013722","2020-05-14T17:51:00","FM-15","7",,,,,,,,,,,,,,,,,,,,,,,,,,,,,,,,,,,,,,"30.17","57","78","0.00",,,,"48","30.15","FEW:02 55 SCT:04 250","29.70","10.00","65","230",,"10",,,,,,,,,,,,,,,,,,,,,,,,,,,,,,,,,,,,,"MET10605/14/20 17:51:02 METAR KRDU 142251Z 23009KT 10SM FEW055 SCT250 26/14 A3017 RMK AO2 SLP211 T02560139 (JBA)","FM-15","7",,,,,,,,,,,,,,,,,,,,,,,,,,,,"2009-07-08"
"72306013722","2020-05-14T18:51:00","FM-15","7",,,,,,,,,,,,,,,,,,,,,,,,,,,,,,,,,,,,,,"30.17","57","75","0.00",,"+0.03","5","54","30.16","FEW:02 55 SCT:04 250","29.70","10.00","64","200",,"8",,,,,,,,,,,,,,,,,,,,,,,,,,,,,,,,,,,,,"MET12405/14/20 18:51:02 METAR KRDU 142351Z 20007KT 10SM FEW055 SCT250 24/14 A3017 RMK AO2 SLP212 T02390139 10272 20217 55011 (JBA)","FM-15","7",,,,,,,,,,,,,,,,,,,,,,,,,,,,"2009-07-08"
"72306013722","2020-05-14T19:00:00","FM-12","4",,,,,,,,,,,,,,,,,,,,,,,,,,,,,,,,,,,,,,,"57","75",,,"+0.03","5","54","30.16","57","29.71","9.94","64","200",,"8",,,,,,,,,,,,,,,,,,,,,,,,,,,,,,,,,,,,,"SYN08072306 32766 42007 10239 20139 30060 40212 55011 92351 333 10272 20144 555 91500=","FM-12","4",,,,,,,,,,,,,,,,,,,,,,,,,,,,"2009-07-08"
"72306013722","2020-05-14T19:51:00","FM-15","7",,,,,,,,,,,,,,,,,,,,,,,,,,,,,,,,,,,,,,"30.18","57","73","0.00",,,,"57","30.17","SCT:04 60 SCT:04 250","29.71","10.00","63","190",,"6",,,,,,,,,,,,,,,,,,,,,,,,,,,,,,,,,,,,,"MET10005/14/20 19:51:01 METAR KRDU 150051Z 19005KT 10SM SCT060 SCT250 23/14 A3018 RMK AO2 SLP217 T02280139","FM-15","7",,,,,,,,,,,,,,,,,,,,,,,,,,,,"2009-07-08"
"72306013722","2020-05-14T20:51:00","FM-15","7",,,,,,,,,,,,,,,,,,,,,,,,,,,,,,,,,,,,,,"30.20","57","70","0.00",,,,"64","30.19","FEW:02 60 FEW:02 250","29.73","10.00","62","200",,"6",,,,,,,,,,,,,,,,,,,,,,,,,,,,,,,,,,,,,"MET10005/14/20 20:51:01 METAR KRDU 150151Z 20005KT 10SM FEW060 FEW250 21/14 A3020 RMK AO2 SLP222 T02110139","FM-15","7",,,,,,,,,,,,,,,,,,,,,,,,,,,,"2009-07-08"
"72306013722","2020-05-14T21:51:00","FM-15","7",,,,,,,,,,,,,,,,,,,,,,,,,,,,,,,,,,,,,,"30.22","57","70","0.00",,"-0.05","3","64","30.21","FEW:02 60 FEW:02 250","29.75","10.00","62","200",,"13",,,,,,,,,,,,,,,,,,,,,,,,,,,,,,,,,,,,,"MET10605/14/20 21:51:01 METAR KRDU 150251Z 20011KT 10SM FEW060 FEW250 21/14 A3022 RMK AO2 SLP229 T02110139 53017","FM-15","7",,,,,,,,,,,,,,,,,,,,,,,,,,,,"2009-07-08"
"72306013722","2020-05-14T22:51:00","FM-15","7",,,,,,,,,,,,,,,,,,,,,,,,,,,,,,,,,,,,,,"30.22","56","68","0.00",,,,"65","30.21","FEW:02 50 FEW:02 120","29.75","10.00","61","210",,"13",,,,,,,,,,,,,,,,,,,,,,,,,,,,,,,,,,,,,"MET10005/14/20 22:51:02 METAR KRDU 150351Z 21011KT 10SM FEW050 FEW120 20/13 A3022 RMK AO2 SLP230 T02000133","FM-15","7",,,,,,,,,,,,,,,,,,,,,,,,,,,,"2009-07-08"
"72306013722","2020-05-14T23:51:00","FM-15","7",,,,,,,,,,,,,,,,,,,,,,,,,,,,,,,,,,,,,,"30.21","57","66","0.00",,,,"73","30.20","FEW:02 50 FEW:02 120 FEW:02 250","29.74","10.00","61","220",,"13",,,,,,,,,,,,,,,,,,,,,,,,,,,,,,,,,,,,,"MET11705/14/20 23:51:02 METAR KRDU 150451Z 22011KT 10SM FEW050 FEW120 FEW250 19/14 A3021 RMK AO2 SLP228 T01890139 402720144","FM-15","7",,,,,,,,,,,,,,,,,,,,,,,,,,,,"2009-07-08"
"72306013722","2020-05-14T23:59:00","SOD  ","6",,,,,,,,,,,,,,,"55","70","63","30.25","29.80","60","8.1","5","2.6","0","81","58","210","22","T","0","0.0","210","16",,,,,,,,,,,,,,,,,,,,,,,,,,,,,,,,,,,,,,,,,,,,,,,,,,,,,,,,,"SOD73924 HR PRECIPITATION (IN):    T SNOW DEPTH (IN):0     24 HR SNOWFALL (IN):0.0  24 HR MAX TEMP (F): 8124 HR MIN TEMP (F): 58AVERAGE STATION PRESSURE:29.795 MINIMUM SEA LEVEL PRESSURE:30.15 TIME OF OCCURRENCE:1849 PEAK WIND SPEED (MPH): 22 PEAK WIND DIR (DEG):210 PEAK WIND TIME (LST):      FASTEST 2MIN SPEED (MPH): 16FASTEST 2MIN DIR (DEG):210 FASTEST 2MIN TIME (LST):     AVERAGE WIND SPEED (MPH): 8.1 24 HR AVG TEMP (F): 70DEPART FROM NORMAL:  3  HEATING DEGREE DAYS:  0 COOLING DEGREE DAYS:  5 LATEST DAY MAX TEMP (0700-1900 LST):81  LATEST NIGHT MIN TEMP(1900-0800 LST):58 HOURLY INCREMENTAL PRECIPITATION VALUES (IN):.00 0.00 0.00 0.00 0.00 0.00 0.00 0.00 0.00 0.00 0.00 T    0.00 0.00 0.00 0.00 0.00 0.00 0.00 0.00 0.00 0.00 0.00 0.00","SOD  ","6",,,,,,,,,,,,,,,,,,,,,,,,,"0510","1914",,"2009-07-08"
"72306013722","2020-05-15T00:51:00","FM-15","7",,,,,,,,,,,,,,,,,,,,,,,,,,,,,,,,,,,,,,"30.20","57","65","0.00",,"+0.02","8","76","30.19","FEW:02 50 FEW:02 120 FEW:02 250","29.73","10.00","60","210",,"11",,,,,,,,,,,,,,,,,,,,,,,,,,,,,,,,,,,,,"MET13105/15/20 00:51:02 METAR KRDU 150551Z 21010KT 10SM FEW050 FEW120 FEW250 18/14 A3020 RMK AO2 SLP223 T01830139 10239 20183 58006 (AWB)","FM-15","7",,,,,,,,,,,,,,,,,,,,,,,,,,,,"2009-07-08"
"72306013722","2020-05-15T01:00:00","FM-12","4",,,,,,,,,,,,,,,,,,,,,,,,,,,,,,,,,,,,,,,"57","65",,,"+0.02","8","76","30.19","57","29.74","9.94","60","210",,"11",,,,,,,,,,,,,,,,,,,,,,,,,,,,,,,,,,,,,"SYN08072306 32766 22110 10183 20139 30070 40223 58006 90551 333 10239 20144 555 91506=","FM-12","4",,,,,,,,,,,,,,,,,,,,,,,,,,,,"2009-07-08"
"72306013722","2020-05-15T01:51:00","FM-15","7",,,,,,,,,,,,,,,,,,,,,,,,,,,,,,,,,,,,,,"30.18","57","63","0.00",,,,"81","30.17","FEW:02 50 FEW:02 120 FEW:02 250","29.71","10.00","60","210",,"9",,,,,,,,,,,,,,,,,,,,,,,,,,,,,,,,,,,,,"MET11305/15/20 01:51:02 METAR KRDU 150651Z 21008KT 10SM FEW050 FEW120 FEW250 17/14 A3018 RMK AO2 SLP216 T01720139 (AWB)","FM-15","7",,,,,,,,,,,,,,,,,,,,,,,,,,,,"2009-07-08"
"72306013722","2020-05-15T02:51:00","FM-15","7",,,,,,,,,,,,,,,,,,,,,,,,,,,,,,,,,,,,,,"30.17","57","61","0.00",,,,"87","30.16","SCT:04 250","29.70","10.00","59","230",,"8",,,,,,,,,,,,,,,,,,,,,,,,,,,,,,,,,,,,,"MET09905/15/20 02:51:02 METAR KRDU 150751Z 23007KT 10SM SCT250 16/14 A3017 RMK AO2 SLP212 T01610139 (AWB)","FM-15","7",,,,,,,,,,,,,,,,,,,,,,,,,,,,"2009-07-08"
"72306013722","2020-05-15T03:51:00","FM-15","7",,,,,,,,,,,,,,,,,,,,,,,,,,,,,,,,,,,,,,"30.16","58","62","0.00",,"+0.04","6","86","30.15","BKN:07 250","29.69","10.00","60","220",,"9",,,,,,,,,,,,,,,,,,,,,,,,,,,,,,,,,,,,,"MET10505/15/20 03:51:02 METAR KRDU 150851Z 22008KT 10SM BKN250 17/14 A3016 RMK AO2 SLP210 T01670144 56013 (AWB)","FM-15","7",,,,,,,,,,,,,,,,,,,,,,,,,,,,"2009-07-08"
"72306013722","2020-05-15T04:51:00","FM-15","7",,,,,,,,,,,,,,,,,,,,,,,,,,,,,,,,,,,,,,"30.16","58","61","0.00",,,,"90","30.15","BKN:07 250","29.69","10.00","59","220",,"7",,,,,,,,,,,,,,,,,,,,,,,,,,,,,,,,,,,,,"MET09905/15/20 04:51:02 METAR KRDU 150951Z 22006KT 10SM BKN250 16/14 A3016 RMK AO2 SLP211 T01610144 (AWB)","FM-15","7",,,,,,,,,,,,,,,,,,,,,,,,,,,,"2009-07-08"
"72306013722","2020-05-15T05:51:00","FM-15","7",,,,,,,,,,,,,,,,,,,,,,,,,,,,,,,,,,,,,,"30.20","58","61","0.00",,,,"90","30.18","FEW:02 120 BKN:07 250","29.73","10.00","59","230",,"7",,,,,,,,,,,,,,,,,,,,,,,,,,,,,,,,,,,,,"MET10605/15/20 05:51:02 METAR KRDU 151051Z 23006KT 10SM FEW120 BKN250 16/14 A3020 RMK AO2 SLP221 T01610144 (AWB)","FM-15","7",,,,,,,,,,,,,,,,,,,,,,,,,,,,"2009-07-08"
"72306013722","2020-05-15T06:51:00","FM-15","7",,,,,,,,,,,,,,,,,,,,,,,,,,,,,,,,,,,,,,"30.23","59","64","0.00",,"-0.07","3","84","30.22","FEW:02 120 BKN:07 250","29.76","10.00","61","250",,"8",,,,,,,,,,,,,,,,,,,,,,,,,,,,,,,,,,,,,"MET12405/15/20 06:51:02 METAR KRDU 151151Z 25007KT 10SM FEW120 BKN250 18/15 A3023 RMK AO2 SLP233 T01780150 10183 20156 53023 (KAH)","FM-15","7",,,,,,,,,,,,,,,,,,,,,,,,,,,,"2009-07-08"
"72306013722","2020-05-15T07:00:00","FM-12","4",,,,,,,,,,,,,,,,,,,,,,,,,,,,,,,,,,,,,,,"59","64",,,"-0.07","3","84","30.22",,"29.77","9.94","61","250",,"8",,,,,,,,,,,,,,,,,,,,,,,,,,,,,,,,,,,,,"SYN08072306 32966 62507 10178 20150 30080 40233 53023 91151 333 10272 20156 555 91512=","FM-12","4",,,,,,,,,,,,,,,,,,,,,,,,,,,,"2009-07-08"
"72306013722","2020-05-15T07:51:00","FM-15","7",,,,,,,,,,,,,,,,,,,,,,,,,,,,,,,,,,,,,,"30.24","60","67","0.00",,,,"79","30.23","FEW:02 15 FEW:02 180 BKN:07 250","29.77","10.00","63","240",,"11",,,,,,,,,,,,,,,,,,,,,,,,,,,,,,,,,,,,,"MET11305/15/20 07:51:02 METAR KRDU 151251Z 24010KT 10SM FEW015 FEW180 BKN250 19/16 A3024 RMK AO2 SLP236 T01940156 (KAH)","FM-15","7",,,,,,,,,,,,,,,,,,,,,,,,,,,,"2009-07-08"
"72306013722","2020-05-15T08:51:00","FM-15","7",,,,,,,,,,,,,,,,,,,,,,,,,,,,,,,,,,,,,,"30.23","60","71","0.00",,,,"68","30.21","FEW:02 25 FEW:02 180 BKN:07 250","29.76","10.00","64","240",,"15",,,,,,,,,,,,,,,,,,,,,,,,,,,,,,,,,,,,,"MET11305/15/20 08:51:02 METAR KRDU 151351Z 24013KT 10SM FEW025 FEW180 BKN250 22/16 A3023 RMK AO2 SLP231 T02170156 (KAH)","FM-15","7",,,,,,,,,,,,,,,,,,,,,,,,,,,,"2009-07-08"
"72306013722","2020-05-15T09:51:00","FM-15","7",,,,,,,,,,,,,,,,,,,,,,,,,,,,,,,,,,,,,,"30.21","60","73","0.00",,"+0.02","8","64","30.20","FEW:02 30 BKN:07 250","29.74","10.00","65","230",,"15",,,,,,,,,,,,,,,,,,,,,,,,,,,,,,,,,,,,,"MET11205/15/20 09:51:02 METAR KRDU 151451Z 23013KT 10SM FEW030 BKN250 23/16 A3021 RMK AO2 SLP226 T02280156 58006 (KAH)","FM-15","7",,,,,,,,,,,,,,,,,,,,,,,,,,,,"2009-07-08"
"72306013722","2020-05-15T10:51:00","FM-15","7",,,,,,,,,,,,,,,,,,,,,,,,,,,,,,,,,,,,,,"30.20","60","77","0.00",,,,"56","30.18","FEW:02 40 BKN:07 250","29.73","10.00","66","240",,"9",,,,,,,,,,,,,,,,,,,,,,,,,,,,,,,,,,,,,"MET10605/15/20 10:51:02 METAR KRDU 151551Z 24008KT 10SM FEW040 BKN250 25/16 A3020 RMK AO2 SLP220 T02500156 (KAH)","FM-15","7",,,,,,,,,,,,,,,,,,,,,,,,,,,,"2009-07-08"
"72306013722","2020-05-15T11:51:00","FM-15","7",,,,,,,,,,,,,,,,,,,,,,,,,,,,,,,,,,,,,,"30.17","61","79","0.00",,,,"54","30.16","SCT:04 42 BKN:07 250","29.70","10.00","68","240",,"11",,,,,,,,,,,,,,,,,,,,,,,,,,,,,,,,,,,,,"MET10605/15/20 11:51:02 METAR KRDU 151651Z 24010KT 10SM SCT042 BKN250 26/16 A3017 RMK AO2 SLP212 T02610161 (KAH)","FM-15","7",,,,,,,,,,,,,,,,,,,,,,,,,,,,"2009-07-08"
"72306013722","2020-05-15T12:51:00","FM-15","7",,,,,,,,,,,,,,,,,,,,,,,,,,,,,,,,,,,,,,"30.13","62","82","0.00",,"+0.07","8","51","30.12","SCT:04 45 BKN:07 250","29.66","10.00","69","220","22","14",,,,,,,,,,,,,,,,,,,,,,,,,,,,,,,,,,,,,"MET12705/15/20 12:51:02 METAR KRDU 151751Z 22012G19KT 10SM SCT045 BKN250 28/17 A3013 RMK AO2 SLP200 T02780167 10278 20178 58025 (KAH)","FM-15","7",,,,,,,,,,,,,,,,,,,,,,,,,,,,"2009-07-08"
"72306013722","2020-05-15T13:00:00","FM-12","4",,,,,,,,,,,,,,,,,,,,,,,,,,,,,,,,,,,,,,,"62","82",,,"+0.07","8","51","30.12","41","29.67","9.94","69","220",,"14",,,,,,,,,,,,,,,,,,,,,,,,,,,,,,,,,,,,,"SYN08672306 32666 62212 10278 20167 30047 40200 58025 91751 333 10278 20178 91019 555 91518=","FM-12","4",,,,,,,,,,,,,,,,,,,,,,,,,,,,"2009-07-08"
"72306013722","2020-05-15T13:51:00","FM-15","7",,,,,,,,,,,,,,,,,,,,,,,,,,,,,,,,,,,,,,"30.12","61","80","0.00",,,,"52","30.10","SCT:04 46 BKN:07 250","29.65","10.00","68","230",,"13",,,,,,,,,,,,,,,,,,,,,,,,,,,,,,,,,,,,,"MET12405/15/20 13:51:02 METAR KRDU 151851Z 23011KT 10SM SCT046 BKN250 27/16 A3012 RMK AO2 PK WND 24026/1833 SLP194 T02670161 (KAH)","FM-15","7",,,,,,,,,,,,,,,,,,,,,,,,,,,,"2009-07-08"
"72306013722","2020-05-15T14:51:00","FM-15","7",,,,,,,,,,,,,,,,,,,,,,,,,,,,,,,,,,,,,,"30.09","60","79","0.00",,,,"52","30.08","BKN:07 50 BKN:07 250","29.62","10.00","67","210",,"10",,,,,,,,,,,,,,,,,,,,,,,,,,,,,,,,,,,,,"MET10605/15/20 14:51:02 METAR KRDU 151951Z 21009KT 10SM BKN050 BKN250 26/16 A3009 RMK AO2 SLP186 T02610156 (JBA)","FM-15","7",,,,,,,,,,,,,,,,,,,,,,,,,,,,"2009-07-08"
"72306013722","2020-05-15T15:51:00","FM-15","7",,,,,,,,,,,,,,,,,,,,,,,,,,,,,,,,,,,,,,"30.07","58","79","0.00",,"+0.07","8","49","30.06","SCT:04 50 BKN:07 250","29.60","10.00","66","220",,"15",,,,,,,,,,,,,,,,,,,,,,,,,,,,,,,,,,,,,"MET11205/15/20 15:51:02 METAR KRDU 152051Z 22013KT 10SM SCT050 BKN250 26/14 A3007 RMK AO2 SLP178 T02610144 58023 (JBA)","FM-15","7",,,,,,,,,,,,,,,,,,,,,,,,,,,,"2009-07-08"
"72306013722","2020-05-15T16:51:00","FM-15","7",,,,,,,,,,,,,,,,,,,,,,,,,,,,,,,,,,,,,,"30.06","58","79","0.00",,,,"49","30.05","SCT:04 50 BKN:07 60 BKN:07 250","29.59","10.00","66","230",,"14",,,,,,,,,,,,,,,,,,,,,,,,,,,,,,,,,,,,,"MET11305/15/20 16:51:02 METAR KRDU 152151Z 23012KT 10SM SCT050 BKN060 BKN250 26/14 A3006 RMK AO2 SLP177 T02610144 (JBA)","FM-15","7",,,,,,,,,,,,,,,,,,,,,,,,,,,,"2009-07-08"
"72306013722","2020-05-15T17:51:00","FM-15","7",,,,,,,,,,,,,,,,,,,,,,,,,,,,,,,,,,,,,,"30.06","58","77","0.00",,,,"52","30.05","SCT:04 60 BKN:07 250","29.59","10.00","65","220",,"11",,,,,,,,,,,,,,,,,,,,,,,,,,,,,,,,,,,,,"MET10605/15/20 17:51:02 METAR KRDU 152251Z 22010KT 10SM SCT060 BKN250 25/14 A3006 RMK AO2 SLP175 T02500144 (JBA)","FM-15","7",,,,,,,,,,,,,,,,,,,,,,,,,,,,"2009-07-08"
"72306013722","2020-05-15T18:51:00","FM-15","7",,,,,,,,,,,,,,,,,,,,,,,,,,,,,,,,,,,,,,"30.06","58","75","0.00",,"+0.01","6","55","30.05","FEW:02 60 SCT:04 250","29.59","10.00","65","220",,"8",,,,,,,,,,,,,,,,,,,,,,,,,,,,,,,,,,,,,"MET12405/15/20 18:51:02 METAR KRDU 152351Z 22007KT 10SM FEW060 SCT250 24/14 A3006 RMK AO2 SLP175 T02390144 10283 20239 56003 (JBA)","FM-15","7",,,,,,,,,,,,,,,,,,,,,,,,,,,,"2009-07-08"
"72306013722","2020-05-15T19:00:00","FM-12","4",,,,,,,,,,,,,,,,,,,,,,,,,,,,,,,,,,,,,,,"58","75",,,"+0.01","6","55","30.05","57","29.60","9.94","65","220",,"8",,,,,,,,,,,,,,,,,,,,,,,,,,,,,,,,,,,,,"SYN08072306 32766 42207 10239 20144 30023 40175 56003 92351 333 10283 20156 555 91600=","FM-12","4",,,,,,,,,,,,,,,,,,,,,,,,,,,,"2009-07-08"
"72306013722","2020-05-15T19:51:00","FM-15","7",,,,,,,,,,,,,,,,,,,,,,,,,,,,,,,,,,,,,,"30.06","58","74","0.00",,,,"57","30.05","FEW:02 250","29.59","10.00","64","190",,"7",,,,,,,,,,,,,,,,,,,,,,,,,,,,,,,,,,,,,"MET09305/15/20 19:51:01 METAR KRDU 160051Z 19006KT 10SM FEW250 23/14 A3006 RMK AO2 SLP175 T02330144","FM-15","7",,,,,,,,,,,,,,,,,,,,,,,,,,,,"2009-07-08"
"72306013722","2020-05-15T20:51:00","FM-15","7",,,,,,,,,,,,,,,,,,,,,,,,,,,,,,,,,,,,,,"30.08","58","71","0.00",,,,"63","30.06","FEW:02 250","29.61","10.00","63","190",,"6",,,,,,,,,,,,,,,,,,,,,,,,,,,,,,,,,,,,,"MET09305/15/20 20:51:01 METAR KRDU 160151Z 19005KT 10SM FEW250 22/14 A3008 RMK AO2 SLP181 T02170144","FM-15","7",,,,,,,,,,,,,,,,,,,,,,,,,,,,"2009-07-08"
"72306013722","2020-05-15T21:51:00","FM-15","7",,,,,,,,,,,,,,,,,,,,,,,,,,,,,,,,,,,,,,"30.09","59","71","0.00",,"-0.03","3","66","30.08","CLR:00","29.62","10.00","64","190",,"10",,,,,,,,,,,,,,,,,,,,,,,,,,,,,,,,,,,,,"MET09605/15/20 21:51:01 METAR KRDU 160251Z 19009KT 10SM CLR 22/15 A3009 RMK AO2 SLP185 T02170150 53009","FM-15","7",,,,,,,,,,,,,,,,,,,,,,,,,,,,"2009-07-08"
"72306013722","2020-05-15T22:51:00","FM-15","7",,,,,,,,,,,,,,,,,,,,,,,,,,,,,,,,,,,,,,"30.09","60","70","0.00",,,,"71","30.07","CLR:00","29.62","10.00","64","210",,"11",,,,,,,,,,,,,,,,,,,,,,,,,,,,,,,,,,,,,"MET09005/15/20 22:51:02 METAR KRDU 160351Z 21010KT 10SM CLR 21/16 A3009 RMK AO2 SLP184 T02110156","FM-15","7",,,,,,,,,,,,,,,,,,,,,,,,,,,,"2009-07-08"
"72306013722","2020-05-15T23:51:00","FM-15","7",,,,,,,,,,,,,,,,,,,,,,,,,,,,,,,,,,,,,,"30.09","60","68","0.00",,,,"76","30.08","CLR:00","29.62","10.00","63","210",,"13",,,,,,,,,,,,,,,,,,,,,,,,,,,,,,,,,,,,,"MET10005/15/20 23:51:02 METAR KRDU 160451Z 21011KT 10SM CLR 20/16 A3009 RMK AO2 SLP185 T02000156 402830156","FM-15","7",,,,,,,,,,,,,,,,,,,,,,,,,,,,"2009-07-08"
"72306013722","2020-05-15T23:59:00","SOD  ","6",,,,,,,,,,,,,,,"59","72","67","30.13","29.68","64","10.6","7","4.3","0","83","60","240","30","0.00","0","0.0","230","20",,,,,,,,,,,,,,,,,,,,,,,,,,,,,,,,,,,,,,,,,,,,,,,,,,,,,,,,,"SOD73924 HR PRECIPITATION (IN): 0.00 SNOW DEPTH (IN):0     24 HR SNOWFALL (IN):0.0  24 HR MAX TEMP (F): 8324 HR MIN TEMP (F): 60AVERAGE STATION PRESSURE:29.680 MINIMUM SEA LEVEL PRESSURE:30.04 TIME OF OCCURRENCE:1905 PEAK WIND SPEED (MPH): 30 PEAK WIND DIR (DEG):240 PEAK WIND TIME (LST):      FASTEST 2MIN SPEED (MPH): 20FASTEST 2MIN DIR (DEG):230 FASTEST 2MIN TIME (LST):     AVERAGE WIND SPEED (MPH):10.6 24 HR AVG TEMP (F): 72DEPART FROM NORMAL:  4  HEATING DEGREE DAYS:  0 COOLING DEGREE DAYS:  7 LATEST DAY MAX TEMP (0700-1900 LST):83  LATEST NIGHT MIN TEMP(1900-0800 LST):60 HOURLY INCREMENTAL PRECIPITATION VALUES (IN):.00 0.00 0.00 0.00 0.00 0.00 0.00 0.00 0.00 0.00 0.00 0.00 0.00 0.00 0.00 0.00 0.00 0.00 0.00 0.00 0.00 0.00 0.00 0.00","SOD  ","6",,,,,,,,,,,,,,,,,,,,,,,,,"0509","1914",,"2009-07-08"
"72306013722","2020-05-16T00:51:00","FM-15","7",,,,,,,,,,,,,,,,,,,,,,,,,,,,,,,,,,,,,,"30.08","59","66","0.00",,"+0.01","8","78","30.06","CLR:00","29.61","10.00","62","210",,"10",,,,,,,,,,,,,,,,,,,,,,,,,,,,,,,,,,,,,"MET11405/16/20 00:51:02 METAR KRDU 160551Z 21009KT 10SM CLR 19/15 A3008 RMK AO2 SLP179 T01890150 10244 20189 58004 (SMK)","FM-15","7",,,,,,,,,,,,,,,,,,,,,,,,,,,,"2009-07-08"
"72306013722","2020-05-16T01:00:00","FM-12","4",,,,,,,,,,,,,,,,,,,,,,,,,,,,,,,,,,,,,,,"59","66",,,"+0.01","8","78","30.06",,"29.62","9.94","62","210",,"10",,,,,,,,,,,,,,,,,,,,,,,,,,,,,,,,,,,,,"SYN08072306 32966 02109 10189 20150 30030 40179 58004 90551 333 10244 20156 555 91606=","FM-12","4",,,,,,,,,,,,,,,,,,,,,,,,,,,,"2009-07-08"
"72306013722","2020-05-16T01:51:00","FM-15","7",,,,,,,,,,,,,,,,,,,,,,,,,,,,,,,,,,,,,,"30.07","59","63","0.00",,,,"87","30.06","CLR:00","29.60","10.00","61","230",,"7",,,,,,,,,,,,,,,,,,,,,,,,,,,,,,,,,,,,,"MET09605/16/20 01:51:02 METAR KRDU 160651Z 23006KT 10SM CLR 17/15 A3007 RMK AO2 SLP178 T01720150 (SMK)","FM-15","7",,,,,,,,,,,,,,,,,,,,,,,,,,,,"2009-07-08"
"72306013722","2020-05-16T02:51:00","FM-15","7",,,,,,,,,,,,,,,,,,,,,,,,,,,,,,,,,,,,,,"30.05","59","63","0.00",,,,"87","30.04","CLR:00","29.58","10.00","61","220",,"7",,,,,,,,,,,,,,,,,,,,,,,,,,,,,,,,,,,,,"MET09605/16/20 02:51:02 METAR KRDU 160751Z 22006KT 10SM CLR 17/15 A3005 RMK AO2 SLP174 T01720150 (SMK)","FM-15","7",,,,,,,,,,,,,,,,,,,,,,,,,,,,"2009-07-08"
"72306013722","2020-05-16T03:51:00","FM-15","7",,,,,,,,,,,,,,,,,,,,,,,,,,,,,,,,,,,,,,"30.05","59","61","0.00",,"+0.03","7","93","30.03","CLR:00","29.58","10.00","60","240",,"5",,,,,,,,,,,,,,,,,,,,,,,,,,,,,,,,,,,,,"MET10205/16/20 03:51:02 METAR KRDU 160851Z 24004KT 10SM CLR 16/15 A3005 RMK AO2 SLP171 T01610150 57009 (SMK)","FM-15","7",,,,,,,,,,,,,,,,,,,,,,,,,,,,"2009-07-08"
"72306013722","2020-05-16T04:51:00","FM-15","7",,,,,,,,,,,,,,,,,,,,,,,,,,,,,,,,,,,,,,"30.06","59","61","0.00",,,,"93","30.05","CLR:00","29.59","10.00","60","220",,"6",,,,,,,,,,,,,,,,,,,,,,,,,,,,,,,,,,,,,"MET09605/16/20 04:51:02 METAR KRDU 160951Z 22005KT 10SM CLR 16/15 A3006 RMK AO2 SLP175 T01610150 (SMK)","FM-15","7",,,,,,,,,,,,,,,,,,,,,,,,,,,,"2009-07-08"
"72306013722","2020-05-16T05:51:00","FM-15","7",,,,,,,,,,,,,,,,,,,,,,,,,,,,,,,,,,,,,,"30.08","60","62","0.00",,,,"93","30.07","CLR:00","29.61","10.00","61","220",,"7",,,,,,,,,,,,,,,,,,,,,,,,,,,,,,,,,,,,,"MET09505/16/20 05:51:02 METAR KRDU 161051Z 22006KT 10SM CLR 17/16 A3008 RMK AO2 SLP182 T01670156 (VD)","FM-15","7",,,,,,,,,,,,,,,,,,,,,,,,,,,,"2009-07-08"
"72306013722","2020-05-16T06:51:00","FM-15","7",,,,,,,,,,,,,,,,,,,,,,,,,,,,,,,,,,,,,,"30.09","62","67","0.00",,"-0.04","3","84","30.08","FEW:02 250","29.62","10.00","64","240",,"9",,,,,,,,,,,,,,,,,,,,,,,,,,,,,,,,,,,,,"MET11605/16/20 06:51:02 METAR KRDU 161151Z 24008KT 10SM FEW250 19/17 A3009 RMK AO2 SLP187 T01940167 10194 20156 53015 (VD)","FM-15","7",,,,,,,,,,,,,,,,,,,,,,,,,,,,"2009-07-08"
"72306013722","2020-05-16T07:00:00","FM-12","4",,,,,,,,,,,,,,,,,,,,,,,,,,,,,,,,,,,,,,,"62","67",,,"-0.04","3","84","30.08",,"29.63","9.94","64","240",,"9",,,,,,,,,,,,,,,,,,,,,,,,,,,,,,,,,,,,,"SYN08072306 32966 22408 10194 20167 30033 40187 53015 91151 333 10283 20156 555 91612=","FM-12","4",,,,,,,,,,,,,,,,,,,,,,,,,,,,"2009-07-08"
"72306013722","2020-05-16T07:51:00","FM-15","7",,,,,,,,,,,,,,,,,,,,,,,,,,,,,,,,,,,,,,"30.10","63","71","0.00",,,,"76","30.09","FEW:02 250","29.63","10.00","66","240",,"8",,,,,,,,,,,,,,,,,,,,,,,,,,,,,,,,,,,,,"MET09805/16/20 07:51:02 METAR KRDU 161251Z 24007KT 10SM FEW250 22/17 A3010 RMK AO2 SLP189 T02170172 (VD)","FM-15","7",,,,,,,,,,,,,,,,,,,,,,,,,,,,"2009-07-08"
"72306013722","2020-05-16T08:51:00","FM-15","7",,,,,,,,,,,,,,,,,,,,,,,,,,,,,,,,,,,,,,"30.09","63","75","0.00",,,,"66","30.08","SCT:04 250","29.62","10.00","67","250",,"11",,,,,,,,,,,,,,,,,,,,,,,,,,,,,,,,,,,,,"MET09805/16/20 08:51:02 METAR KRDU 161351Z 25010KT 10SM SCT250 24/17 A3009 RMK AO2 SLP186 T02390172 (VD)","FM-15","7",,,,,,,,,,,,,,,,,,,,,,,,,,,,"2009-07-08"
"72306013722","2020-05-16T09:51:00","FM-15","7",,,,,,,,,,,,,,,,,,,,,,,,,,,,,,,,,,,,,,"30.09","64","78","0.00",,"+0.00","8","62","30.07","SCT:04 250","29.62","10.00","69","230",,"7",,,,,,,,,,,,,,,,,,,,,,,,,,,,,,,,,,,,,"MET10405/16/20 09:51:02 METAR KRDU 161451Z 23006KT 10SM SCT250 26/18 A3009 RMK AO2 SLP184 T02560178 58001 (VD)","FM-15","7",,,,,,,,,,,,,,,,,,,,,,,,,,,,"2009-07-08"
"72306013722","2020-05-16T10:51:00","FM-15","7",,,,,,,,,,,,,,,,,,,,,,,,,,,,,,,,,,,,,,"30.08","63","80","0.00",,,,"56","30.07","BKN:07 250","29.61","10.00","69","VRB",,"9",,,,,,,,,,,,,,,,,,,,,,,,,,,,,,,,,,,,,"MET09805/16/20 10:51:02 METAR KRDU 161551Z 27008KT 10SM BKN250 27/17 A3008 RMK AO2 SLP182 T02670172 (VD)","FM-15","7",,,,,,,,,,,,,,,,,,,,,,,,,,,,"2009-07-08"
"72306013722","2020-05-16T11:51:00","FM-15","7",,,,,,,,,,,,,,,,,,,,,,,,,,,,,,,,,,,,,,"30.08","64","83","0.00",,,,"53","30.06","FEW:02 50 BKN:07 250","29.61","10.00","71","330",,"6",,,,,,,,,,,,,,,,,,,,,,,,,,,,,,,,,,,,,"MET10505/16/20 11:51:02 METAR KRDU 161651Z 33005KT 10SM FEW050 BKN250 28/18 A3008 RMK AO2 SLP180 T02830178 (VD)","FM-15","7",,,,,,,,,,,,,,,,,,,,,,,,,,,,"2009-07-08"
"72306013722","2020-05-16T12:51:00","FM-15","7",,,,,,,,,,,,,,,,,,,,,,,,,,,,,,,,,,,,,,"30.05","64","85","0.00",,"+0.04","8","50","30.03","FEW:02 50 SCT:04 250","29.58","10.00","71","090",,"6",,,,,,,,,,,,,,,,,,,,,,,,,,,,,,,,,,,,,"MET12305/16/20 12:51:02 METAR KRDU 161751Z 09005KT 10SM FEW050 SCT250 29/18 A3005 RMK AO2 SLP171 T02940178 10294 20194 58013 (VD)","FM-15","7",,,,,,,,,,,,,,,,,,,,,,,,,,,,"2009-07-08"
"72306013722","2020-05-16T13:00:00","FM-12","4",,,,,,,,,,,,,,,,,,,,,,,,,,,,,,,,,,,,,,,"64","85",,,"+0.04","8","50","30.03","57","29.59","9.94","71","090",,"6",,,,,,,,,,,,,,,,,,,,,,,,,,,,,,,,,,,,,"SYN08072306 32766 40905 10294 20178 30020 40171 58013 91751 333 10294 20194 555 91618=","FM-12","4",,,,,,,,,,,,,,,,,,,,,,,,,,,,"2009-07-08"
"72306013722","2020-05-16T13:51:00","FM-15","7",,,,,,,,,,,,,,,,,,,,,,,,,,,,,,,,,,,,,,"30.03","64","88","0.00",,,,"45","30.02","FEW:02 50 SCT:04 250","29.56","10.00","72","210",,"6",,,,,,,,,,,,,,,,,,,,,,,,,,,,,,,,,,,,,"MET10505/16/20 13:51:02 METAR KRDU 161851Z 21005KT 10SM FEW050 SCT250 31/18 A3003 RMK AO2 SLP165 T03110178 (VD)","FM-15","7",,,,,,,,,,,,,,,,,,,,,,,,,,,,"2009-07-08"
"72306013722","2020-05-16T14:51:00","FM-15","7",,,,,,,,,,,,,,,,,,,,,,,,,,,,,,,,,,,,,,"30.01","60","88","0.00",,,,"39","30.00","FEW:02 50 SCT:04 250","29.54","10.00","70","150",,"7",,,,,,,,,,,,,,,,,,,,,,,,,,,,,,,,,,,,,"MET10505/16/20 14:51:02 METAR KRDU 161951Z 15006KT 10SM FEW050 SCT250 31/16 A3001 RMK AO2 SLP158 T03110156 (HA)","FM-15","7",,,,,,,,,,,,,,,,,,,,,,,,,,,,"2009-07-08"
"72306013722","2020-05-16T15:51:00","FM-15","7",,,,,,,,,,,,,,,,,,,,,,,,,,,,,,,,,,,,,,"30.00","60","88","0.00",,"+0.05","6","39","29.98","SCT:04 65 SCT:04 250","29.53","10.00","70","VRB",,"3",,,,,,,,,,,,,,,,,,,,,,,,,,,,,,,,,,,,,"MET11105/16/20 15:51:02 METAR KRDU 162051Z VRB03KT 10SM SCT065 SCT250 31/16 A3000 RMK AO2 SLP153 T03110156 56018 (HA)","FM-15","7",,,,,,,,,,,,,,,,,,,,,,,,,,,,"2009-07-08"
"72306013722","2020-05-16T16:51:00","FM-15","7",,,,,,,,,,,,,,,,,,,,,,,,,,,,,,,,,,,,,,"30.00","60","87","0.00",,,,"40","29.98","SCT:04 65 SCT:04 250","29.53","10.00","70","130",,"7",,,,,,,,,,,,,,,,,,,,,,,,,,,,,,,,,,,,,"MET10505/16/20 16:51:02 METAR KRDU 162151Z 13006KT 10SM SCT065 SCT250 31/16 A3000 RMK AO2 SLP152 T03060156 (HA)","FM-15","7",,,,,,,,,,,,,,,,,,,,,,,,,,,,"2009-07-08"
"72306013722","2020-05-16T17:51:00","FM-15","7",,,,,,,,,,,,,,,,,,,,,,,,,,,,,,,,,,,,,,"30.01","60","84","0.00",,,,"44","29.99","SCT:04 65 SCT:04 250","29.54","10.00","69","160",,"7",,,,,,,,,,,,,,,,,,,,,,,,,,,,,,,,,,,,,"MET10505/16/20 17:51:02 METAR KRDU 162251Z 16006KT 10SM SCT065 SCT250 29/16 A3001 RMK AO2 SLP156 T02890156 (HA)","FM-15","7",,,,,,,,,,,,,,,,,,,,,,,,,,,,"2009-07-08"
"72306013722","2020-05-16T18:51:00","FM-15","7",,,,,,,,,,,,,,,,,,,,,,,,,,,,,,,,,,,,,,"30.02","62","81","0.00",,"-0.02","3","53","30.01","FEW:02 65 BKN:07 250","29.55","10.00","69","140",,"6",,,,,,,,,,,,,,,,,,,,,,,,,,,,,,,,,,,,,"MET12305/16/20 18:51:02 METAR KRDU 162351Z 14005KT 10SM FEW065 BKN250 27/17 A3002 RMK AO2 SLP161 T02720167 10317 20272 53007 (HA)","FM-15","7",,,,,,,,,,,,,,,,,,,,,,,,,,,,"2009-07-08"
"72306013722","2020-05-16T19:00:00","FM-12","4",,,,,,,,,,,,,,,,,,,,,,,,,,,,,,,,,,,,,,,"62","81",,,"-0.02","3","53","30.01","57","29.56","9.94","69","140",,"6",,,,,,,,,,,,,,,,,,,,,,,,,,,,,,,,,,,,,"SYN08072306 32766 61405 10272 20167 30010 40161 53007 92351 333 10317 20156 555 91700=","FM-12","4",,,,,,,,,,,,,,,,,,,,,,,,,,,,"2009-07-08"
"72306013722","2020-05-16T19:51:00","FM-15","7",,,,,,,,,,,,,,,,,,,,,,,,,,,,,,,,,,,,,,"30.03","61","78","0.00",,,,"56","30.01","FEW:02 65 SCT:04 250","29.56","10.00","67","150",,"5",,,,,,,,,,,,,,,,,,,,,,,,,,,,,,,,,,,,,"MET10005/16/20 19:51:01 METAR KRDU 170051Z 15004KT 10SM FEW065 SCT250 26/16 A3003 RMK AO2 SLP163 T02560161","FM-15","7",,,,,,,,,,,,,,,,,,,,,,,,,,,,"2009-07-08"
"72306013722","2020-05-16T20:51:00","FM-15","7",,,,,,,,,,,,,,,,,,,,,,,,,,,,,,,,,,,,,,"30.04","62","74","0.00",,,,"67","30.03","FEW:02 65 SCT:04 250","29.57","10.00","66","120",,"3",,,,,,,,,,,,,,,,,,,,,,,,,,,,,,,,,,,,,"MET10005/16/20 20:51:01 METAR KRDU 170151Z 12003KT 10SM FEW065 SCT250 23/17 A3004 RMK AO2 SLP168 T02330167","FM-15","7",,,,,,,,,,,,,,,,,,,,,,,,,,,,"2009-07-08"
"72306013722","2020-05-16T21:51:00","FM-15","7",,,,,,,,,,,,,,,,,,,,,,,,,,,,,,,,,,,,,,"30.07","61","74","0.00",,"-0.05","3","64","30.05","FEW:02 65 BKN:07 250","29.60","10.00","66","160",,"9",,,,,,,,,,,,,,,,,,,,,,,,,,,,,,,,,,,,,"MET10605/16/20 21:51:01 METAR KRDU 170251Z 16008KT 10SM FEW065 BKN250 23/16 A3007 RMK AO2 SLP177 T02330161 53016","FM-15","7",,,,,,,,,,,,,,,,,,,,,,,,,,,,"2009-07-08"
"72306013722","2020-05-16T22:51:00","FM-15","7",,,,,,,,,,,,,,,,,,,,,,,,,,,,,,,,,,,,,,"30.08","61","73","0.00",,,,"66","30.06","FEW:02 65 SCT:04 250","29.61","10.00","66","160",,"7",,,,,,,,,,,,,,,,,,,,,,,,,,,,,,,,,,,,,"MET10005/16/20 22:51:02 METAR KRDU 170351Z 16006KT 10SM FEW065 SCT250 23/16 A3008 RMK AO2 SLP181 T02280161","FM-15","7",,,,,,,,,,,,,,,,,,,,,,,,,,,,"2009-07-08"
"72306013722","2020-05-16T23:51:00","FM-15","7",,,,,,,,,,,,,,,,,,,,,,,,,,,,,,,,,,,,,,"30.07","61","70","0.00",,,,"73","30.06","FEW:02 250","29.60","10.00","64","170",,"7",,,,,,,,,,,,,,,,,,,,,,,,,,,,,,,,,,,,,"MET10305/16/20 23:51:02 METAR KRDU 170451Z 17006KT 10SM FEW250 21/16 A3007 RMK AO2 SLP178 T02110161 403170156","FM-15","7",,,,,,,,,,,,,,,,,,,,,,,,,,,,"2009-07-08"
"72306013722","2020-05-16T23:59:00","SOD  ","6",,,,,,,,,,,,,,,"61","75","65","30.04","29.59","66","6.9","10","7.0","0","89","60","240","17","0.00","0","0.0","150","13",,,,,,,,,,,,,,,,,,,,,,,,,,,,,,,,,,,,,,,,,,,,,,,,,,,,,,,,,"SOD75624 HR PRECIPITATION (IN): 0.00 SNOW DEPTH (IN):0     24 HR SNOWFALL (IN):0.0  WEATHER(CODE):8  24 HR MAX TEMP (F): 8924 HR MIN TEMP (F): 60AVERAGE STATION PRESSURE:29.585 MINIMUM SEA LEVEL PRESSURE:29.98 TIME OF OCCURRENCE:1726 PEAK WIND SPEED (MPH): 17 PEAK WIND DIR (DEG):240 PEAK WIND TIME (LST):      FASTEST 2MIN SPEED (MPH): 13FASTEST 2MIN DIR (DEG):150 FASTEST 2MIN TIME (LST):     AVERAGE WIND SPEED (MPH): 6.9 24 HR AVG TEMP (F): 75DEPART FROM NORMAL:  7  HEATING DEGREE DAYS:  0 COOLING DEGREE DAYS: 10 LATEST DAY MAX TEMP (0700-1900 LST):89  LATEST NIGHT MIN TEMP(1900-0800 LST):60 HOURLY INCREMENTAL PRECIPITATION VALUES (IN):.00 0.00 0.00 0.00 0.00 0.00 0.00 0.00 0.00 0.00 0.00 0.00 0.00 0.00 0.00 0.00 0.00 0.00 0.00 0.00 0.00 0.00 0.00 0.00","SOD  ","6",,,,,,,,,,,,,,,,,,,,,,,,,"0508","1915",,"2009-07-08"
"72306013722","2020-05-17T00:51:00","FM-15","7",,,,,,,,,,,,,,,,,,,,,,,,,,,,,,,,,,,,,,"30.07","62","69","0.00",,"-0.00","1","78","30.06","FEW:02 250","29.60","10.00","65","170",,"3",,,,,,,,,,,,,,,,,,,,,,,,,,,,,,,,,,,,,"MET11705/17/20 00:51:02 METAR KRDU 170551Z 17003KT 10SM FEW250 21/17 A3007 RMK AO2 SLP178 T02060167 10272 20200 51001 (SMK)","FM-15","7",,,,,,,,,,,,,,,,,,,,,,,,,,,,"2009-07-08"
"72306013722","2020-05-17T01:00:00","FM-12","4",,,,,,,,,,,,,,,,,,,,,,,,,,,,,,,,,,,,,,,"62","69",,,"-0.00","1","78","30.06",,"29.61","9.94","65","170",,"3",,,,,,,,,,,,,,,,,,,,,,,,,,,,,,,,,,,,,"SYN08072306 32966 21703 10206 20167 30027 40178 51001 90551 333 10272 20156 555 91706=","FM-12","4",,,,,,,,,,,,,,,,,,,,,,,,,,,,"2009-07-08"
"72306013722","2020-05-17T01:51:00","FM-15","7",,,,,,,,,,,,,,,,,,,,,,,,,,,,,,,,,,,,,,"30.07","62","66","0.00",,,,"87","30.05","FEW:02 250","29.60","10.00","64","000",,"0",,,,,,,,,,,,,,,,,,,,,,,,,,,,,,,,,,,,,"MET09905/17/20 01:51:02 METAR KRDU 170651Z 00000KT 10SM FEW250 19/17 A3007 RMK AO2 SLP176 T01890167 (SMK)","FM-15","7",,,,,,,,,,,,,,,,,,,,,,,,,,,,"2009-07-08"
"72306013722","2020-05-17T02:51:00","FM-15","7",,,,,,,,,,,,,,,,,,,,,,,,,,,,,,,,,,,,,,"30.07","62","63","0.00",,,,"97","30.06","FEW:02 250","29.60","8.00","62","060",,"3",,,,,,,,,,,,,,,,,,,,,,,,,,,,,,,,,,,,,"MET09805/17/20 02:51:02 METAR KRDU 170751Z 06003KT 8SM FEW250 17/17 A3007 RMK AO2 SLP178 T01720167 (SMK)","FM-15","7",,,,,,,,,,,,,,,,,,,,,,,,,,,,"2009-07-08"
"72306013722","2020-05-17T03:51:00","FM-15","7",,,,,,,,,,,,,,,,,,,,,,,,,,,,,,,,,,,,,,"30.07","60","62","0.00",,"-0.00","3","93","30.06","FEW:02 250","29.60","10.00","61","060",,"5",,,,,,,,,,,,,,,,,,,,,,,,,,,,,,,,,,,,,"MET10505/17/20 03:51:02 METAR KRDU 170851Z 06004KT 10SM FEW250 17/16 A3007 RMK AO2 SLP179 T01670156 53001 (SMK)","FM-15","7",,,,,,,,,,,,,,,,,,,,,,,,,,,,"2009-07-08"
"72306013722","2020-05-17T04:51:00","FM-15","7",,,,,,,,,,,,,,,,,,,,,,,,,,,,,,,,,,,,,,"30.07","60","61","0.00",,,,"97","30.06","FEW:02 250","29.60","10.00","60","000",,"0",,,,,,,,,,,,,,,,,,,,,,,,,,,,,,,,,,,,,"MET09905/17/20 04:51:02 METAR KRDU 170951Z 00000KT 10SM FEW250 16/16 A3007 RMK AO2 SLP179 T01610156 (SMK)","FM-15","7",,,,,,,,,,,,,,,,,,,,,,,,,,,,"2009-07-08"
"72306013722","2020-05-17T05:51:00","FM-15","7",,,,,,,,,,,,,,,,,,,,,,,,,,,,,,,,,,,,,,"30.09","61","63","0.00",,,,"93","30.08","FEW:02 120 SCT:04 250","29.62","10.00","62","000",,"0",,,,,,,,,,,,,,,,,,,,,,,,,,,,,,,,,,,,,"MET10605/17/20 05:51:02 METAR KRDU 171051Z 00000KT 10SM FEW120 SCT250 17/16 A3009 RMK AO2 SLP185 T01720161 (SMK)","FM-15","7",,,,,,,,,,,,,,,,,,,,,,,,,,,,"2009-07-08"
"72306013722","2020-05-17T06:01:00","FM-16","7",,,,,,,,,,,,,,,,,,,,,,,,,,,,,,,,,,,,,,"30.09","63","64",,,,,"96",,"BKN:07 13 BKN:07 250","29.62","10.00","63","000",,"0",,,,,,,,,,,,,,,,,,,,,,,,,,,,,,,,,,,,,"MET09805/17/20 06:01:02 SPECI KRDU 171101Z 00000KT 10SM BKN013 BKN250 18/17 A3009 RMK AO2 T01780172 (RP)","FM-16","7",,,,,,,,,,,,,,,,,,,,,,,,,,,,"2009-07-08"
"72306013722","2020-05-17T06:49:00","FM-16","6",,,,,,,,,,,,,,,,,,,,,,,,,,,,,,,,,,,,,,"30.10","64","70",,,,,"83",,"SCT:04 13 BKN:07 250","29.63","10.00","66","000",,"0",,,,,,,,,,,,,,,,,,,,,,,,,,,,,,,,,,,,,"MET09305/17/20 06:49:02 SPECI KRDU 171149Z 00000KT 10SM SCT013 BKN250 21/18 A3010 RMK AO2 FIBI (RP)","FM-16","6",,,,,,,,,,,,,,,,,,,,,,,,,,,,"2009-07-08"
"72306013722","2020-05-17T06:51:00","FM-15","7",,,,,,,,,,,,,,,,,,,,,,,,,,,,,,,,,,,,,,"30.10","65","69","0.00",,"-0.03","3","87","30.09","SCT:04 13 BKN:07 250","29.63","10.00","66","090",,"3",,,,,,,,,,,,,,,,,,,,,,,,,,,,,,,,,,,,,"MET12305/17/20 06:51:02 METAR KRDU 171151Z 09003KT 10SM SCT013 BKN250 21/18 A3010 RMK AO2 SLP189 T02060183 10206 20156 53010 (RP)","FM-15","7",,,,,,,,,,,,,,,,,,,,,,,,,,,,"2009-07-08"
"72306013722","2020-05-17T07:00:00","FM-12","4",,,,,,,,,,,,,,,,,,,,,,,,,,,,,,,,,,,,,,,"65","69",,,"-0.03","3","87","30.09","15","29.64","9.94","66","090",,"3",,,,,,,,,,,,,,,,,,,,,,,,,,,,,,,,,,,,,"SYN08072306 32466 60903 10206 20183 30037 40189 53010 91151 333 10317 20156 555 91712=","FM-12","4",,,,,,,,,,,,,,,,,,,,,,,,,,,,"2009-07-08"
"72306013722","2020-05-17T07:51:00","FM-15","7",,,,,,,,,,,,,,,,,,,,,,,,,,,,,,,,,,,,,,"30.10","66","71","0.00",,,,"84","30.09","BKN:07 11 BKN:07 16","29.63","10.00","68","100",,"6",,,,,,,,,,,,,,,,,,,,,,,,,,,,,,,,,,,,,"MET10505/17/20 07:51:02 METAR KRDU 171251Z 10005KT 10SM BKN011 BKN016 22/19 A3010 RMK AO2 SLP189 T02170189 (RP)","FM-15","7",,,,,,,,,,,,,,,,,,,,,,,,,,,,"2009-07-08"
"72306013722","2020-05-17T08:51:00","FM-15","7",,,,,,,,,,,,,,,,,,,,,,,,,,,,,,,,,,,,,,"30.11","65","73","0.00",,,,"76","30.09","BKN:07 16","29.64","10.00","68","070",,"8",,,,,,,,,,,,,,,,,,,,,,,,,,,,,,,,,,,,,"MET09805/17/20 08:51:02 METAR KRDU 171351Z 07007KT 10SM BKN016 23/18 A3011 RMK AO2 SLP191 T02280183 (RP)","FM-15","7",,,,,,,,,,,,,,,,,,,,,,,,,,,,"2009-07-08"
"72306013722","2020-05-17T09:51:00","FM-15","7",,,,,,,,,,,,,,,,,,,,,,,,,,,,,,,,,,,,,,"30.10","65","78","0.00",,"+0.01","8","64","30.08","BKN:07 26 BKN:07 250","29.63","10.00","70","090","20","9",,,,,,,,,,,,,,,,,,,,,,,,,,,,,,,,,,,,,"MET11405/17/20 09:51:02 METAR KRDU 171451Z 09008G17KT 10SM BKN026 BKN250 26/18 A3010 RMK AO2 SLP187 T02560183 58002 (RP)","FM-15","7",,,,,,,,,,,,,,,,,,,,,,,,,,,,"2009-07-08"
"72306013722","2020-05-17T10:51:00","FM-15","7",,,,,,,,,,,,,,,,,,,,,,,,,,,,,,,,,,,,,,"30.10","63","79","0.00",,,,"58","30.09","BKN:07 26 BKN:07 250","29.63","10.00","69","080",,"8",,,,,,,,,,,,,,,,,,,,,,,,,,,,,,,,,,,,,"MET10505/17/20 10:51:02 METAR KRDU 171551Z 08007KT 10SM BKN026 BKN250 26/17 A3010 RMK AO2 SLP188 T02610172 (RP)","FM-15","7",,,,,,,,,,,,,,,,,,,,,,,,,,,,"2009-07-08"
"72306013722","2020-05-17T11:03:00","FM-16","7",,,,,,,,,,,,,,,,,,,,,,,,,,,,,,,,,,,,,,"30.10","63","80",,,,,"56",,"BKN:07 35 BKN:07 250","29.63","10.00","69","100",,"10",,,,,,,,,,,,,,,,,,,,,,,,,,,,,,,,,,,,,"MET09805/17/20 11:03:02 SPECI KRDU 171603Z 10009KT 10SM BKN035 BKN250 27/17 A3010 RMK AO2 T02670172 (RP)","FM-16","7",,,,,,,,,,,,,,,,,,,,,,,,,,,,"2009-07-08"
"72306013722","2020-05-17T11:51:00","FM-15","7",,,,,,,,,,,,,,,,,,,,,,,,,,,,,,,,,,,,,,"30.09","63","81","0.00",,,,"54","30.07","BKN:07 40 BKN:07 250","29.62","10.00","69","090",,"13",,,,,,,,,,,,,,,,,,,,,,,,,,,,,,,,,,,,,"MET10505/17/20 11:51:02 METAR KRDU 171651Z 09011KT 10SM BKN040 BKN250 27/17 A3009 RMK AO2 SLP183 T02720172 (RP)","FM-15","7",,,,,,,,,,,,,,,,,,,,,,,,,,,,"2009-07-08"
"72306013722","2020-05-17T12:51:00","FM-15","7",,,,,,,,,,,,,,,,,,,,,,,,,,,,,,,,,,,,,,"30.07","62","83","0.00",,"+0.03","8","49","30.05","BKN:07 45 BKN:07 250","29.60","10.00","69","150","21","10",,,,,,,,,,,,,,,,,,,,,,,,,,,,,,,,,,,,,"MET12605/17/20 12:51:02 METAR KRDU 171751Z 15009G18KT 10SM BKN045 BKN250 28/17 A3007 RMK AO2 SLP177 T02830167 10283 20206 58010 (RP)","FM-15","7",,,,,,,,,,,,,,,,,,,,,,,,,,,,"2009-07-08"
"72306013722","2020-05-17T13:00:00","FM-12","4",,,,,,,,,,,,,,,,,,,,,,,,,,,,,,,,,,,,,,,"62","83",,,"+0.03","8","49","30.05","41","29.61","9.94","69","150",,"10",,,,,,,,,,,,,,,,,,,,,,,,,,,,,,,,,,,,,"SYN08672306 32666 61509 10283 20167 30027 40177 58010 91751 333 10283 20206 91018 555 91718=","FM-12","4",,,,,,,,,,,,,,,,,,,,,,,,,,,,"2009-07-08"
"72306013722","2020-05-17T13:51:00","FM-15","7",,,,,,,,,,,,,,,,,,,,,,,,,,,,,,,,,,,,,,"30.04","61","84","0.00",,,,"46","30.03","BKN:07 55 BKN:07 250","29.57","10.00","69","090",,"11",,,,,,,,,,,,,,,,,,,,,,,,,,,,,,,,,,,,,"MET10005/17/20 13:51:02 METAR KRDU 171851Z 09010KT 10SM BKN055 BKN250 29/16 A3004 RMK AO2 SLP168 T02890161","FM-15","7",,,,,,,,,,,,,,,,,,,,,,,,,,,,"2009-07-08"
"72306013722","2020-05-17T14:51:00","FM-15","7",,,,,,,,,,,,,,,,,,,,,,,,,,,,,,,,,,,,,,"30.02","60","85","0.00",,,,"43","30.01","SCT:04 55 BKN:07 60 BKN:07 250","29.55","10.00","69","100","17","11",,,,,,,,,,,,,,,,,,,,,,,,,,,,,,,,,,,,,"MET11005/17/20 14:51:02 METAR KRDU 171951Z 10010G15KT 10SM SCT055 BKN060 BKN250 29/16 A3002 RMK AO2 SLP161 T02940156","FM-15","7",,,,,,,,,,,,,,,,,,,,,,,,,,,,"2009-07-08"
"72306013722","2020-05-17T15:51:00","FM-15","7",,,,,,,,,,,,,,,,,,,,,,,,,,,,,,,,,,,,,,"30.00","60","83","0.00",,"+0.07","6","46","29.98","BKN:07 55 BKN:07 250","29.53","10.00","68","070",,"9",,,,,,,,,,,,,,,,,,,,,,,,,,,,,,,,,,,,,"MET10605/17/20 15:51:02 METAR KRDU 172051Z 07008KT 10SM BKN055 BKN250 28/16 A3000 RMK AO2 SLP153 T02830156 56023","FM-15","7",,,,,,,,,,,,,,,,,,,,,,,,,,,,"2009-07-08"
"72306013722","2020-05-17T16:51:00","FM-15","7",,,,,,,,,,,,,,,,,,,,,,,,,,,,,,,,,,,,,,"29.99","61","82","0.00",,,,"49","29.97","FEW:02 50 BKN:07 70 BKN:07 250","29.52","10.00","69","090",,"10",,,,,,,,,,,,,,,,,,,,,,,,,,,,,,,,,,,,,"MET10705/17/20 16:51:02 METAR KRDU 172151Z 09009KT 10SM FEW050 BKN070 BKN250 28/16 A2999 RMK AO2 SLP150 T02780161","FM-15","7",,,,,,,,,,,,,,,,,,,,,,,,,,,,"2009-07-08"
"72306013722","2020-05-17T17:51:00","FM-15","7",,,,,,,,,,,,,,,,,,,,,,,,,,,,,,,,,,,,,,"29.98","61","80","0.00",,,,"52","29.97","SCT:04 70 BKN:07 250","29.51","10.00","68","080",,"9",,,,,,,,,,,,,,,,,,,,,,,,,,,,,,,,,,,,,"MET10005/17/20 17:51:02 METAR KRDU 172251Z 08008KT 10SM SCT070 BKN250 27/16 A2998 RMK AO2 SLP148 T02670161","FM-15","7",,,,,,,,,,,,,,,,,,,,,,,,,,,,"2009-07-08"
"72306013722","2020-05-17T18:51:00","FM-15","7",,,,,,,,,,,,,,,,,,,,,,,,,,,,,,,,,,,,,,"29.99","60","79","0.00",,"+0.01","5","52","29.97","BKN:07 70 BKN:07 250","29.52","10.00","67","080",,"8",,,,,,,,,,,,,,,,,,,,,,,,,,,,,,,,,,,,,"MET11805/17/20 18:51:02 METAR KRDU 172351Z 08007KT 10SM BKN070 BKN250 26/16 A2999 RMK AO2 SLP149 T02610156 10300 20261 55004","FM-15","7",,,,,,,,,,,,,,,,,,,,,,,,,,,,"2009-07-08"
"72306013722","2020-05-17T19:00:00","FM-12","4",,,,,,,,,,,,,,,,,,,,,,,,,,,,,,,,,,,,,,,"60","79",,,"+0.01","5","52","29.97","74","29.53","9.94","67","080",,"8",,,,,,,,,,,,,,,,,,,,,,,,,,,,,,,,,,,,,"SYN08072306 32866 60807 10261 20156 30000 40149 55004 92351 333 10300 20156 555 91800=","FM-12","4",,,,,,,,,,,,,,,,,,,,,,,,,,,,"2009-07-08"
"72306013722","2020-05-17T19:51:00","FM-15","7",,,,,,,,,,,,,,,,,,,,,,,,,,,,,,,,,,,,,,"29.98","60","77","0.00",,,,"56","29.97","SCT:04 75 BKN:07 250","29.51","10.00","66","090",,"8",,,,,,,,,,,,,,,,,,,,,,,,,,,,,,,,,,,,,"MET10005/17/20 19:51:01 METAR KRDU 180051Z 09007KT 10SM SCT075 BKN250 25/16 A2998 RMK AO2 SLP149 T02500156","FM-15","7",,,,,,,,,,,,,,,,,,,,,,,,,,,,"2009-07-08"
"72306013722","2020-05-17T20:51:00","FM-15","7",,,,,,,,,,,,,,,,,,,,,,,,,,,,,,,,,,,,,,"30.00","62","75","0.00",,,,"64","29.99","SCT:04 75 BKN:07 250","29.53","10.00","67","090",,"11",,,,,,,,,,,,,,,,,,,,,,,,,,,,,,,,,,,,,"MET10005/17/20 20:51:01 METAR KRDU 180151Z 09010KT 10SM SCT075 BKN250 24/17 A3000 RMK AO2 SLP155 T02390167","FM-15","7",,,,,,,,,,,,,,,,,,,,,,,,,,,,"2009-07-08"
"72306013722","2020-05-17T21:51:00","FM-15","7",,,,,,,,,,,,,,,,,,,,,,,,,,,,,,,,,,,,,,"30.01","62","72","0.00",,"-0.03","3","71","30.00","FEW:02 65 BKN:07 250","29.54","10.00","66","080","17","8",,,,,,,,,,,,,,,,,,,,,,,,,,,,,,,,,,,,,"MET10905/17/20 21:51:01 METAR KRDU 180251Z 08007G15KT 10SM FEW065 BKN250 22/17 A3001 RMK AO2 SLP159 T02220167 53009","FM-15","7",,,,,,,,,,,,,,,,,,,,,,,,,,,,"2009-07-08"
"72306013722","2020-05-17T22:51:00","FM-15","7",,,,,,,,,,,,,,,,,,,,,,,,,,,,,,,,,,,,,,"30.00","61","70","0.00",,,,"73","29.98","FEW:02 65 BKN:07 250","29.53","10.00","64","080",,"9",,,,,,,,,,,,,,,,,,,,,,,,,,,,,,,,,,,,,"MET10005/17/20 22:51:01 METAR KRDU 180351Z 08008KT 10SM FEW065 BKN250 21/16 A3000 RMK AO2 SLP154 T02110161","FM-15","7",,,,,,,,,,,,,,,,,,,,,,,,,,,,"2009-07-08"
"72306013722","2020-05-17T23:51:00","FM-15","7",,,,,,,,,,,,,,,,,,,,,,,,,,,,,,,,,,,,,,"29.98","61","68","0.00",,,,"78","29.96","FEW:02 65 BKN:07 250","29.51","10.00","64","070",,"8",,,,,,,,,,,,,,,,,,,,,,,,,,,,,,,,,,,,,"MET11005/17/20 23:51:01 METAR KRDU 180451Z 07007KT 10SM FEW065 BKN250 20/16 A2998 RMK AO2 SLP146 T02000161 403000156","FM-15","7",,,,,,,,,,,,,,,,,,,,,,,,,,,,"2009-07-08"
"72306013722","2020-05-17T23:59:00","SOD  ","6",,,,,,,,,,,,,,,"62","73","68","30.03","29.58","66","7.2","8","4.8","0","86","60","090","23","0.00","0","0.0","090","17",,,,,,,,,,,,,,,,,,,,,,,,,,,,,,,,,,,,,,,,,,,,,,,,,,,,,,,,,"SOD76024 HR PRECIPITATION (IN): 0.00 SNOW DEPTH (IN):0     24 HR SNOWFALL (IN):0.0  WEATHER(CODE):1  24 HR MAX TEMP (F): 8624 HR MIN TEMP (F): 60AVERAGE STATION PRESSURE(D):29.581 MINIMUM SEA LEVEL PRESSURE:29.95 TIME OF OCCURRENCE:2359 PEAK WIND SPEED (MPH): 23 PEAK WIND DIR (DEG): 90 PEAK WIND TIME (LST):      FASTEST 2MIN SPEED (MPH): 17FASTEST 2MIN DIR (DEG): 90 FASTEST 2MIN TIME (LST):     AVERAGE WIND SPEED (MPH): 7.2 24 HR AVG TEMP (F): 73DEPART FROM NORMAL:  5  HEATING DEGREE DAYS:  0 COOLING DEGREE DAYS:  8 LATEST DAY MAX TEMP (0700-1900 LST): 86 LATEST NIGHT MIN TEMP(1900-0800 LST):60 HOURLY INCREMENTAL PRECIPITATION VALUES (IN):0.00 0.00 0.00 0.00 0.00 0.00 0.00 0.00 0.00 0.00 0.00 0.00 0.00 0.00 0.00 0.00 0.00 0.00 0.00 0.00 0.00 0.00 0.00 0.00","SOD  ","6",,,,,,,,,,,,,,,,,,,,,,,,,"0508","1916",,"2009-07-08"
"72306013722","2020-05-18T00:51:00","FM-15","7",,,,,,,,,,,,,,,,,,,,,,,,,,,,,,,,,,,,,,"29.95","62","67","0.00",,"+0.06","8","84","29.94","FEW:02 65 BKN:07 250","29.48","10.00","64","050",,"8",,,,,,,,,,,,,,,,,,,,,,,,,,,,,,,,,,,,,"MET12405/18/20 00:51:02 METAR KRDU 180551Z 05007KT 10SM FEW065 BKN250 19/17 A2995 RMK AO2 SLP138 T01940167 10261 20194 58021 (SMK)","FM-15","7",,,,,,,,,,,,,,,,,,,,,,,,,,,,"2009-07-08"
"72306013722","2020-05-18T01:00:00","FM-12","4",,,,,,,,,,,,,,,,,,,,,,,,,,,,,,,,,,,,,,,"62","67",,,"+0.06","8","84","29.94","57","29.49","9.94","64","050",,"8",,,,,,,,,,,,,,,,,,,,,,,,,,,,,,,,,,,,,"SYN08072306 32766 60507 10194 20167 39986 40138 58021 90551 333 10261 20156 555 91806=","FM-12","4",,,,,,,,,,,,,,,,,,,,,,,,,,,,"2009-07-08"
"72306013722","2020-05-18T01:51:00","FM-15","7",,,,,,,,,,,,,,,,,,,,,,,,,,,,,,,,,,,,,,"29.93","63","67","0.00",,,,"87","29.91","SCT:04 35 BKN:07 250","29.46","10.00","65","050",,"10",,,,,,,,,,,,,,,,,,,,,,,,,,,,,,,,,,,,,"MET10605/18/20 01:51:02 METAR KRDU 180651Z 05009KT 10SM SCT035 BKN250 19/17 A2993 RMK AO2 SLP129 T01940172 (SMK)","FM-15","7",,,,,,,,,,,,,,,,,,,,,,,,,,,,"2009-07-08"
"72306013722","2020-05-18T02:51:00","FM-15","7",,,,,,,,,,,,,,,,,,,,,,,,,,,,,,,,,,,,,,"29.90","63","67","0.00",,,,"87","29.89","FEW:02 17 BKN:07 30 OVC:08 250","29.43","10.00","65","040",,"8",,,,,,,,,,,,,,,,,,,,,,,,,,,,,,,,,,,,,"MET11305/18/20 02:51:02 METAR KRDU 180751Z 04007KT 10SM FEW017 BKN030 OVC250 19/17 A2990 RMK AO2 SLP122 T01940172 (SMK)","FM-15","7",,,,,,,,,,,,,,,,,,,,,,,,,,,,"2009-07-08"
"72306013722","2020-05-18T03:23:00","FM-16","7",,,,,,,,,,,,,,,,,,,,,,,,,,,,,,,,,,,,,,"29.91","63","67",,,,,"87",,"BKN:07 10 OVC:08 30","29.44","10.00","65","030",,"8",,,,,,,,,,,,,,,,,,,,,,,,,,,,,,,,,,,,,"MET09905/18/20 03:23:02 SPECI KRDU 180823Z 03007KT 10SM BKN010 OVC030 19/17 A2991 RMK AO2 T01940172 (SMK)","FM-16","7",,,,,,,,,,,,,,,,,,,,,,,,,,,,"2009-07-08"
"72306013722","2020-05-18T03:51:00","FM-15","7",,,,,,,,,,,,,,,,,,,,,,,,,,,,,,,,,,,,,,"29.91","63","66","0.00",,"+0.04","5","90","29.89","BKN:07 9 OVC:08 30","29.44","10.00","64","020",,"6",,,,,,,,,,,,,,,,,,,,,,,,,,,,,,,,,,,,,"MET11205/18/20 03:51:02 METAR KRDU 180851Z 02005KT 10SM BKN009 OVC030 19/17 A2991 RMK AO2 SLP123 T01890172 55015 (SMK)","FM-15","7",,,,,,,,,,,,,,,,,,,,,,,,,,,,"2009-07-08"
"72306013722","2020-05-18T04:51:00","FM-15","7",,,,,,,,,,,,,,,,,,,,,,,,,,,,,,,,,,,,,,"29.91","63","65","T","-RA:02 |RA |RA",,,"93","29.89","OVC:08 7","29.44","7.00","64","030",,"9",,,,,,,,,,,,,,,,,,,,,,,,,,,,,,,,,,,,,"MET11405/18/20 04:51:02 METAR KRDU 180951Z 03008KT 7SM -RA OVC007 18/17 A2991 RMK AO2 RAB48 SLP123 P0000 T01830172 (SMK)","FM-15","7",,,,,,,,,,,,,,,,,,,,,,,,,,,,"2009-07-08"
"72306013722","2020-05-18T05:01:00","FM-16","7",,,,,,,,,,,,,,,,,,,,,,,,,,,,,,,,,,,,,,"29.91","63","65","T","-RA:02 BR:1 |RA |RA",,,"93",,"OVC:08 6","29.44","1.50","64","030",,"10",,,,,,,,,,,,,,,,,,,,,,,,,,,,,,,,,,,,,"MET11805/18/20 05:01:02 SPECI KRDU 181001Z 03009KT 1 1/2SM -RA BR OVC006 18/17 A2991 RMK AO2 SFC VIS 5 P0000 T01830172 (SMK)","FM-16","7",,,,,,,,,,,,,,,,,,,,,,,,,,,,"2009-07-08"
"72306013722","2020-05-18T05:49:00","FM-16","7",,,,,,,,,,,,,,,,,,,,,,,,,,,,,,,,,,,,,,"29.92","63","64","0.01","-DZ:01 BR:1 |DZ |DZ",,,"94",,"OVC:08 6","29.45","3.00","63","360",,"7",,,,,,,,,,,,,,,,,,,,,,,,,,,,,,,,,,,,,"MET10505/18/20 05:49:02 SPECI KRDU 181049Z 36006KT 3SM -DZ BR OVC006 18/17 A2992 RMK AO2 RAE31DZB31 P0001 (SMK)","FM-16","7",,,,,,,,,,,,,,,,,,,,,,,,,,,,"2009-07-08"
"72306013722","2020-05-18T05:51:00","FM-15","7",,,,,,,,,,,,,,,,,,,,,,,,,,,,,,,,,,,,,,"29.92","63","64","0.01","-DZ:01 BR:1 |DZ |DZ",,,"96","29.91","OVC:08 6","29.45","3.00","63","VRB",,"7",,,,,,,,,,,,,,,,,,,,,,,,,,,,,,,,,,,,,"MET12205/18/20 05:51:02 METAR KRDU 181051Z VRB06KT 3SM -DZ BR OVC006 18/17 A2992 RMK AO2 RAE31DZB31 SLP129 P0001 T01780172 (SMK)","FM-15","7",,,,,,,,,,,,,,,,,,,,,,,,,,,,"2009-07-08"
"72306013722","2020-05-18T06:51:00","FM-15","7",,,,,,,,,,,,,,,,,,,,,,,,,,,,,,,,,,,,,,"29.93","63","64","0.01","-RA:02 BR:1 |RA |RA","-0.02","1","96","29.91","BKN:07 5 OVC:08 15","29.46","3.00","63","020",,"7",,,,,,,,,,,,,,,,,,,,,,,,,,,,,,,,,,,,,"MET15905/18/20 06:51:02 METAR KRDU 181151Z 02006KT 3SM -RA BR BKN005 OVC015 18/17 A2993 RMK AO2 DZE41RAB41 SLP130 P0001 60002 70002 T01780172 10200 20178 51006 (KAH)","FM-15","7",,,,,,,,,,,,,,,,,,,,,,,,,,,,"2009-07-08"
"72306013722","2020-05-18T07:00:00","FM-12","4",,,,,,,,,,,,,,,,,,,,,,,,,,,,,,,,,,,,,,,"63","64",,"||RA","-0.02","1","96","29.91","5","29.47","2.98","63","020",,"7",,,,,,,,,,,,,,,,,,,,,,,,,,,,,,,,,,,,,"SYN10472306 11248 80206 10178 20172 39980 40130 51006 69951 761// 91151 333 10300 20178 70005 96010 555 91812=","FM-12","4",,,,,,,,,,,,,,,,,,,,,,,,,,,,"2009-07-08"
"72306013722","2020-05-18T07:51:00","FM-15","7",,,,,,,,,,,,,,,,,,,,,,,,,,,,,,,,,,,,,,"29.93","62","64","0.01","-RA:02 BR:1 |RA |RA",,,"93","29.91","BKN:07 5 OVC:08 10","29.46","4.00","63","020",,"10",,,,,,,,,,,,,,,,,,,,,,,,,,,,,,,,,,,,,"MET11805/18/20 07:51:02 METAR KRDU 181251Z 02009KT 4SM -RA BR BKN005 OVC010 18/17 A2993 RMK AO2 SLP130 P0000 T01780167 (KAH)","FM-15","7",,,,,,,,,,,,,,,,,,,,,,,,,,,,"2009-07-08"
"72306013722","2020-05-18T07:59:00","FM-16","7",,,,,,,,,,,,,,,,,,,,,,,,,,,,,,,,,,,,,,"29.93","63","64","0.01","-RA:02 BR:1 |RA |RA",,,"96",,"BKN:07 5 OVC:08 10","29.46","1.00","63","020",,"7",,,,,,,,,,,,,,,,,,,,,,,,,,,,,,,,,,,,,"MET12505/18/20 07:59:02 SPECI KRDU 181259Z 02006KT 1SM -RA BR BKN005 OVC010 18/17 A2993 RMK AO2 SFC VIS 2 1/2 P0001 T01780172 (KAH)","FM-16","7",,,,,,,,,,,,,,,,,,,,,,,,,,,,"2009-07-08"
"72306013722","2020-05-18T08:22:00","FM-16","7",,,,,,,,,,,,,,,,,,,,,,,,,,,,,,,,,,,,,,"29.92","63","64","0.01","-RA:02 BR:1 |RA |RA",,,"96",,"BKN:07 5 OVC:08 10","29.45","5.00","63","030",,"8",,,,,,,,,,,,,,,,,,,,,,,,,,,,,,,,,,,,,"MET11105/18/20 08:22:02 SPECI KRDU 181322Z 03007KT 5SM -RA BR BKN005 OVC010 18/17 A2992 RMK AO2 P0001 T01780172 (KAH)","FM-16","7",,,,,,,,,,,,,,,,,,,,,,,,,,,,"2009-07-08"
"72306013722","2020-05-18T08:51:00","FM-15","7",,,,,,,,,,,,,,,,,,,,,,,,,,,,,,,,,,,,,,"29.92","63","65","T",,,,"93","29.91","BKN:07 5 OVC:08 10","29.45","10.00","64","030",,"9",,,,,,,,,,,,,,,,,,,,,,,,,,,,,,,,,,,,,"MET11805/18/20 08:51:02 METAR KRDU 181351Z 03008KT 10SM BKN005 OVC010 18/17 A2992 RMK AO2 RAE38 SLP128 P0001 T01830172 (KAH)","FM-15","7",,,,,,,,,,,,,,,,,,,,,,,,,,,,"2009-07-08"
"72306013722","2020-05-18T09:51:00","FM-15","7",,,,,,,,,,,,,,,,,,,,,,,,,,,,,,,,,,,,,,"29.92","64","66","0.00",,"+0.01","8","93","29.91","OVC:08 6","29.45","10.00","65","030","17","9",,,,,,,,,,,,,,,,,,,,,,,,,,,,,,,,,,,,,"MET11405/18/20 09:51:02 METAR KRDU 181451Z 03008G15KT 10SM OVC006 19/18 A2992 RMK AO2 SLP127 60001 T01890178 58002 (KAH)","FM-15","7",,,,,,,,,,,,,,,,,,,,,,,,,,,,"2009-07-08"
"72306013722","2020-05-18T10:51:00","FM-15","7",,,,,,,,,,,,,,,,,,,,,,,,,,,,,,,,,,,,,,"29.93","64","67","T","-RA:02 BR:1 |RA |RA",,,"91","29.92","BKN:07 7 OVC:08 14","29.46","3.00","65","030","16","8",,,,,,,,,,,,,,,,,,,,,,,,,,,,,,,,,,,,,"MET12705/18/20 10:51:02 METAR KRDU 181551Z 03007G14KT 3SM -RA BR BKN007 OVC014 19/18 A2993 RMK AO2 RAB09 SLP132 P0000 T01940178 (KAH)","FM-15","7",,,,,,,,,,,,,,,,,,,,,,,,,,,,"2009-07-08"
"72306013722","2020-05-18T11:51:00","FM-15","7",,,,,,,,,,,,,,,,,,,,,,,,,,,,,,,,,,,,,,"29.92","65","69","T",,,,"87","29.91","BKN:07 9 OVC:08 13","29.45","10.00","66","040",,"8",,,,,,,,,,,,,,,,,,,,,,,,,,,,,,,,,,,,,"MET11805/18/20 11:51:02 METAR KRDU 181651Z 04007KT 10SM BKN009 OVC013 21/18 A2992 RMK AO2 RAE32 SLP128 P0000 T02060183 (KAH)","FM-15","7",,,,,,,,,,,,,,,,,,,,,,,,,,,,"2009-07-08"
"72306013722","2020-05-18T12:51:00","FM-15","7",,,,,,,,,,,,,,,,,,,,,,,,,,,,,,,,,,,,,,"29.92","64","68","0.00",,"+0.00","8","87","29.91","BKN:07 9 OVC:08 13","29.45","10.00","66","010",,"5",,,,,,,,,,,,,,,,,,,,,,,,,,,,,,,,,,,,,"MET13005/18/20 12:51:02 METAR KRDU 181751Z 01004KT 10SM BKN009 OVC013 20/18 A2992 RMK AO2 SLP127 60001 T02000178 10211 20178 58000 (KAH)","FM-15","7",,,,,,,,,,,,,,,,,,,,,,,,,,,,"2009-07-08"
"72306013722","2020-05-18T13:00:00","FM-12","4",,,,,,,,,,,,,,,,,,,,,,,,,,,,,,,,,,,,,,,"64","68",,,,,"87","29.91","8","29.46","9.94","66","010",,"5",,,,,,,,,,,,,,,,,,,,,,,,,,,,,,,,,,,,,"SYN08672306 12366 80104 10200 20178 39976 40127 58000 69931 91751 333 10211 20178 555 91818=","FM-12","4",,,,,,,,,,,,,,,,,,,,,,,,,,,,"2009-07-08"
"72306013722","2020-05-18T13:08:00","FM-16","7",,,,,,,,,,,,,,,,,,,,,,,,,,,,,,,,,,,,,,"29.92","64","69",,,,,"84",,"BKN:07 10 OVC:08 16","29.45","10.00","66","VRB",,"6",,,,,,,,,,,,,,,,,,,,,,,,,,,,,,,,,,,,,"MET09905/18/20 13:08:02 SPECI KRDU 181808Z VRB05KT 10SM BKN010 OVC016 21/18 A2992 RMK AO2 T02060178 (KAH)","FM-16","7",,,,,,,,,,,,,,,,,,,,,,,,,,,,"2009-07-08"
"72306013722","2020-05-18T13:51:00","FM-15","7",,,,,,,,,,,,,,,,,,,,,,,,,,,,,,,,,,,,,,"29.92","64","69","0.00",,,,"84","29.91","BKN:07 10 OVC:08 16","29.45","10.00","66","020",,"6",,,,,,,,,,,,,,,,,,,,,,,,,,,,,,,,,,,,,"MET10605/18/20 13:51:02 METAR KRDU 181851Z 02005KT 10SM BKN010 OVC016 21/18 A2992 RMK AO2 SLP127 T02060178 (KAH)","FM-15","7",,,,,,,,,,,,,,,,,,,,,,,,,,,,"2009-07-08"
"72306013722","2020-05-18T14:51:00","FM-15","7",,,,,,,,,,,,,,,,,,,,,,,,,,,,,,,,,,,,,,"29.90","64","69","0.00",,,,"84","29.89","BKN:07 10 OVC:08 13","29.43","10.00","66","030",,"6",,,,,,,,,,,,,,,,,,,,,,,,,,,,,,,,,,,,,"MET10605/18/20 14:51:02 METAR KRDU 181951Z 03005KT 10SM BKN010 OVC013 21/18 A2990 RMK AO2 SLP121 T02060178 (JBA)","FM-15","7",,,,,,,,,,,,,,,,,,,,,,,,,,,,"2009-07-08"
"72306013722","2020-05-18T15:51:00","FM-15","7",,,,,,,,,,,,,,,,,,,,,,,,,,,,,,,,,,,,,,"29.90","64","69","0.00",,"+0.01","5","84","29.89","OVC:08 11","29.43","10.00","66","050",,"6",,,,,,,,,,,,,,,,,,,,,,,,,,,,,,,,,,,,,"MET10505/18/20 15:51:02 METAR KRDU 182051Z 05005KT 10SM OVC011 21/18 A2990 RMK AO2 SLP122 T02060178 55005 (JBA)","FM-15","7",,,,,,,,,,,,,,,,,,,,,,,,,,,,"2009-07-08"
"72306013722","2020-05-18T16:51:00","FM-15","7",,,,,,,,,,,,,,,,,,,,,,,,,,,,,,,,,,,,,,"29.90","64","68","T",,,,"87","29.89","OVC:08 10","29.43","10.00","66","040",,"7",,,,,,,,,,,,,,,,,,,,,,,,,,,,,,,,,,,,,"MET11405/18/20 16:51:02 METAR KRDU 182151Z 04006KT 10SM OVC010 20/18 A2990 RMK AO2 DZB05E22 SLP123 P0000 T02000178 (JBA)","FM-15","7",,,,,,,,,,,,,,,,,,,,,,,,,,,,"2009-07-08"
"72306013722","2020-05-18T17:51:00","FM-15","7",,,,,,,,,,,,,,,,,,,,,,,,,,,,,,,,,,,,,,"29.91","63","68","0.00",,,,"84","29.90","BKN:07 10 OVC:08 16","29.44","10.00","65","050",,"8",,,,,,,,,,,,,,,,,,,,,,,,,,,,,,,,,,,,,"MET10605/18/20 17:51:02 METAR KRDU 182251Z 05007KT 10SM BKN010 OVC016 20/17 A2991 RMK AO2 SLP124 T02000172 (JBA)","FM-15","7",,,,,,,,,,,,,,,,,,,,,,,,,,,,"2009-07-08"
"72306013722","2020-05-18T18:24:00","FM-16","7",,,,,,,,,,,,,,,,,,,,,,,,,,,,,,,,,,,,,,"29.92","63","67",,,,,"87",,"BKN:07 9 OVC:08 16","29.45","10.00","65","050",,"7",,,,,,,,,,,,,,,,,,,,,,,,,,,,,,,,,,,,,"MET09905/18/20 18:24:02 SPECI KRDU 182324Z 05006KT 10SM BKN009 OVC016 19/17 A2992 RMK AO2 T01940172 (JBA)","FM-16","7",,,,,,,,,,,,,,,,,,,,,,,,,,,,"2009-07-08"
"72306013722","2020-05-18T18:51:00","FM-15","7",,,,,,,,,,,,,,,,,,,,,,,,,,,,,,,,,,,,,,"29.92","63","66","0.00",,"-0.01","3","90","29.91","OVC:08 9","29.45","10.00","64","050",,"9",,,,,,,,,,,,,,,,,,,,,,,,,,,,,,,,,,,,,"MET12305/18/20 18:51:02 METAR KRDU 182351Z 05008KT 10SM OVC009 19/17 A2992 RMK AO2 SLP128 60000 T01890172 10211 20189 53005 (JBA)","FM-15","7",,,,,,,,,,,,,,,,,,,,,,,,,,,,"2009-07-08"
"72306013722","2020-05-18T19:00:00","FM-12","4",,,,,,,,,,,,,,,,,,,,,,,,,,,,,,,,,,,,,,,"63","66",,,"-0.01","3","90","29.91","8","29.46","9.94","64","050",,"9",,,,,,,,,,,,,,,,,,,,,,,,,,,,,,,,,,,,,"SYN08672306 12366 80508 10189 20172 39976 40128 53005 69901 92351 333 10211 20178 555 91900=","FM-12","4",,,,,,,,,,,,,,,,,,,,,,,,,,,,"2009-07-08"
"72306013722","2020-05-18T19:51:00","FM-15","7",,,,,,,,,,,,,,,,,,,,,,,,,,,,,,,,,,,,,,"29.92","63","66","0.00",,,,"90","29.91","OVC:08 9","29.45","10.00","64","050",,"7",,,,,,,,,,,,,,,,,,,,,,,,,,,,,,,,,,,,,"MET09305/18/20 19:51:01 METAR KRDU 190051Z 05006KT 10SM OVC009 19/17 A2992 RMK AO2 SLP129 T01890172","FM-15","7",,,,,,,,,,,,,,,,,,,,,,,,,,,,"2009-07-08"
"72306013722","2020-05-18T20:51:00","FM-15","7",,,,,,,,,,,,,,,,,,,,,,,,,,,,,,,,,,,,,,"29.93","63","65","T","-DZ:01 |DZ |DZ",,,"93","29.93","OVC:08 8","29.46","10.00","64","070","17","13",,,,,,,,,,,,,,,,,,,,,,,,,,,,,,,,,,,,,"MET12005/18/20 20:51:01 METAR KRDU 190151Z 07011G15KT 10SM -DZ OVC008 18/17 A2993 RMK AO2 RAB08E48DZB48 SLP134 P0000 T01830172","FM-15","7",,,,,,,,,,,,,,,,,,,,,,,,,,,,"2009-07-08"
"72306013722","2020-05-18T21:51:00","FM-15","7",,,,,,,,,,,,,,,,,,,,,,,,,,,,,,,,,,,,,,"29.95","63","65","T","-DZ:01 |DZ |DZ","-0.03","3","93","29.94","OVC:08 7","29.48","10.00","64","080",,"10",,,,,,,,,,,,,,,,,,,,,,,,,,,,,,,,,,,,,"MET12405/18/20 21:51:01 METAR KRDU 190251Z 08009KT 10SM -DZ OVC007 18/17 A2995 RMK AO2 DZE22B43 SLP140 P0000 60000 T01830172 53011","FM-15","7",,,,,,,,,,,,,,,,,,,,,,,,,,,,"2009-07-08"
"72306013722","2020-05-18T22:51:00","FM-15","7",,,,,,,,,,,,,,,,,,,,,,,,,,,,,,,,,,,,,,"29.95","62","65","0.02","-RA:02 |RA |RA",,,"90","29.94","OVC:08 7","29.48","7.00","63","080",,"11",,,,,,,,,,,,,,,,,,,,,,,,,,,,,,,,,,,,,"MET11505/18/20 22:51:01 METAR KRDU 190351Z 08010KT 7SM -RA OVC007 18/17 A2995 RMK AO2 DZE0252RAB09 SLP138 P0002 T01830167","FM-15","7",,,,,,,,,,,,,,,,,,,,,,,,,,,,"2009-07-08"
"72306013722","2020-05-18T23:51:00","FM-15","7",,,,,,,,,,,,,,,,,,,,,,,,,,,,,,,,,,,,,,"29.94","62","64","0.02","-RA:02 |RA |RA",,,"93","29.93","OVC:08 8","29.47","10.00","63","090",,"10",,,,,,,,,,,,,,,,,,,,,,,,,,,,,,,,,,,,,"MET11305/18/20 23:51:01 METAR KRDU 190451Z 09009KT 10SM -RA OVC008 18/17 A2994 RMK AO2 SLP135 P0002 T01780167 402110178","FM-15","7",,,,,,,,,,,,,,,,,,,,,,,,,,,,"2009-07-08"
"72306013722","2020-05-18T23:59:00","SOD  ","6",,,,,,,,,,,,,,,"63","67","90","29.91","29.46","65","8.2","2","-1.5","0","70","64","080","19","0.07","0","0.0","080","14","RA DZ BR",,,,,,,,,,,,,,,,,,,,,,,,,,,,,,,,,,,,,,,,,,,,,,,,,,,,,,,,"SOD78324 HR PRECIPITATION (IN): 0.07 SNOW DEPTH (IN):0     24 HR SNOWFALL (IN):0.0  WEATHER(CODE):1  24 HR MAX TEMP (F): 7024 HR MIN TEMP (F): 64AVERAGE STATION PRESSURE:29.455 MINIMUM SEA LEVEL PRESSURE:29.88 TIME OF OCCURRENCE:0257 PEAK WIND SPEED (MPH): 19 PEAK WIND DIR (DEG): 80 PEAK WIND TIME (LST):      FASTEST 2MIN SPEED (MPH): 14FASTEST 2MIN DIR (DEG): 80 FASTEST 2MIN TIME (LST):     AVERAGE WIND SPEED (MPH): 8.2 24 HR AVG TEMP (F): 67DEPART FROM NORMAL: -1  SKY COVER SR-SS (TENTHS): 1HEATING DEGREE DAYS:  0 COOLING DEGREE DAYS:  2 LATEST DAY MAX TEMP (0700-1900 LST):70  LATEST NIGHT MIN TEMP(1900-0800 LST):64 HOURLY INCREMENTAL PRECIPITATION VALUES (IN):.00 0.00 0.00 0.00 T    0.01 0.01 0.01 T    0.00 T    T    0.00 0.00 0.00 0.00 T    0.00 0.00 0.00 T    T    0.02 0.02","SOD  ","6",,,,,,,,,,,,,,,,,,,,,,,,,"0507","1917",,"2009-07-08"
"72306013722","2020-05-19T00:51:00","FM-15","7",,,,,,,,,,,,,,,,,,,,,,,,,,,,,,,,,,,,,,"29.92","62","64","T",,"+0.03","8","93","29.91","OVC:08 7","29.45","10.00","63","080",,"8",,,,,,,,,,,,,,,,,,,,,,,,,,,,,,,,,,,,,"MET13505/19/20 00:51:02 METAR KRDU 190551Z 08007KT 10SM OVC007 18/17 A2992 RMK AO2 RAE48 SLP130 P0000 60004 T01780167 10189 20178 58009 (AWB)","FM-15","7",,,,,,,,,,,,,,,,,,,,,,,,,,,,"2009-07-08"
"72306013722","2020-05-19T01:00:00","FM-12","4",,,,,,,,,,,,,,,,,,,,,,,,,,,,,,,,,,,,,,,"62","64",,,"+0.03","8","93","29.91","8","29.46","9.94","63","080",,"8",,,,,,,,,,,,,,,,,,,,,,,,,,,,,,,,,,,,,"SYN08672306 12366 80807 10178 20167 39976 40130 58009 60011 90551 333 10200 20178 555 91906=","FM-12","4",,,,,,,,,,,,,,,,,,,,,,,,,,,,"2009-07-08"
"72306013722","2020-05-19T01:51:00","FM-15","7",,,,,,,,,,,,,,,,,,,,,,,,,,,,,,,,,,,,,,"29.91","61","63","0.00",,,,"93","29.90","OVC:08 7","29.44","10.00","62","090",,"10",,,,,,,,,,,,,,,,,,,,,,,,,,,,,,,,,,,,,"MET09905/19/20 01:51:02 METAR KRDU 190651Z 09009KT 10SM OVC007 17/16 A2991 RMK AO2 SLP126 T01720161 (AWB)","FM-15","7",,,,,,,,,,,,,,,,,,,,,,,,,,,,"2009-07-08"
"72306013722","2020-05-19T02:51:00","FM-15","7",,,,,,,,,,,,,,,,,,,,,,,,,,,,,,,,,,,,,,"29.90","61","63","0.11","RA:02 BR:1 |RA |RA",,,"93","29.89","OVC:08 6","29.43","2.00","62","090",,"10",,,,,,,,,,,,,,,,,,,,,,,,,,,,,,,,,,,,,"MET11605/19/20 02:51:02 METAR KRDU 190751Z 09009KT 2SM RA BR OVC006 17/16 A2990 RMK AO2 RAB37 SLP123 P0001 T01720161 (AWB)","FM-15","7",,,,,,,,,,,,,,,,,,,,,,,,,,,,"2009-07-08"
"72306013722","2020-05-19T03:04:00","FM-16","7",,,,,,,,,,,,,,,,,,,,,,,,,,,,,,,,,,,,,,"29.90","61","63","0.14","-RA:02 BR:1 |RA |RA",,,"93",,"BKN:07 6 BKN:07 12 OVC:08 50","29.43","5.00","62","080",,"14",,,,,,,,,,,,,,,,,,,,,,,,,,,,,,,,,,,,,"MET11805/19/20 03:04:02 SPECI KRDU 190804Z 08012KT 5SM -RA BR BKN006 BKN012 OVC050 17/16 A2990 RMK AO2 P0014 T01720161 (AWB)","FM-16","7",,,,,,,,,,,,,,,,,,,,,,,,,,,,"2009-07-08"
"72306013722","2020-05-19T03:51:00","FM-15","7",,,,,,,,,,,,,,,,,,,,,,,,,,,,,,,,,,,,,,"29.90","61","63","0.05","-RA:02 |RA |RA","+0.02","6","93","29.89","OVC:08 6","29.43","9.00","62","080","21","13",,,,,,,,,,,,,,,,,,,,,,,,,,,,,,,,,,,,,"MET12305/19/20 03:51:02 METAR KRDU 190851Z 08011G18KT 9SM -RA OVC006 17/16 A2990 RMK AO2 SLP122 P0015 60016 T01720161 56008 (AWB)","FM-15","7",,,,,,,,,,,,,,,,,,,,,,,,,,,,"2009-07-08"
"72306013722","2020-05-19T04:51:00","FM-15","7",,,,,,,,,,,,,,,,,,,,,,,,,,,,,,,,,,,,,,"29.90","61","62","T",,,,"96","29.89","OVC:08 5","29.43","10.00","61","090",,"10",,,,,,,,,,,,,,,,,,,,,,,,,,,,,,,,,,,,,"MET11105/19/20 04:51:02 METAR KRDU 190951Z 09009KT 10SM OVC005 17/16 A2990 RMK AO2 RAE17 SLP122 P0000 T01670161 (AWB)","FM-15","7",,,,,,,,,,,,,,,,,,,,,,,,,,,,"2009-07-08"
"72306013722","2020-05-19T05:06:00","FM-16","7",,,,,,,,,,,,,,,,,,,,,,,,,,,,,,,,,,,,,,"29.91","60","62","T","-RA:02 BR:1 |RA |RA",,,"93",,"OVC:08 4","29.44","4.00","61","090","25","17",,,,,,,,,,,,,,,,,,,,,,,,,,,,,,,,,,,,,"MET11305/19/20 05:06:02 SPECI KRDU 191006Z 09015G22KT 4SM -RA BR OVC004 17/16 A2991 RMK AO2 RAB05 P0000 T01670156 (AWB)","FM-16","7",,,,,,,,,,,,,,,,,,,,,,,,,,,,"2009-07-08"
"72306013722","2020-05-19T05:20:00","FM-16","7",,,,,,,,,,,,,,,,,,,,,,,,,,,,,,,,,,,,,,"29.91","60","62","0.03","-RA:02 BR:1 |RA |RA",,,"93",,"FEW:02 3 BKN:07 6 OVC:08 11","29.44","4.00","61","090","21","15",,,,,,,,,,,,,,,,,,,,,,,,,,,,,,,,,,,,,"MET12705/19/20 05:20:02 SPECI KRDU 191020Z 09013G18KT 4SM -RA BR FEW003 BKN006 OVC011 17/16 A2991 RMK AO2 RAB05 P0003 T01670156 (AWB)","FM-16","7",,,,,,,,,,,,,,,,,,,,,,,,,,,,"2009-07-08"
"72306013722","2020-05-19T05:51:00","FM-15","7",,,,,,,,,,,,,,,,,,,,,,,,,,,,,,,,,,,,,,"29.91","60","62","0.10","-RA:02 |RA |RA",,,"93","29.90","SCT:04 8 BKN:07 32 OVC:08 50","29.44","8.00","61","090",,"16",,,,,,,,,,,,,,,,,,,,,,,,,,,,,,,,,,,,,"MET12805/19/20 05:51:02 METAR KRDU 191051Z 09014KT 8SM -RA SCT008 BKN032 OVC050 17/16 A2991 RMK AO2 RAB05 SLP125 P0010 T01670156 (AWB)","FM-15","7",,,,,,,,,,,,,,,,,,,,,,,,,,,,"2009-07-08"
"72306013722","2020-05-19T06:05:00","FM-16","7",,,,,,,,,,,,,,,,,,,,,,,,,,,,,,,,,,,,,,"29.92","60","62","0.01","-RA:02 BR:1 |RA |RA",,,"93",,"BKN:07 6 BKN:07 15 OVC:08 32","29.45","4.00","61","090","21","10",,,,,,,,,,,,,,,,,,,,,,,,,,,,,,,,,,,,,"MET12105/19/20 06:05:02 SPECI KRDU 191105Z 09009G18KT 4SM -RA BR BKN006 BKN015 OVC032 17/16 A2992 RMK AO2 P0001 T01670156 (KAH)","FM-16","7",,,,,,,,,,,,,,,,,,,,,,,,,,,,"2009-07-08"
"72306013722","2020-05-19T06:51:00","FM-15","7",,,,,,,,,,,,,,,,,,,,,,,,,,,,,,,,,,,,,,"29.93","59","61","0.04","-RA:02 BR:1 |RA |RA","-0.03","3","93","29.92","BKN:07 6 BKN:07 12 OVC:08 30","29.46","6.00","60","080","22","13",,,,,,,,,,,,,,,,,,,,,,,,,,,,,,,,,,,,,"MET16705/19/20 06:51:02 METAR KRDU 191151Z 08011G19KT 6SM -RA BR BKN006 BKN012 OVC030 16/15 A2993 RMK AO2 RAE34B50 SLP132 P0003 60029 70034 T01610150 10178 20161 53009 (KAH)","FM-15","7",,,,,,,,,,,,,,,,,,,,,,,,,,,,"2009-07-08"
"72306013722","2020-05-19T07:00:00","FM-12","4",,,,,,,,,,,,,,,,,,,,,,,,,,,,,,,,,,,,,,,"59","61",,"||RA","-0.03","3","93","29.92","5","29.47","5.59","60","080",,"13",,,,,,,,,,,,,,,,,,,,,,,,,,,,,,,,,,,,,"SYN11072306 11259 80811 10161 20150 39980 40132 53009 60071 761// 91151 333 10211 20161 70086 91019 96010 555 91912=","FM-12","4",,,,,,,,,,,,,,,,,,,,,,,,,,,,"2009-07-08"
"72306013722","2020-05-19T07:25:00","FM-16","7",,,,,,,,,,,,,,,,,,,,,,,,,,,,,,,,,,,,,,"29.93","59","61","0.06","RA:02 BR:1 |RA |RA",,,"93",,"BKN:07 6 OVC:08 15","29.46","1.00","60","070","22","9",,,,,,,,,,,,,,,,,,,,,,,,,,,,,,,,,,,,,"MET12305/19/20 07:25:02 SPECI KRDU 191225Z 07008G19KT 1SM RA BR BKN006 OVC015 16/15 A2993 RMK AO2 SFC VIS 2 P0006 T01610150 (KAH)","FM-16","7",,,,,,,,,,,,,,,,,,,,,,,,,,,,"2009-07-08"
"72306013722","2020-05-19T07:46:00","FM-16","7",,,,,,,,,,,,,,,,,,,,,,,,,,,,,,,,,,,,,,"29.94","57","61","0.13",,,,"88",,"BKN:07 6 BKN:07 12 OVC:08 30","29.47","10.00","59","080",,"13",,,,,,,,,,,,,,,,,,,,,,,,,,,,,,,,,,,,,"MET10805/19/20 07:46:02 SPECI KRDU 191246Z 08011KT 10SM BKN006 BKN012 OVC030 16/14 A2994 RMK AO2 RAE46 P0013 (KAH)","FM-16","7",,,,,,,,,,,,,,,,,,,,,,,,,,,,"2009-07-08"
"72306013722","2020-05-19T07:51:00","FM-15","7",,,,,,,,,,,,,,,,,,,,,,,,,,,,,,,,,,,,,,"29.94","58","60","0.12",,,,"93","29.93","BKN:07 6 BKN:07 12 OVC:08 30","29.47","10.00","59","070",,"13",,,,,,,,,,,,,,,,,,,,,,,,,,,,,,,,,,,,,"MET12505/19/20 07:51:02 METAR KRDU 191251Z 07011KT 10SM BKN006 BKN012 OVC030 16/14 A2994 RMK AO2 RAE46 SLP136 P0013 T01560144 (KAH)","FM-15","7",,,,,,,,,,,,,,,,,,,,,,,,,,,,"2009-07-08"
"72306013722","2020-05-19T08:51:00","FM-15","7",,,,,,,,,,,,,,,,,,,,,,,,,,,,,,,,,,,,,,"29.95","58","60","0.00",,,,"93","29.94","BKN:07 7 OVC:08 11","29.48","10.00","59","080","23","15",,,,,,,,,,,,,,,,,,,,,,,,,,,,,,,,,,,,,"MET10905/19/20 08:51:02 METAR KRDU 191351Z 08013G20KT 10SM BKN007 OVC011 16/14 A2995 RMK AO2 SLP139 T01560144 (KAH)","FM-15","7",,,,,,,,,,,,,,,,,,,,,,,,,,,,"2009-07-08"
"72306013722","2020-05-19T09:51:00","FM-15","7",,,,,,,,,,,,,,,,,,,,,,,,,,,,,,,,,,,,,,"29.96","58","59","0.04","-RA:02 BR:1 |RA |RA","-0.02","3","96","29.95","BKN:07 6 OVC:08 11","29.49","3.00","58","070",,"8",,,,,,,,,,,,,,,,,,,,,,,,,,,,,,,,,,,,,"MET13605/19/20 09:51:02 METAR KRDU 191451Z 07007KT 3SM -RA BR BKN006 OVC011 15/14 A2996 RMK AO2 RAB37 SLP142 P0002 60015 T01500144 53006 (KAH)","FM-15","7",,,,,,,,,,,,,,,,,,,,,,,,,,,,"2009-07-08"
"72306013722","2020-05-19T10:51:00","FM-15","7",,,,,,,,,,,,,,,,,,,,,,,,,,,,,,,,,,,,,,"29.96","57","59","0.02","-RA:02 |RA |RA",,,"93","29.95","BKN:07 7 OVC:08 11","29.49","10.00","58","070","20","14",,,,,,,,,,,,,,,,,,,,,,,,,,,,,,,,,,,,,"MET11905/19/20 10:51:02 METAR KRDU 191551Z 07012G17KT 10SM -RA BKN007 OVC011 15/14 A2996 RMK AO2 SLP142 P0004 T01500139 (KAH)","FM-15","7",,,,,,,,,,,,,,,,,,,,,,,,,,,,"2009-07-08"
"72306013722","2020-05-19T11:51:00","FM-15","7",,,,,,,,,,,,,,,,,,,,,,,,,,,,,,,,,,,,,,"29.96","57","59","0.01",,,,"93","29.95","BKN:07 8 OVC:08 22","29.49","10.00","58","070","22","13",,,,,,,,,,,,,,,,,,,,,,,,,,,,,,,,,,,,,"MET12105/19/20 11:51:02 METAR KRDU 191651Z 07011G19KT 10SM BKN008 OVC022 15/14 A2996 RMK AO2 RAE49 SLP141 P0001 T01500139 (KAH)","FM-15","7",,,,,,,,,,,,,,,,,,,,,,,,,,,,"2009-07-08"
"72306013722","2020-05-19T12:38:00","FM-16","7",,,,,,,,,,,,,,,,,,,,,,,,,,,,,,,,,,,,,,"29.95","57","59","T","-RA:02 BR:1 |RA |RA",,,"93",,"BKN:07 6 OVC:08 12","29.48","2.00","58","070","21","14",,,,,,,,,,,,,,,,,,,,,,,,,,,,,,,,,,,,,"MET12005/19/20 12:38:02 SPECI KRDU 191738Z 07012G18KT 2SM -RA BR BKN006 OVC012 15/14 A2995 RMK AO2 RAB06 P0000 T01500139 (KAH)","FM-16","7",,,,,,,,,,,,,,,,,,,,,,,,,,,,"2009-07-08"
"72306013722","2020-05-19T12:51:00","FM-15","7",,,,,,,,,,,,,,,,,,,,,,,,,,,,,,,,,,,,,,"29.95","57","59","T","-RA:02 BR:1 |RA |RA","+0.01","8","93","29.94","BKN:07 6 OVC:08 12","29.48","2.00","58","080","22","13",,,,,,,,,,,,,,,,,,,,,,,,,,,,,,,,,,,,,"MET15105/19/20 12:51:02 METAR KRDU 191751Z 08011G19KT 2SM -RA BR BKN006 OVC012 15/14 A2995 RMK AO2 RAB06 SLP138 P0000 60020 T01500139 10161 20150 58004 (KAH)","FM-15","7",,,,,,,,,,,,,,,,,,,,,,,,,,,,"2009-07-08"
"72306013722","2020-05-19T13:00:00","FM-12","4",,,,,,,,,,,,,,,,,,,,,,,,,,,,,,,,,,,,,,,"57","59",,"||RA","+0.01","8","93","29.94","5","29.49","1.99","58","080",,"13",,,,,,,,,,,,,,,,,,,,,,,,,,,,,,,,,,,,,"SYN10472306 11232 80811 10150 20139 39986 40138 58004 60051 761// 91751 333 10178 20150 91019 96010 555 91918=","FM-12","4",,,,,,,,,,,,,,,,,,,,,,,,,,,,"2009-07-08"
"72306013722","2020-05-19T13:14:00","FM-16","7",,,,,,,,,,,,,,,,,,,,,,,,,,,,,,,,,,,,,,"29.95","57","59","T","-DZ:01 BR:1 |DZ |DZ",,,"93",,"BKN:07 6 OVC:08 13","29.48","4.00","58","070",,"13",,,,,,,,,,,,,,,,,,,,,,,,,,,,,,,,,,,,,"MET12205/19/20 13:14:02 SPECI KRDU 191814Z 07011KT 4SM -DZ BR BKN006 OVC013 15/14 A2995 RMK AO2 RAE14DZB14 P0000 T01500139 (KAH)","FM-16","7",,,,,,,,,,,,,,,,,,,,,,,,,,,,"2009-07-08"
"72306013722","2020-05-19T13:51:00","FM-15","7",,,,,,,,,,,,,,,,,,,,,,,,,,,,,,,,,,,,,,"29.96","57","59","T","-DZ:01 BR:1 |DZ |DZ",,,"93","29.95","BKN:07 6 OVC:08 13","29.49","3.00","58","070",,"11",,,,,,,,,,,,,,,,,,,,,,,,,,,,,,,,,,,,,"MET12905/19/20 13:51:02 METAR KRDU 191851Z 07010KT 3SM -DZ BR BKN006 OVC013 15/14 A2996 RMK AO2 RAE14DZB14 SLP143 P0000 T01500139 (KAH)","FM-15","7",,,,,,,,,,,,,,,,,,,,,,,,,,,,"2009-07-08"
"72306013722","2020-05-19T14:08:00","FM-16","7",,,,,,,,,,,,,,,,,,,,,,,,,,,,,,,,,,,,,,"29.96","57","59","0.01","-DZ:01 BR:1 |DZ |DZ",,,"93",,"BKN:07 6 OVC:08 15","29.49","2.50","58","070","21","13",,,,,,,,,,,,,,,,,,,,,,,,,,,,,,,,,,,,,"MET12805/19/20 14:08:02 SPECI KRDU 191908Z 07011G18KT 2 1/2SM -DZ BR BKN006 OVC015 15/14 A2996 RMK AO2 TWR VIS 3 P0001 T01500139 (JBA)","FM-16","7",,,,,,,,,,,,,,,,,,,,,,,,,,,,"2009-07-08"
"72306013722","2020-05-19T14:24:00","FM-16","7",,,,,,,,,,,,,,,,,,,,,,,,,,,,,,,,,,,,,,"29.96","57","59","0.02","-DZ:01 BR:1 |DZ |DZ",,,"93",,"BKN:07 6 OVC:08 15","29.49","3.00","58","060","20","9",,,,,,,,,,,,,,,,,,,,,,,,,,,,,,,,,,,,,"MET11405/19/20 14:24:02 SPECI KRDU 191924Z 06008G17KT 3SM -DZ BR BKN006 OVC015 15/14 A2996 RMK AO2 P0002 T01500139 (JBA)","FM-16","7",,,,,,,,,,,,,,,,,,,,,,,,,,,,"2009-07-08"
"72306013722","2020-05-19T14:49:00","FM-16","6",,,,,,,,,,,,,,,,,,,,,,,,,,,,,,,,,,,,,,"29.96","57","59",,"-DZ:01 BR:1 |DZ |DZ",,,"94",,"BKN:07 6 OVC:08 20","29.49","2.50","58","060","18","13",,,,,,,,,,,,,,,,,,,,,,,,,,,,,,,,,,,,,"MET12305/19/20 14:49:02 SPECI KRDU 191949Z 06011G16KT 2 1/2SM -DZ BR BKN006 OVC020 15/14 A2996 RMK AO2 TWR VIS 3 P0002 FIBI (JBA)","FM-16","6",,,,,,,,,,,,,,,,,,,,,,,,,,,,"2009-07-08"
"72306013722","2020-05-19T14:51:00","FM-15","7",,,,,,,,,,,,,,,,,,,,,,,,,,,,,,,,,,,,,,"29.97","57","59","0.02","-DZ:01 BR:1 |DZ |DZ",,,"93","29.96","BKN:07 6 OVC:08 20","29.50","2.50","58","070","18","11",,,,,,,,,,,,,,,,,,,,,,,,,,,,,,,,,,,,,"MET13505/19/20 14:51:02 METAR KRDU 191951Z 07010G16KT 2 1/2SM -DZ BR BKN006 OVC020 15/14 A2997 RMK AO2 TWR VIS 3 SLP145 P0002 T01500139 (JBA)","FM-15","7",,,,,,,,,,,,,,,,,,,,,,,,,,,,"2009-07-08"
"72306013722","2020-05-19T15:51:00","FM-15","7",,,,,,,,,,,,,,,,,,,,,,,,,,,,,,,,,,,,,,"29.96","57","58","0.01","-DZ:01 BR:1 |DZ |DZ","-0.01","0","97","29.95","BKN:07 6 OVC:08 20","29.49","2.00","57","060","22","14",,,,,,,,,,,,,,,,,,,,,,,,,,,,,,,,,,,,,"MET14305/19/20 15:51:02 METAR KRDU 192051Z 06012G19KT 2SM -DZ BR BKN006 OVC020 14/14 A2996 RMK AO2 TWR VIS 3 SLP142 P0001 60003 T01440139 50002 (JBA)","FM-15","7",,,,,,,,,,,,,,,,,,,,,,,,,,,,"2009-07-08"
"72306013722","2020-05-19T16:51:00","FM-15","7",,,,,,,,,,,,,,,,,,,,,,,,,,,,,,,,,,,,,,"29.96","56","57","0.01","-DZ:01 BR:1 |DZ |DZ",,,"96","29.96","BKN:07 6 OVC:08 15","29.49","2.00","56","070",,"14",,,,,,,,,,,,,,,,,,,,,,,,,,,,,,,,,,,,,"MET12805/19/20 16:51:02 METAR KRDU 192151Z 07012KT 2SM -DZ BR BKN006 OVC015 14/13 A2996 RMK AO2 TWR VIS 3 SLP145 P0001 T01390133 (JBA)","FM-15","7",,,,,,,,,,,,,,,,,,,,,,,,,,,,"2009-07-08"
"72306013722","2020-05-19T17:05:00","FM-16","7",,,,,,,,,,,,,,,,,,,,,,,,,,,,,,,,,,,,,,"29.97","55","57","T","BR:1 ||",,,"93",,"BKN:07 6 OVC:08 17","29.50","3.00","56","060","23","13",,,,,,,,,,,,,,,,,,,,,,,,,,,,,,,,,,,,,"MET11605/19/20 17:05:02 SPECI KRDU 192205Z 06011G20KT 3SM BR BKN006 OVC017 14/13 A2997 RMK AO2 DZE05 P0000 T01390128 (JBA)","FM-16","7",,,,,,,,,,,,,,,,,,,,,,,,,,,,"2009-07-08"
"72306013722","2020-05-19T17:51:00","FM-15","7",,,,,,,,,,,,,,,,,,,,,,,,,,,,,,,,,,,,,,"29.98","55","56","0.01","-RA:02 BR:1 |RA |RA",,,"97","29.97","BKN:07 6 OVC:08 17","29.51","3.00","55","060","25","14",,,,,,,,,,,,,,,,,,,,,,,,,,,,,,,,,,,,,"MET13205/19/20 17:51:02 METAR KRDU 192251Z 06012G22KT 3SM -RA BR BKN006 OVC017 13/13 A2998 RMK AO2 DZE05RAB24 SLP149 P0001 T01330128 (JBA)","FM-15","7",,,,,,,,,,,,,,,,,,,,,,,,,,,,"2009-07-08"
"72306013722","2020-05-19T18:43:00","FM-16","7",,,,,,,,,,,,,,,,,,,,,,,,,,,,,,,,,,,,,,"29.99","54","56","0.01","RA:02 BR:1 |RA |RA",,,"93",,"BKN:07 7 OVC:08 15","29.52","2.00","55","080","28","16",,,,,,,,,,,,,,,,,,,,,,,,,,,,,,,,,,,,,"MET12305/19/20 18:43:02 SPECI KRDU 192343Z 08014G24KT 2SM RA BR BKN007 OVC015 13/12 A2999 RMK AO2 TWR VIS 3 P0001 T01330122 (JBA)","FM-16","7",,,,,,,,,,,,,,,,,,,,,,,,,,,,"2009-07-08"
"72306013722","2020-05-19T18:51:00","FM-15","7",,,,,,,,,,,,,,,,,,,,,,,,,,,,,,,,,,,,,,"30.00","54","56","0.13s","RA:02 BR:1 |RA |RA","-0.04","3","93","29.99","BKN:07 7 OVC:08 15","29.53","2.00","55","070","25","15",,,,,,,,,,,,,,,,,,,,,,,,,,,,,,,,,,,,,"MET15405/19/20 18:51:02 METAR KRDU 192351Z 07013G22KT 2SM RA BR BKN007 OVC015 13/12 A3000 RMK AO2 TWR VIS 3 SLP156 P0006 60011 T01330122 10156 20133 53014 (JBA)","FM-15","7",,,,,,,,,,,,,,,,,,,,,,,,,,,,"2009-07-08"
"72306013722","2020-05-19T19:00:00","FM-12","4",,,,,,,,,,,,,,,,,,,,,,,,,,,,,,,,,,,,,,,"54","56",,"||RA","-0.04","3","93","29.99","8","29.54","1.99","55","070",,"15",,,,,,,,,,,,,,,,,,,,,,,,,,,,,,,,,,,,,"SYN10472306 11332 80713 10133 20122 30003 40156 53014 60031 763// 92351 333 10161 20133 91022 96010 555 92000=","FM-12","4",,,,,,,,,,,,,,,,,,,,,,,,,,,,"2009-07-08"
"72306013722","2020-05-19T19:18:00","FM-16","7",,,,,,,,,,,,,,,,,,,,,,,,,,,,,,,,,,,,,,"30.01","54","56","0.14","-RA:02 BR:1 |RA |RA",,,"93",,"BKN:07 7 OVC:08 17","29.54","3.00","55","060",,"11",,,,,,,,,,,,,,,,,,,,,,,,,,,,,,,,,,,,,"MET10505/19/20 19:18:01 SPECI KRDU 200018Z 06010KT 3SM -RA BR BKN007 OVC017 13/12 A3001 RMK AO2 P0014 T01330122","FM-16","7",,,,,,,,,,,,,,,,,,,,,,,,,,,,"2009-07-08"
"72306013722","2020-05-19T19:51:00","FM-15","7",,,,,,,,,,,,,,,,,,,,,,,,,,,,,,,,,,,,,,"30.02","53","55","0.08","-DZ:01 BR:1 |DZ |DZ",,,"93","30.01","BKN:07 7 OVC:08 17","29.55","3.00","54","070","24","16",,,,,,,,,,,,,,,,,,,,,,,,,,,,,,,,,,,,,"MET13605/19/20 19:51:01 METAR KRDU 200051Z 07014G21KT 3SM -DZ BR BKN007 OVC017 13/12 A3002 RMK AO2 SFC VIS 5 RAE48DZB48 SLP163 P0015 T01280117","FM-15","7",,,,,,,,,,,,,,,,,,,,,,,,,,,,"2009-07-08"
"72306013722","2020-05-19T20:25:00","FM-16","7",,,,,,,,,,,,,,,,,,,,,,,,,,,,,,,,,,,,,,"30.04","53","55","0.01","-DZ:01 BR:1 |DZ |DZ",,,"93",,"SCT:04 7 BKN:07 13 OVC:08 23","29.57","3.00","54","070","23","14",,,,,,,,,,,,,,,,,,,,,,,,,,,,,,,,,,,,,"MET12505/19/20 20:25:01 SPECI KRDU 200125Z 07012G20KT 3SM -DZ BR SCT007 BKN013 OVC023 13/12 A3004 RMK AO2 SFC VIS 5 P0001 T01280117","FM-16","7",,,,,,,,,,,,,,,,,,,,,,,,,,,,"2009-07-08"
"72306013722","2020-05-19T20:51:00","FM-15","7",,,,,,,,,,,,,,,,,,,,,,,,,,,,,,,,,,,,,,"30.04","52","54","0.01","-DZ:01 BR:1 |DZ |DZ",,,"93","30.03","SCT:04 7 BKN:07 10 OVC:08 23","29.57","3.00","53","060","28","18",,,,,,,,,,,,,,,,,,,,,,,,,,,,,,,,,,,,,"MET13205/19/20 20:51:01 METAR KRDU 200151Z 06016G24KT 3SM -DZ BR SCT007 BKN010 OVC023 12/11 A3004 RMK AO2 SFC VIS 4 SLP169 P0001 T01220111","FM-15","7",,,,,,,,,,,,,,,,,,,,,,,,,,,,"2009-07-08"
"72306013722","2020-05-19T21:42:00","FM-16","7",,,,,,,,,,,,,,,,,,,,,,,,,,,,,,,,,,,,,,"30.05","53","54","T","-DZ:01 BR:1 |DZ |DZ",,,"97",,"BKN:07 7 BKN:07 13 OVC:08 23","29.58","3.00","53","070",,"10",,,,,,,,,,,,,,,,,,,,,,,,,,,,,,,,,,,,,"MET14005/19/20 21:42:01 SPECI KRDU 200242Z 07009KT 3SM -DZ BR BKN007 BKN013 OVC023 12/12 A3005 RMK AO2 PK WND 08026/0152 SFC VIS 5 P0000 T01220117","FM-16","7",,,,,,,,,,,,,,,,,,,,,,,,,,,,"2009-07-08"
"72306013722","2020-05-19T21:51:00","FM-15","7",,,,,,,,,,,,,,,,,,,,,,,,,,,,,,,,,,,,,,"30.05","53","54","T","-DZ:01 BR:1 |DZ |DZ","-0.06","1","97","30.05","BKN:07 7 BKN:07 13 OVC:08 23","29.58","3.00","53","070",,"8",,,,,,,,,,,,,,,,,,,,,,,,,,,,,,,,,,,,,"MET15905/19/20 21:51:01 METAR KRDU 200251Z 07007KT 3SM -DZ BR BKN007 BKN013 OVC023 12/12 A3005 RMK AO2 PK WND 08026/0152 SFC VIS 4 SLP175 P0000 60016 T01220117 51019","FM-15","7",,,,,,,,,,,,,,,,,,,,,,,,,,,,"2009-07-08"
"72306013722","2020-05-19T22:51:00","FM-15","7",,,,,,,,,,,,,,,,,,,,,,,,,,,,,,,,,,,,,,"30.05","53","54","0.01","-RA:02 |RA |RA",,,"97","30.04","BKN:07 8 OVC:08 14","29.58","3.00","53","070",,"10",,,,,,,,,,,,,,,,,,,,,,,,,,,,,,,,,,,,,"MET13005/19/20 22:51:01 METAR KRDU 200351Z 07009KT 3SM -RA BKN008 OVC014 12/12 A3005 RMK AO2 SFC VIS 8 DZE07RAB07 SLP173 P0001 T01220117","FM-15","7",,,,,,,,,,,,,,,,,,,,,,,,,,,,"2009-07-08"
"72306013722","2020-05-19T23:51:00","FM-15","7",,,,,,,,,,,,,,,,,,,,,,,,,,,,,,,,,,,,,,"30.05","53","54","0.02","-RA:02 BR:1 |RA |RA",,,"97","30.05","BKN:07 8 BKN:07 14 OVC:08 20","29.58","3.00","53","050","22","13",,,,,,,,,,,,,,,,,,,,,,,,,,,,,,,,,,,,,"MET13205/19/20 23:51:01 METAR KRDU 200451Z 05011G19KT 3SM -RA BR BKN008 BKN014 OVC020 12/12 A3005 RMK AO2 SLP175 P0001 T01220117 401780122","FM-15","7",,,,,,,,,,,,,,,,,,,,,,,,,,,,"2009-07-08"
"72306013722","2020-05-19T23:59:00","SOD  ","6",,,,,,,,,,,,,,,"57","59","94","29.95","29.47","58","12.5","0","-9.8","6","64","54","080","30","0.79","0","0.0","060","22","RA DZ BR",,,,,,,,,,,,,,,,,,,,,,,,,,,,,,,,,,,,,,,,,,,,,,,,,,,,,,,,"SOD78324 HR PRECIPITATION (IN): 0.79 SNOW DEPTH (IN):0     24 HR SNOWFALL (IN):0.0  WEATHER(CODE):1  24 HR MAX TEMP (F): 6424 HR MIN TEMP (F): 54AVERAGE STATION PRESSURE:29.475 MINIMUM SEA LEVEL PRESSURE:29.89 TIME OF OCCURRENCE:0544 PEAK WIND SPEED (MPH): 30 PEAK WIND DIR (DEG): 80 PEAK WIND TIME (LST):      FASTEST 2MIN SPEED (MPH): 22FASTEST 2MIN DIR (DEG): 60 FASTEST 2MIN TIME (LST):     AVERAGE WIND SPEED (MPH):12.5 24 HR AVG TEMP (F): 59DEPART FROM NORMAL:-10  SKY COVER SR-SS (TENTHS): 1HEATING DEGREE DAYS:  6 COOLING DEGREE DAYS:  0 LATEST DAY MAX TEMP (0700-1900 LST):61  LATEST NIGHT MIN TEMP(1900-0800 LST):60 HOURLY INCREMENTAL PRECIPITATION VALUES (IN):    0.00 0.11 0.05 T    0.10 0.04 0.12 0.00 0.04 0.02 0.01 T    T    0.02 0.01 0.01 0.01 0.13 0.08 0.01 T    0.01 0.02","SOD  ","6",,,,,,,,,,,,,,,,,,,,,,,,,"0506","1918",,"2009-07-08"
"72306013722","2020-05-20T00:51:00","FM-15","7",,,,,,,,,,,,,,,,,,,,,,,,,,,,,,,,,,,,,,"30.03","52","54","0.01","-RA:02 |RA |RA","+0.02","8","93","30.03","BKN:07 8 BKN:07 15 OVC:08 33","29.56","3.00","53","060","23","15",,,,,,,,,,,,,,,,,,,,,,,,,,,,,,,,,,,,,"MET15905/20/20 00:51:02 METAR KRDU 200551Z 06013G20KT 3SM -RA BKN008 BKN015 OVC033 12/11 A3003 RMK AO2 SFC VIS 9 SLP168 P0002 60020 T01220111 10133 20122 58006 (AWB)","FM-15","7",,,,,,,,,,,,,,,,,,,,,,,,,,,,"2009-07-08"
"72306013722","2020-05-20T01:00:00","FM-12","4",,,,,,,,,,,,,,,,,,,,,,,,,,,,,,,,,,,,,,,"52","54",,"||RA","+0.02","8","93","30.03","8","29.57","2.98","53","060",,"15",,,,,,,,,,,,,,,,,,,,,,,,,,,,,,,,,,,,,"SYN09872306 11348 80613 10122 20111 30013 40168 58006 60051 761// 90551 333 10178 20122 91020 555 92006=","FM-12","4",,,,,,,,,,,,,,,,,,,,,,,,,,,,"2009-07-08"
"72306013722","2020-05-20T01:51:00","FM-15","7",,,,,,,,,,,,,,,,,,,,,,,,,,,,,,,,,,,,,,"30.02","52","53","T","-RA:02 |RA |RA",,,"96","30.01","BKN:07 8 BKN:07 15 OVC:08 33","29.55","3.00","52","050",,"14",,,,,,,,,,,,,,,,,,,,,,,,,,,,,,,,,,,,,"MET13205/20/20 01:51:02 METAR KRDU 200651Z 05012KT 3SM -RA BKN008 BKN015 OVC033 12/11 A3002 RMK AO2 SFC VIS 9 SLP164 P0000 T01170111 (AWB)","FM-15","7",,,,,,,,,,,,,,,,,,,,,,,,,,,,"2009-07-08"
"72306013722","2020-05-20T02:51:00","FM-15","7",,,,,,,,,,,,,,,,,,,,,,,,,,,,,,,,,,,,,,"30.01","52","54","T","-RA:02 BR:1 |RA |RA",,,"93","30.00","BKN:07 8 OVC:08 11","29.54","3.00","53","060",,"14",,,,,,,,,,,,,,,,,,,,,,,,,,,,,,,,,,,,,"MET12805/20/20 02:51:02 METAR KRDU 200751Z 06012KT 3SM -RA BR BKN008 OVC011 12/11 A3001 RMK AO2 SFC VIS 6 SLP160 P0000 T01220111 (AWB)","FM-15","7",,,,,,,,,,,,,,,,,,,,,,,,,,,,"2009-07-08"
"72306013722","2020-05-20T03:51:00","FM-15","7",,,,,,,,,,,,,,,,,,,,,,,,,,,,,,,,,,,,,,"30.01","52","54","T","-RA:02 BR:1 |RA |RA","+0.02","6","93","30.00","BKN:07 8 OVC:08 13","29.54","3.00","53","060","22","11",,,,,,,,,,,,,,,,,,,,,,,,,,,,,,,,,,,,,"MET14305/20/20 03:51:02 METAR KRDU 200851Z 06010G19KT 3SM -RA BR BKN008 OVC013 12/11 A3001 RMK AO2 SFC VIS 4 SLP160 P0000 60000 T01220111 56008 (AWB)","FM-15","7",,,,,,,,,,,,,,,,,,,,,,,,,,,,"2009-07-08"
"72306013722","2020-05-20T04:51:00","FM-15","7",,,,,,,,,,,,,,,,,,,,,,,,,,,,,,,,,,,,,,"30.02","52","54","T","-DZ:01 BR:1 |DZ |DZ",,,"93","30.01","BKN:07 7 OVC:08 11","29.55","3.00","53","060",,"10",,,,,,,,,,,,,,,,,,,,,,,,,,,,,,,,,,,,,"MET12905/20/20 04:51:02 METAR KRDU 200951Z 06009KT 3SM -DZ BR BKN007 OVC011 12/11 A3002 RMK AO2 RAE03DZB03 SLP163 P0000 T01220111 (AWB)","FM-15","7",,,,,,,,,,,,,,,,,,,,,,,,,,,,"2009-07-08"
"72306013722","2020-05-20T05:07:00","FM-16","7",,,,,,,,,,,,,,,,,,,,,,,,,,,,,,,,,,,,,,"30.02","52","54","T","-DZ:01 BR:1 |DZ |DZ",,,"93",,"BKN:07 7 OVC:08 12","29.55","2.50","53","060","22","14",,,,,,,,,,,,,,,,,,,,,,,,,,,,,,,,,,,,,"MET12805/20/20 05:07:02 SPECI KRDU 201007Z 06012G19KT 2 1/2SM -DZ BR BKN007 OVC012 12/11 A3002 RMK AO2 TWR VIS 3 P0000 T01220111 (AWB)","FM-16","7",,,,,,,,,,,,,,,,,,,,,,,,,,,,"2009-07-08"
"72306013722","2020-05-20T05:51:00","FM-15","7",,,,,,,,,,,,,,,,,,,,,,,,,,,,,,,,,,,,,,"30.04","52","54","0.01","-RA:02 BR:1 |RA |RA",,,"93","30.04","BKN:07 7 OVC:08 13","29.57","2.00","53","060","26","10",,,,,,,,,,,,,,,,,,,,,,,,,,,,,,,,,,,,,"MET14205/20/20 05:51:02 METAR KRDU 201051Z 06009G23KT 2SM -RA BR BKN007 OVC013 12/11 A3004 RMK AO2 TWR VIS 3 DZE36RAB36 SLP172 P0001 T01220111 (AWB)","FM-15","7",,,,,,,,,,,,,,,,,,,,,,,,,,,,"2009-07-08"
"72306013722","2020-05-20T06:51:00","FM-15","7",,,,,,,,,,,,,,,,,,,,,,,,,,,,,,,,,,,,,,"30.06","52","54","0.03","-RA:02 BR:1 |RA |RA","-0.05","3","93","30.06","BKN:07 6 OVC:08 12","29.59","2.00","53","060",,"9",,,,,,,,,,,,,,,,,,,,,,,,,,,,,,,,,,,,,"MET16205/20/20 06:51:02 METAR KRDU 201151Z 06008KT 2SM -RA BR BKN006 OVC012 12/11 A3006 RMK AO2 SFC VIS 2 1/2 SLP179 P0003 60004 70055 T01220111 10122 20117 53018 (KAH)","FM-15","7",,,,,,,,,,,,,,,,,,,,,,,,,,,,"2009-07-08"
"72306013722","2020-05-20T07:00:00","FM-12","4",,,,,,,,,,,,,,,,,,,,,,,,,,,,,,,,,,,,,,,"52","54",,"||RA","-0.05","3","93","30.06","5","29.60","1.99","53","060",,"9",,,,,,,,,,,,,,,,,,,,,,,,,,,,,,,,,,,,,"SYN10472306 11232 80608 10122 20111 30023 40179 53018 60011 761// 91151 333 10178 20117 70140 96010 555 92012=","FM-12","4",,,,,,,,,,,,,,,,,,,,,,,,,,,,"2009-07-08"
"72306013722","2020-05-20T07:51:00","FM-15","7",,,,,,,,,,,,,,,,,,,,,,,,,,,,,,,,,,,,,,"30.08","52","54","0.04","-RA:02 BR:1 |RA |RA",,,"93","30.07","BKN:07 7 BKN:07 12 OVC:08 25","29.61","2.00","53","060","18","11",,,,,,,,,,,,,,,,,,,,,,,,,,,,,,,,,,,,,"MET13805/20/20 07:51:02 METAR KRDU 201251Z 06010G16KT 2SM -RA BR BKN007 BKN012 OVC025 12/11 A3008 RMK AO2 SFC VIS 4 SLP184 P0004 T01220111 (KAH)","FM-15","7",,,,,,,,,,,,,,,,,,,,,,,,,,,,"2009-07-08"
"72306013722","2020-05-20T08:51:00","FM-15","7",,,,,,,,,,,,,,,,,,,,,,,,,,,,,,,,,,,,,,"30.09","53","54","0.02","-RA:02 BR:1 |RA |RA",,,"97","30.09","BKN:07 6 OVC:08 10","29.62","2.00","53","060",,"10",,,,,,,,,,,,,,,,,,,,,,,,,,,,,,,,,,,,,"MET12805/20/20 08:51:02 METAR KRDU 201351Z 06009KT 2SM -RA BR BKN006 OVC010 12/12 A3009 RMK AO2 SFC VIS 6 SLP188 P0002 T01220117 (KAH)","FM-15","7",,,,,,,,,,,,,,,,,,,,,,,,,,,,"2009-07-08"
"72306013722","2020-05-20T09:51:00","FM-15","7",,,,,,,,,,,,,,,,,,,,,,,,,,,,,,,,,,,,,,"30.09","54","55","0.01","-RA:02 BR:1 |RA |RA","-0.03","1","96","30.09","BKN:07 6 OVC:08 10","29.62","2.00","54","060",,"15",,,,,,,,,,,,,,,,,,,,,,,,,,,,,,,,,,,,,"MET14005/20/20 09:51:02 METAR KRDU 201451Z 06013KT 2SM -RA BR BKN006 OVC010 13/12 A3009 RMK AO2 SFC VIS 4 SLP190 P0001 60007 T01280122 51010 (KAH)","FM-15","7",,,,,,,,,,,,,,,,,,,,,,,,,,,,"2009-07-08"
"72306013722","2020-05-20T10:51:00","FM-15","7",,,,,,,,,,,,,,,,,,,,,,,,,,,,,,,,,,,,,,"30.08","55","57","0.01","-RA:02 BR:1 |RA |RA",,,"93","30.08","BKN:07 7 OVC:08 13","29.61","2.00","56","060","22","14",,,,,,,,,,,,,,,,,,,,,,,,,,,,,,,,,,,,,"MET13105/20/20 10:51:02 METAR KRDU 201551Z 06012G19KT 2SM -RA BR BKN007 OVC013 14/13 A3008 RMK AO2 SFC VIS 5 SLP186 P0001 T01390128 (KAH)","FM-15","7",,,,,,,,,,,,,,,,,,,,,,,,,,,,"2009-07-08"
"72306013722","2020-05-20T11:42:00","FM-16","7",,,,,,,,,,,,,,,,,,,,,,,,,,,,,,,,,,,,,,"30.08","56","57","0.02","-RA:02 BR:1 |RA |RA",,,"96",,"BKN:07 6 OVC:08 12","29.61","1.00","56","060","21","13",,,,,,,,,,,,,,,,,,,,,,,,,,,,,,,,,,,,,"MET12805/20/20 11:42:02 SPECI KRDU 201642Z 06011G18KT 1SM -RA BR BKN006 OVC012 14/13 A3008 RMK AO2 SFC VIS 1 1/2 P0002 T01390133 (KAH)","FM-16","7",,,,,,,,,,,,,,,,,,,,,,,,,,,,"2009-07-08"
"72306013722","2020-05-20T11:51:00","FM-15","7",,,,,,,,,,,,,,,,,,,,,,,,,,,,,,,,,,,,,,"30.08","56","57","0.05","-RA:02 BR:1 |RA |RA",,,"96","30.08","BKN:07 6 OVC:08 12","29.61","1.00","56","050","22","16",,,,,,,,,,,,,,,,,,,,,,,,,,,,,,,,,,,,,"MET13505/20/20 11:51:02 METAR KRDU 201651Z 05014G19KT 1SM -RA BR BKN006 OVC012 14/13 A3008 RMK AO2 SFC VIS 1 1/4 SLP185 P0003 T01390133 (KAH)","FM-15","7",,,,,,,,,,,,,,,,,,,,,,,,,,,,"2009-07-08"
"72306013722","2020-05-20T12:51:00","FM-15","7",,,,,,,,,,,,,,,,,,,,,,,,,,,,,,,,,,,,,,"30.10","56","58","0.08","-RA:02 BR:1 |RA |RA","-0.01","3","93","30.09","BKN:07 7 OVC:08 14","29.63","1.00","57","060",,"10",,,,,,,,,,,,,,,,,,,,,,,,,,,,,,,,,,,,,"MET15205/20/20 12:51:02 METAR KRDU 201751Z 06009KT 1SM -RA BR BKN007 OVC014 14/13 A3010 RMK AO2 SFC VIS 3 SLP191 P0010 60021 T01440133 10144 20122 53002 (KAH)","FM-15","7",,,,,,,,,,,,,,,,,,,,,,,,,,,,"2009-07-08"
"72306013722","2020-05-20T13:00:00","FM-12","4",,,,,,,,,,,,,,,,,,,,,,,,,,,,,,,,,,,,,,,"56","58",,"||RA","-0.01","3","93","30.09","8","29.64","0.99","57","060",,"10",,,,,,,,,,,,,,,,,,,,,,,,,,,,,,,,,,,,,"SYN09872306 11316 80609 10144 20133 30037 40191 53002 60051 761// 91751 333 10144 20122 96010 555 92018=","FM-12","4",,,,,,,,,,,,,,,,,,,,,,,,,,,,"2009-07-08"
"72306013722","2020-05-20T13:25:00","FM-16","7",,,,,,,,,,,,,,,,,,,,,,,,,,,,,,,,,,,,,,"30.09","57","58","0.04","-RA:02 BR:1 |RA |RA",,,"97",,"BKN:07 7 OVC:08 15","29.62","2.00","57","060",,"10",,,,,,,,,,,,,,,,,,,,,,,,,,,,,,,,,,,,,"MET12105/20/20 13:25:02 SPECI KRDU 201825Z 06009KT 2SM -RA BR BKN007 OVC015 14/14 A3009 RMK AO2 TWR VIS 3 P0004 T01440139 (KAH)","FM-16","7",,,,,,,,,,,,,,,,,,,,,,,,,,,,"2009-07-08"
"72306013722","2020-05-20T13:51:00","FM-15","7",,,,,,,,,,,,,,,,,,,,,,,,,,,,,,,,,,,,,,"30.08","57","59","0.08","-RA:02 BR:1 |RA |RA",,,"93","30.08","BKN:07 7 OVC:08 15","29.61","2.50","58","060",,"13",,,,,,,,,,,,,,,,,,,,,,,,,,,,,,,,,,,,,"MET13205/20/20 13:51:02 METAR KRDU 201851Z 06011KT 2 1/2SM -RA BR BKN007 OVC015 15/14 A3008 RMK AO2 TWR VIS 3 SLP185 P0007 T01500139 (KAH)","FM-15","7",,,,,,,,,,,,,,,,,,,,,,,,,,,,"2009-07-08"
"72306013722","2020-05-20T14:13:00","FM-16","7",,,,,,,,,,,,,,,,,,,,,,,,,,,,,,,,,,,,,,"30.08","57","59","0.02","BR:1 ||",,,"93",,"BKN:07 7 OVC:08 15","29.61","3.00","58","060","20","11",,,,,,,,,,,,,,,,,,,,,,,,,,,,,,,,,,,,,"MET12605/20/20 14:13:02 SPECI KRDU 201913Z 06010G17KT 3SM BR BKN007 OVC015 15/14 A3008 RMK AO2 SFC VIS 4 RAE13 P0002 T01500139 (JBA)","FM-16","7",,,,,,,,,,,,,,,,,,,,,,,,,,,,"2009-07-08"
"72306013722","2020-05-20T14:26:00","FM-16","7",,,,,,,,,,,,,,,,,,,,,,,,,,,,,,,,,,,,,,"30.08","57","59","0.02","-DZ:01 BR:1 |DZ |DZ",,,"93",,"BKN:07 7 OVC:08 15","29.61","1.50","58","060","21","13",,,,,,,,,,,,,,,,,,,,,,,,,,,,,,,,,,,,,"MET13905/20/20 14:26:02 SPECI KRDU 201926Z 06011G18KT 1 1/2SM -DZ BR BKN007 OVC015 15/14 A3008 RMK AO2 TWR VIS 3 RAE13DZB26 P0002 T01500139 (JBA)","FM-16","7",,,,,,,,,,,,,,,,,,,,,,,,,,,,"2009-07-08"
"72306013722","2020-05-20T14:49:00","FM-16","6",,,,,,,,,,,,,,,,,,,,,,,,,,,,,,,,,,,,,,"30.07","57","59",,"-RA:02 BR:1 |RA |RA",,,"94",,"BKN:07 7 OVC:08 15","29.60","2.50","58","070","24","14",,,,,,,,,,,,,,,,,,,,,,,,,,,,,,,,,,,,,"MET14005/20/20 14:49:02 SPECI KRDU 201949Z 07012G21KT 2 1/2SM -RA BR BKN007 OVC015 15/14 A3007 RMK AO2 TWR VIS 3 RAE13B48DZB26E48 P0003 FIBI (JBA)","FM-16","6",,,,,,,,,,,,,,,,,,,,,,,,,,,,"2009-07-08"
"72306013722","2020-05-20T14:51:00","FM-15","7",,,,,,,,,,,,,,,,,,,,,,,,,,,,,,,,,,,,,,"30.07","57","59","0.02","-RA:02 BR:1 |RA |RA",,,"93","30.06","BKN:07 7 OVC:08 15","29.60","2.50","58","060","24","14",,,,,,,,,,,,,,,,,,,,,,,,,,,,,,,,,,,,,"MET15205/20/20 14:51:02 METAR KRDU 201951Z 06012G21KT 2 1/2SM -RA BR BKN007 OVC015 15/14 A3007 RMK AO2 TWR VIS 3 RAE13B48DZB26E48 SLP180 P0003 T01500139 (JBA)","FM-15","7",,,,,,,,,,,,,,,,,,,,,,,,,,,,"2009-07-08"
"72306013722","2020-05-20T15:12:00","FM-16","7",,,,,,,,,,,,,,,,,,,,,,,,,,,,,,,,,,,,,,"30.07","58","59","T","-DZ:01 BR:1 |DZ |DZ",,,"96",,"BKN:07 7 OVC:08 15","29.60","3.00","58","070","28","17",,,,,,,,,,,,,,,,,,,,,,,,,,,,,,,,,,,,,"MET12505/20/20 15:12:02 SPECI KRDU 202012Z 07015G24KT 3SM -DZ BR BKN007 OVC015 15/14 A3007 RMK AO2 RAE12DZB12 P0000 T01500144 (JBA)","FM-16","7",,,,,,,,,,,,,,,,,,,,,,,,,,,,"2009-07-08"
"72306013722","2020-05-20T15:49:00","FM-16","7",,,,,,,,,,,,,,,,,,,,,,,,,,,,,,,,,,,,,,"30.07","57","59","0.01","-RA:02 BR:1 |RA |RA",,,"94",,"OVC:08 7","29.60","2.50","58","060","26","13",,,,,,,,,,,,,,,,,,,,,,,,,,,,,,,,,,,,,"MET15105/20/20 15:49:02 SPECI KRDU 202049Z 06011G23KT 2 1/2SM VCTS -RA BR OVC007 15/14 A3007 RMK AO2 PK WND 05027/2038 TWR VIS 3 RAE12B48DZB12E26 P0001 (JBA)","FM-16","7",,,,,,,,,,,,,,,,,,,,,,,,,,,,"2009-07-08"
"72306013722","2020-05-20T15:51:00","FM-15","7",,,,,,,,,,,,,,,,,,,,,,,,,,,,,,,,,,,,,,"30.07","58","59","0.01","-RA:02 BR:1 |RA |RA","+0.02","5","96","30.07","OVC:08 7","29.60","2.50","58","060","23","14",,,,,,,,,,,,,,,,,,,,,,,,,,,,,,,,,,,,,"MET17505/20/20 15:51:02 METAR KRDU 202051Z 06012G20KT 2 1/2SM -RA BR OVC007 15/14 A3007 RMK AO2 PK WND 05027/2038 TWR VIS 3 RAE12B48DZB12E26 SLP182 P0001 60011 T01500144 55008 (JBA)","FM-15","7",,,,,,,,,,,,,,,,,,,,,,,,,,,,"2009-07-08"
"72306013722","2020-05-20T16:10:00","FM-16","7",,,,,,,,,,,,,,,,,,,,,,,,,,,,,,,,,,,,,,"30.07","57","59","0.02","RA:02 BR:1 |RA |RA",,,"93",,"OVC:08 7","29.60","1.50","58","060","23","17",,,,,,,,,,,,,,,,,,,,,,,,,,,,,,,,,,,,,"MET12005/20/20 16:10:02 SPECI KRDU 202110Z 06015G20KT 1 1/2SM RA BR OVC007 15/14 A3007 RMK AO2 TWR VIS 3 P0002 T01500139 (JBA)","FM-16","7",,,,,,,,,,,,,,,,,,,,,,,,,,,,"2009-07-08"
"72306013722","2020-05-20T16:19:00","FM-16","7",,,,,,,,,,,,,,,,,,,,,,,,,,,,,,,,,,,,,,"30.06","57","59","0.07","-RA:02 BR:1 |RA |RA",,,"93",,"BKN:07 7 OVC:08 13","29.59","3.00","58","050","25","13",,,,,,,,,,,,,,,,,,,,,,,,,,,,,,,,,,,,,"MET12405/20/20 16:19:02 SPECI KRDU 202119Z 05011G22KT 3SM -RA BR BKN007 OVC013 15/14 A3006 RMK AO2 SFC VIS 4 P0007 T01500139 (JBA)","FM-16","7",,,,,,,,,,,,,,,,,,,,,,,,,,,,"2009-07-08"
"72306013722","2020-05-20T16:51:00","FM-15","7",,,,,,,,,,,,,,,,,,,,,,,,,,,,,,,,,,,,,,"30.06","57","59","0.10","-RA:02 BR:1 |RA |RA",,,"93","30.06","BKN:07 7 OVC:08 13","29.59","3.00","58","070","23","14",,,,,,,,,,,,,,,,,,,,,,,,,,,,,,,,,,,,,"MET13105/20/20 16:51:02 METAR KRDU 202151Z 07012G20KT 3SM -RA BR BKN007 OVC013 15/14 A3006 RMK AO2 SFC VIS 4 SLP178 P0010 T01500139 (JBA)","FM-15","7",,,,,,,,,,,,,,,,,,,,,,,,,,,,"2009-07-08"
"72306013722","2020-05-20T17:31:00","FM-16","7",,,,,,,,,,,,,,,,,,,,,,,,,,,,,,,,,,,,,,"30.06","57","58","0.02","-RA:02 BR:1 |RA |RA",,,"97",,"OVC:08 7","29.59","2.00","57","060","22","14",,,,,,,,,,,,,,,,,,,,,,,,,,,,,,,,,,,,,"MET13505/20/20 17:31:02 SPECI KRDU 202231Z 06012G19KT 2SM -RA BR OVC007 14/14 A3006 RMK AO2 PK WND 08027/2220 TWR VIS 3 P0002 T01440139 (JBA)","FM-16","7",,,,,,,,,,,,,,,,,,,,,,,,,,,,"2009-07-08"
"72306013722","2020-05-20T17:51:00","FM-15","7",,,,,,,,,,,,,,,,,,,,,,,,,,,,,,,,,,,,,,"30.06","57","58","0.08","-RA:02 BR:1 |RA |RA",,,"97","30.06","OVC:08 7","29.59","2.50","57","060","26","17",,,,,,,,,,,,,,,,,,,,,,,,,,,,,,,,,,,,,"MET14605/20/20 17:51:02 METAR KRDU 202251Z 06015G23KT 2 1/2SM -RA BR OVC007 14/14 A3006 RMK AO2 PK WND 08027/2220 TWR VIS 3 SLP178 P0007 T01440139 (JBA)","FM-15","7",,,,,,,,,,,,,,,,,,,,,,,,,,,,"2009-07-08"
"72306013722","2020-05-20T18:12:00","FM-16","7",,,,,,,,,,,,,,,,,,,,,,,,,,,,,,,,,,,,,,"30.07","57","58","0.01","BR:1 ||",,,"97",,"OVC:08 7","29.60","3.00","57","060","23","11",,,,,,,,,,,,,,,,,,,,,,,,,,,,,,,,,,,,,"MET11905/20/20 18:12:02 SPECI KRDU 202312Z 06010G20KT 3SM BR OVC007 14/14 A3007 RMK AO2 SFC VIS 4 RAE12 P0001 T01440139 (JBA)","FM-16","7",,,,,,,,,,,,,,,,,,,,,,,,,,,,"2009-07-08"
"72306013722","2020-05-20T18:51:00","FM-15","7",,,,,,,,,,,,,,,,,,,,,,,,,,,,,,,,,,,,,,"30.07","56","58","T","BR:1 ||","+0.01","5","93","30.06","OVC:08 7","29.60","3.00","57","060","25","17",,,,,,,,,,,,,,,,,,,,,,,,,,,,,,,,,,,,,"MET15005/20/20 18:51:02 METAR KRDU 202351Z 06015G22KT 3SM BR OVC007 14/13 A3007 RMK AO2 SFC VIS 4 RAE12 SLP180 P0001 60029 T01440133 10150 20144 55002 (JBA)","FM-15","7",,,,,,,,,,,,,,,,,,,,,,,,,,,,"2009-07-08"
"72306013722","2020-05-20T19:00:00","FM-12","4",,,,,,,,,,,,,,,,,,,,,,,,,,,,,,,,,,,,,,,"56","58",,,"+0.01","5","93","30.06","8","29.61","2.98","57","060",,"17",,,,,,,,,,,,,,,,,,,,,,,,,,,,,,,,,,,,,"SYN09872306 11348 80615 10144 20133 30027 40180 55002 60071 710// 92351 333 10150 20117 91022 555 92100=","FM-12","4",,,,,,,,,,,,,,,,,,,,,,,,,,,,"2009-07-08"
"72306013722","2020-05-20T19:51:00","FM-15","7",,,,,,,,,,,,,,,,,,,,,,,,,,,,,,,,,,,,,,"30.09","56","58","0.03","-RA:02 |RA |RA",,,"93","30.08","OVC:08 7","29.62","3.00","57","070","23","11",,,,,,,,,,,,,,,,,,,,,,,,,,,,,,,,,,,,,"MET12105/20/20 19:51:01 METAR KRDU 210051Z 07010G20KT 3SM -RA OVC007 14/13 A3009 RMK AO2 SFC VIS 7 RAB31 SLP186 P0001 T01440133","FM-15","7",,,,,,,,,,,,,,,,,,,,,,,,,,,,"2009-07-08"
"72306013722","2020-05-20T20:51:00","FM-15","7",,,,,,,,,,,,,,,,,,,,,,,,,,,,,,,,,,,,,,"30.09","56","58","0.21","RA:02 BR:1 |RA |RA",,,"93","30.08","BKN:07 7 OVC:08 16","29.62","3.00","57","070","28","16",,,,,,,,,,,,,,,,,,,,,,,,,,,,,,,,,,,,,"MET12405/20/20 20:51:01 METAR KRDU 210151Z 07014G24KT 3SM RA BR BKN007 OVC016 14/13 A3009 RMK AO2 SFC VIS 5 SLP187 P0019 T01440133","FM-15","7",,,,,,,,,,,,,,,,,,,,,,,,,,,,"2009-07-08"
"72306013722","2020-05-20T21:51:00","FM-15","7",,,,,,,,,,,,,,,,,,,,,,,,,,,,,,,,,,,,,,"30.08","56","58","0.28","+RA:02 BR:1 |RA |RA","-0.01","0","93","30.08","BKN:07 7 BKN:07 13 OVC:08 75","29.61","3.00","57","070","31","17",,,,,,,,,,,,,,,,,,,,,,,,,,,,,,,,,,,,,"MET17505/20/20 21:51:01 METAR KRDU 210251Z 07015G27KT 3SM +RA BR BKN007 BKN013 OVC075 14/13 A3008 RMK AO2 PK WND 08027/0247 SFC VIS 4 SLP186 BKN007 V SCT P0029 60049 T01440133 50005","FM-15","7",,,,,,,,,,,,,,,,,,,,,,,,,,,,"2009-07-08"
"72306013722","2020-05-20T22:51:00","FM-15","7",,,,,,,,,,,,,,,,,,,,,,,,,,,,,,,,,,,,,,"30.09","57","58","0.38","RA:02 BR:1 |RA |RA",,,"97","30.08","SCT:04 7 BKN:07 12 OVC:08 95","29.62","3.00","57","070","28","16",,,,,,,,,,,,,,,,,,,,,,,,,,,,,,,,,,,,,"MET13905/20/20 22:51:02 METAR KRDU 210351Z 07014G24KT 3SM RA BR SCT007 BKN012 OVC095 14/14 A3009 RMK AO2 PK WND 08028/0256 SLP187 P0037 T01440139","FM-15","7",,,,,,,,,,,,,,,,,,,,,,,,,,,,"2009-07-08"
"72306013722","2020-05-20T23:51:00","FM-15","7",,,,,,,,,,,,,,,,,,,,,,,,,,,,,,,,,,,,,,"30.09","57","59","0.14","-RA:02 BR:1 |RA |RA",,,"93","30.08","BKN:07 7 BKN:07 13 OVC:08 75","29.62","3.00","58","060","25","16",,,,,,,,,,,,,,,,,,,,,,,,,,,,,,,,,,,,,"MET16005/20/20 23:51:02 METAR KRDU 210451Z 06014G22KT 3SM -RA BR BKN007 BKN013 OVC075 15/14 A3009 RMK AO2 PK WND 08027/0416 SFC VIS 6 SLP187 P0018 T01500139 401500117","FM-15","7",,,,,,,,,,,,,,,,,,,,,,,,,,,,"2009-07-08"
"72306013722","2020-05-20T23:59:00","SOD  ","6",,,,,,,,,,,,,,,"55","56","94","30.06","29.59","55","13.6","0","-13.1","9","59","53","080","33","1.59","0","0.0","070","23","RA DZ BR",,,,,,,,,,,,,,,,,,,,,,,,,,,,,,,,,,,,,,,,,,,,,,,,,,,,,,,,"SOD78424 HR PRECIPITATION (IN): 1.59 SNOW DEPTH (IN):0     24 HR SNOWFALL (IN):0.0  WEATHER(CODE):13  24 HR MAX TEMP (F): 5924 HR MIN TEMP (F): 53AVERAGE STATION PRESSURE:29.590 MINIMUM SEA LEVEL PRESSURE:29.99 TIME OF OCCURRENCE:0328 PEAK WIND SPEED (MPH): 33 PEAK WIND DIR (DEG): 80 PEAK WIND TIME (LST):      FASTEST 2MIN SPEED (MPH): 23FASTEST 2MIN DIR (DEG): 70 FASTEST 2MIN TIME (LST):     AVERAGE WIND SPEED (MPH):13.6 24 HR AVG TEMP (F): 56DEPART FROM NORMAL:-13  SKY COVER SR-SS (TENTHS): 1HEATING DEGREE DAYS:  9 COOLING DEGREE DAYS:  0 LATEST DAY MAX TEMP (0700-1900 LST):59  LATEST NIGHT MIN TEMP(1900-0800 LST):53 HOURLY INCREMENTAL PRECIPITATION VALUES (IN):.01 T    T    T    T    0.01 0.03 0.04 0.02 0.01 0.01 0.05 0.08 0.08 0.02 0.01 0.10 0.08 T    0.03 0.21 0.28 0.38 0.14","SOD  ","6",,,,,,,,,,,,,,,,,,,,,,,,,"0505","1918",,"2009-07-08"
"72306013722","2020-05-21T00:51:00","FM-15","7",,,,,,,,,,,,,,,,,,,,,,,,,,,,,,,,,,,,,,"30.08","58","59","0.02","-RA:02 BR:1 |RA |RA","+0.00","8","96","30.08","BKN:07 7 OVC:08 15","29.61","3.00","58","070",,"14",,,,,,,,,,,,,,,,,,,,,,,,,,,,,,,,,,,,,"MET15205/21/20 00:51:02 METAR KRDU 210551Z 07012KT 3SM -RA BR BKN007 OVC015 15/14 A3008 RMK AO2 SFC VIS 6 SLP185 P0002 60106 T01500144 10150 20144 58001 (AWB)","FM-15","7",,,,,,,,,,,,,,,,,,,,,,,,,,,,"2009-07-08"
"72306013722","2020-05-21T01:00:00","FM-12","4",,,,,,,,,,,,,,,,,,,,,,,,,,,,,,,,,,,,,,,"58","59",,"||RA","+0.00","8","96","30.08","8","29.62","2.98","58","070",,"14",,,,,,,,,,,,,,,,,,,,,,,,,,,,,,,,,,,,,"SYN09872306 11348 80712 10150 20144 30030 40185 58001 60271 761// 90551 333 10150 20117 96010 555 92106=","FM-12","4",,,,,,,,,,,,,,,,,,,,,,,,,,,,"2009-07-08"
"72306013722","2020-05-21T01:51:00","FM-15","7",,,,,,,,,,,,,,,,,,,,,,,,,,,,,,,,,,,,,,"30.08","58","60","0.01","-RA:02 BR:1 |RA |RA",,,"93","30.07","BKN:07 6 OVC:08 15","29.61","3.00","59","060",,"15",,,,,,,,,,,,,,,,,,,,,,,,,,,,,,,,,,,,,"MET12805/21/20 01:51:02 METAR KRDU 210651Z 06013KT 3SM -RA BR BKN006 OVC015 16/14 A3008 RMK AO2 SFC VIS 4 SLP183 P0001 T01560144 (AWB)","FM-15","7",,,,,,,,,,,,,,,,,,,,,,,,,,,,"2009-07-08"
"72306013722","2020-05-21T02:51:00","FM-15","7",,,,,,,,,,,,,,,,,,,,,,,,,,,,,,,,,,,,,,"30.06","58","60","T","-RA:02 BR:1 |RA |RA",,,"93","30.06","BKN:07 7 OVC:08 15","29.59","3.00","59","070","25","17",,,,,,,,,,,,,,,,,,,,,,,,,,,,,,,,,,,,,"MET13105/21/20 02:51:02 METAR KRDU 210751Z 07015G22KT 3SM -RA BR BKN007 OVC015 16/14 A3006 RMK AO2 SFC VIS 5 SLP179 P0000 T01560144 (AWB)","FM-15","7",,,,,,,,,,,,,,,,,,,,,,,,,,,,"2009-07-08"
"72306013722","2020-05-21T03:51:00","FM-15","7",,,,,,,,,,,,,,,,,,,,,,,,,,,,,,,,,,,,,,"30.06","58","60","0.11","-RA:02 BR:1 |RA |RA","+0.02","8","93","30.05","BKN:07 7 BKN:07 12 OVC:08 30","29.59","3.00","59","070","25","15",,,,,,,,,,,,,,,,,,,,,,,,,,,,,,,,,,,,,"MET16805/21/20 03:51:02 METAR KRDU 210851Z 07013G22KT 3SM -RA BR BKN007 BKN012 OVC030 16/14 A3006 RMK AO2 PK WND 08026/0811 SFC VIS 5 SLP177 P0010 60011 T01560144 58008 (AWB)","FM-15","7",,,,,,,,,,,,,,,,,,,,,,,,,,,,"2009-07-08"
"72306013722","2020-05-21T04:34:00","FM-16","7",,,,,,,,,,,,,,,,,,,,,,,,,,,,,,,,,,,,,,"30.07","58","60","0.11","RA:02 BR:1 |RA |RA",,,"93",,"BKN:07 7 BKN:07 15 OVC:08 75","29.60","2.00","59","080","24","16",,,,,,,,,,,,,,,,,,,,,,,,,,,,,,,,,,,,,"MET13005/21/20 04:34:02 SPECI KRDU 210934Z 08014G21KT 2SM RA BR BKN007 BKN015 OVC075 16/14 A3007 RMK AO2 TWR VIS 3 P0011 T01560144 (AWB)","FM-16","7",,,,,,,,,,,,,,,,,,,,,,,,,,,,"2009-07-08"
"72306013722","2020-05-21T04:51:00","FM-15","7",,,,,,,,,,,,,,,,,,,,,,,,,,,,,,,,,,,,,,"30.06","58","60","0.17","-RA:02 |RA |RA",,,"93","30.05","BKN:07 9 BKN:07 20 OVC:08 75","29.59","10.00","59","070","24","16",,,,,,,,,,,,,,,,,,,,,,,,,,,,,,,,,,,,,"MET12605/21/20 04:51:02 METAR KRDU 210951Z 07014G21KT 10SM -RA BKN009 BKN020 OVC075 16/14 A3006 RMK AO2 SLP177 P0017 T01560144 (AWB)","FM-15","7",,,,,,,,,,,,,,,,,,,,,,,,,,,,"2009-07-08"
"72306013722","2020-05-21T05:51:00","FM-15","7",,,,,,,,,,,,,,,,,,,,,,,,,,,,,,,,,,,,,,"30.09","59","60","T","-RA:02 |RA |RA",,,"96","30.08","BKN:07 7 BKN:07 13 OVC:08 55","29.62","10.00","59","080","24","15",,,,,,,,,,,,,,,,,,,,,,,,,,,,,,,,,,,,,"MET12605/21/20 05:51:02 METAR KRDU 211051Z 08013G21KT 10SM -RA BKN007 BKN013 OVC055 16/15 A3009 RMK AO2 SLP186 P0001 T01560150 (AWB)","FM-15","7",,,,,,,,,,,,,,,,,,,,,,,,,,,,"2009-07-08"
"72306013722","2020-05-21T06:11:00","FM-16","7",,,,,,,,,,,,,,,,,,,,,,,,,,,,,,,,,,,,,,"30.09","59","60","0.01","-RA:02 BR:1 |RA |RA",,,"96",,"BKN:07 6 OVC:08 12","29.62","1.50","59","080","23","16",,,,,,,,,,,,,,,,,,,,,,,,,,,,,,,,,,,,,"MET12805/21/20 06:11:02 SPECI KRDU 211111Z 08014G20KT 1 1/2SM -RA BR BKN006 OVC012 16/15 A3009 RMK AO2 SFC VIS 2 P0001 T01560150 (KAH)","FM-16","7",,,,,,,,,,,,,,,,,,,,,,,,,,,,"2009-07-08"
"72306013722","2020-05-21T06:51:00","FM-15","7",,,,,,,,,,,,,,,,,,,,,,,,,,,,,,,,,,,,,,"30.10","59","61","0.03","-RA:02 BR:1 |RA |RA","-0.04","3","93","30.09","BKN:07 5 OVC:08 10","29.63","1.50","60","080",,"15",,,,,,,,,,,,,,,,,,,,,,,,,,,,,,,,,,,,,"MET16205/21/20 06:51:02 METAR KRDU 211151Z 08013KT 1 1/2SM -RA BR BKN005 OVC010 16/15 A3010 RMK AO2 SFC VIS 3 SLP190 P0003 60032 70188 T01610150 10161 20150 53014 (KAH)","FM-15","7",,,,,,,,,,,,,,,,,,,,,,,,,,,,"2009-07-08"
"72306013722","2020-05-21T07:00:00","FM-12","4",,,,,,,,,,,,,,,,,,,,,,,,,,,,,,,,,,,,,,,"59","61",,"||RA","-0.04","3","93","30.09","5","29.64","1.49","60","080",,"15",,,,,,,,,,,,,,,,,,,,,,,,,,,,,,,,,,,,,"SYN10472306 11224 80813 10161 20150 30037 40190 53014 60081 761// 91151 333 10150 20144 70478 96010 555 92112=","FM-12","4",,,,,,,,,,,,,,,,,,,,,,,,,,,,"2009-07-08"
"72306013722","2020-05-21T07:51:00","FM-15","7",,,,,,,,,,,,,,,,,,,,,,,,,,,,,,,,,,,,,,"30.11","60","61","T","-RA:02 BR:1 |RA |RA",,,"97","30.11","OVC:08 5","29.64","1.50","60","080",,"13",,,,,,,,,,,,,,,,,,,,,,,,,,,,,,,,,,,,,"MET12905/21/20 07:51:02 METAR KRDU 211251Z 08011KT 1 1/2SM -RA BR OVC005 16/16 A3011 RMK AO2 SFC VIS 2 1/2 SLP195 P0000 T01610156 (KAH)","FM-15","7",,,,,,,,,,,,,,,,,,,,,,,,,,,,"2009-07-08"
"72306013722","2020-05-21T08:51:00","FM-15","7",,,,,,,,,,,,,,,,,,,,,,,,,,,,,,,,,,,,,,"30.13","60","62","0.01","-RA:02 BR:1 |RA |RA",,,"93","30.12","BKN:07 7 OVC:08 12","29.66","1.50","61","090",,"11",,,,,,,,,,,,,,,,,,,,,,,,,,,,,,,,,,,,,"MET13205/21/20 08:51:02 METAR KRDU 211351Z 09010KT 1 1/2SM -RA BR BKN007 OVC012 17/16 A3013 RMK AO2 SFC VIS 5 SLP200 P0001 T01670156 (KAH)","FM-15","7",,,,,,,,,,,,,,,,,,,,,,,,,,,,"2009-07-08"
"72306013722","2020-05-21T09:49:00","FM-16","6",,,,,,,,,,,,,,,,,,,,,,,,,,,,,,,,,,,,,,"30.13","61","63",,"-RA:02 BR:1 |RA |RA",,,"94",,"BKN:07 8 OVC:08 13","29.66","6.00","62","080","18","13",,,,,,,,,,,,,,,,,,,,,,,,,,,,,,,,,,,,,"MET10905/21/20 09:49:02 SPECI KRDU 211449Z 08011G16KT 6SM -RA BR BKN008 OVC013 17/16 A3013 RMK AO2 P0000 FIBI (KAH)","FM-16","6",,,,,,,,,,,,,,,,,,,,,,,,,,,,"2009-07-08"
"72306013722","2020-05-21T09:51:00","FM-15","7",,,,,,,,,,,,,,,,,,,,,,,,,,,,,,,,,,,,,,"30.13","61","63","T","-RA:02 BR:1 |RA |RA","-0.03","1","93","30.13","BKN:07 8 OVC:08 13","29.66","6.00","62","080","18","14",,,,,,,,,,,,,,,,,,,,,,,,,,,,,,,,,,,,,"MET13305/21/20 09:51:02 METAR KRDU 211451Z 08012G16KT 6SM -RA BR BKN008 OVC013 17/16 A3013 RMK AO2 SLP202 P0000 60001 T01720161 51011 (KAH)","FM-15","7",,,,,,,,,,,,,,,,,,,,,,,,,,,,"2009-07-08"
"72306013722","2020-05-21T10:51:00","FM-15","7",,,,,,,,,,,,,,,,,,,,,,,,,,,,,,,,,,,,,,"30.12","62","64","T","-RA:02 BR:1 |RA |RA",,,"93","30.12","BKN:07 8 OVC:08 13","29.65","3.00","63","080","22","11",,,,,,,,,,,,,,,,,,,,,,,,,,,,,,,,,,,,,"MET12105/21/20 10:51:02 METAR KRDU 211551Z 08010G19KT 3SM -RA BR BKN008 OVC013 18/17 A3012 RMK AO2 SLP199 P0000 T01780167 (KAH)","FM-15","7",,,,,,,,,,,,,,,,,,,,,,,,,,,,"2009-07-08"
"72306013722","2020-05-21T11:51:00","FM-15","7",,,,,,,,,,,,,,,,,,,,,,,,,,,,,,,,,,,,,,"30.11","63","64","0.01","-RA:02 BR:1 |RA |RA",,,"96","30.10","BKN:07 7 OVC:08 12","29.64","3.00","63","070",,"13",,,,,,,,,,,,,,,,,,,,,,,,,,,,,,,,,,,,,"MET12805/21/20 11:51:02 METAR KRDU 211651Z 07011KT 3SM -RA BR BKN007 OVC012 18/17 A3011 RMK AO2 SFC VIS 5 SLP193 P0001 T01780172 (KAH)","FM-15","7",,,,,,,,,,,,,,,,,,,,,,,,,,,,"2009-07-08"
"72306013722","2020-05-21T12:21:00","FM-16","7",,,,,,,,,,,,,,,,,,,,,,,,,,,,,,,,,,,,,,"30.11","64","65","0.01","-RA:02 BR:1 |RA |RA",,,"97",,"BKN:07 6 OVC:08 15","29.64","2.00","64","080","21","15",,,,,,,,,,,,,,,,,,,,,,,,,,,,,,,,,,,,,"MET12405/21/20 12:21:02 SPECI KRDU 211721Z 08013G18KT 2SM -RA BR BKN006 OVC015 18/18 A3011 RMK AO2 TWR VIS 3 P0001 T01830178 (KAH)","FM-16","7",,,,,,,,,,,,,,,,,,,,,,,,,,,,"2009-07-08"
"72306013722","2020-05-21T12:51:00","FM-15","7",,,,,,,,,,,,,,,,,,,,,,,,,,,,,,,,,,,,,,"30.10","64","66","0.02","-RA:02 BR:1 |RA |RA","+0.03","8","93","30.09","BKN:07 7 OVC:08 15","29.63","3.00","65","080","21","13",,,,,,,,,,,,,,,,,,,,,,,,,,,,,,,,,,,,,"MET15505/21/20 12:51:02 METAR KRDU 211751Z 08011G18KT 3SM -RA BR BKN007 OVC015 19/18 A3010 RMK AO2 SFC VIS 4 SLP190 P0002 60004 T01890178 10189 20161 58011 (KAH)","FM-15","7",,,,,,,,,,,,,,,,,,,,,,,,,,,,"2009-07-08"
"72306013722","2020-05-21T13:00:00","FM-12","4",,,,,,,,,,,,,,,,,,,,,,,,,,,,,,,,,,,,,,,"64","66",,"||RA","+0.03","8","93","30.09","8","29.64","2.98","65","080",,"13",,,,,,,,,,,,,,,,,,,,,,,,,,,,,,,,,,,,,"SYN10472306 11348 80811 10189 20178 30037 40190 58011 60011 761// 91751 333 10189 20144 91018 96010 555 92118=","FM-12","4",,,,,,,,,,,,,,,,,,,,,,,,,,,,"2009-07-08"
"72306013722","2020-05-21T13:36:00","FM-16","7",,,,,,,,,,,,,,,,,,,,,,,,,,,,,,,,,,,,,,"30.10","65","67","T","-DZ:01 BR:1 |DZ |DZ",,,"93",,"BKN:07 8 OVC:08 14","29.63","2.50","66","090",,"11",,,,,,,,,,,,,,,,,,,,,,,,,,,,,,,,,,,,,"MET13605/21/20 13:36:02 SPECI KRDU 211836Z 09010KT 2 1/2SM -DZ BR BKN008 OVC014 19/18 A3010 RMK AO2 TWR VIS 3 RAE30DZB30 P0000 T01940183 (KAH)","FM-16","7",,,,,,,,,,,,,,,,,,,,,,,,,,,,"2009-07-08"
"72306013722","2020-05-21T13:51:00","FM-15","7",,,,,,,,,,,,,,,,,,,,,,,,,,,,,,,,,,,,,,"30.10","65","66","T","-DZ:01 BR:1 |DZ |DZ",,,"96","30.09","BKN:07 8 OVC:08 14","29.63","2.00","65","090","21","16",,,,,,,,,,,,,,,,,,,,,,,,,,,,,,,,,,,,,"MET13205/21/20 13:51:02 METAR KRDU 211851Z 09014G18KT 2SM -DZ BR BKN008 OVC014 19/18 A3010 RMK AO2 RAE30DZB30 SLP190 P0000 T01890183 (KAH)","FM-15","7",,,,,,,,,,,,,,,,,,,,,,,,,,,,"2009-07-08"
"72306013722","2020-05-21T14:51:00","FM-15","7",,,,,,,,,,,,,,,,,,,,,,,,,,,,,,,,,,,,,,"30.08","65","66","T","-DZ:01 BR:1 |DZ |DZ",,,"96","30.07","BKN:07 7 OVC:08 14","29.61","2.00","65","080",,"11",,,,,,,,,,,,,,,,,,,,,,,,,,,,,,,,,,,,,"MET11805/21/20 14:51:02 METAR KRDU 211951Z 08010KT 2SM -DZ BR BKN007 OVC014 19/18 A3008 RMK AO2 SLP184 P0000 T01890183 (JBA)","FM-15","7",,,,,,,,,,,,,,,,,,,,,,,,,,,,"2009-07-08"
"72306013722","2020-05-21T15:31:00","FM-16","7",,,,,,,,,,,,,,,,,,,,,,,,,,,,,,,,,,,,,,"30.08","65","66","T","BR:1 ||",,,"96",,"OVC:08 5","29.61","4.00","65","090",,"8",,,,,,,,,,,,,,,,,,,,,,,,,,,,,,,,,,,,,"MET10605/21/20 15:31:02 SPECI KRDU 212031Z 09007KT 4SM BR OVC005 19/18 A3008 RMK AO2 DZE31 P0000 T01890183 (JBA)","FM-16","7",,,,,,,,,,,,,,,,,,,,,,,,,,,,"2009-07-08"
"72306013722","2020-05-21T15:51:00","FM-15","7",,,,,,,,,,,,,,,,,,,,,,,,,,,,,,,,,,,,,,"30.08","65","66","T","-DZ:01 BR:1 |DZ |DZ","+0.02","8","96","30.07","OVC:08 5","29.61","3.00","65","090",,"10",,,,,,,,,,,,,,,,,,,,,,,,,,,,,,,,,,,,,"MET13205/21/20 15:51:02 METAR KRDU 212051Z 09009KT 3SM -DZ BR OVC005 19/18 A3008 RMK AO2 DZE31B41 SLP183 P0000 60000 T01890183 58007 (JBA)","FM-15","7",,,,,,,,,,,,,,,,,,,,,,,,,,,,"2009-07-08"
"72306013722","2020-05-21T15:58:00","FM-16","7",,,,,,,,,,,,,,,,,,,,,,,,,,,,,,,,,,,,,,"30.08","65","66","T","-DZ:01 BR:1 |DZ |DZ",,,"96",,"OVC:08 5","29.61","2.00","65","090",,"9",,,,,,,,,,,,,,,,,,,,,,,,,,,,,,,,,,,,,"MET10405/21/20 15:58:02 SPECI KRDU 212058Z 09008KT 2SM -DZ BR OVC005 19/18 A3008 RMK AO2 P0000 T01890183 (JBA)","FM-16","7",,,,,,,,,,,,,,,,,,,,,,,,,,,,"2009-07-08"
"72306013722","2020-05-21T16:14:00","FM-16","7",,,,,,,,,,,,,,,,,,,,,,,,,,,,,,,,,,,,,,"30.07","65","66","T","BR:1 ||",,,"96",,"OVC:08 5","29.60","3.00","65","080",,"9",,,,,,,,,,,,,,,,,,,,,,,,,,,,,,,,,,,,,"MET10605/21/20 16:14:02 SPECI KRDU 212114Z 08008KT 3SM BR OVC005 19/18 A3007 RMK AO2 DZE14 P0000 T01890183 (JBA)","FM-16","7",,,,,,,,,,,,,,,,,,,,,,,,,,,,"2009-07-08"
"72306013722","2020-05-21T16:35:00","FM-16","7",,,,,,,,,,,,,,,,,,,,,,,,,,,,,,,,,,,,,,"30.06","65","66","T","BR:1 ||",,,"96",,"OVC:08 4","29.59","3.00","65","090",,"11",,,,,,,,,,,,,,,,,,,,,,,,,,,,,,,,,,,,,"MET10605/21/20 16:35:02 SPECI KRDU 212135Z 09010KT 3SM BR OVC004 19/18 A3006 RMK AO2 DZE14 P0000 T01890183 (JBA)","FM-16","7",,,,,,,,,,,,,,,,,,,,,,,,,,,,"2009-07-08"
"72306013722","2020-05-21T16:49:00","FM-16","6",,,,,,,,,,,,,,,,,,,,,,,,,,,,,,,,,,,,,,"30.06","64","66",,"-RA:02 BR:1 |RA |RA",,,"94",,"OVC:08 4","29.59","2.50","65","090",,"10",,,,,,,,,,,,,,,,,,,,,,,,,,,,,,,,,,,,,"MET11405/21/20 16:49:02 SPECI KRDU 212149Z 09009KT 2 1/2SM -RA BR OVC004 19/18 A3006 RMK AO2 DZE14RAB47 P0001 FIBI (JBA)","FM-16","6",,,,,,,,,,,,,,,,,,,,,,,,,,,,"2009-07-08"
"72306013722","2020-05-21T16:51:00","FM-15","7",,,,,,,,,,,,,,,,,,,,,,,,,,,,,,,,,,,,,,"30.06","65","66","0.02","-RA:02 BR:1 |RA |RA",,,"96","30.05","OVC:08 4","29.59","2.50","65","090",,"11",,,,,,,,,,,,,,,,,,,,,,,,,,,,,,,,,,,,,"MET12605/21/20 16:51:02 METAR KRDU 212151Z 09010KT 2 1/2SM -RA BR OVC004 19/18 A3006 RMK AO2 DZE14RAB47 SLP176 P0001 T01890183 (JBA)","FM-15","7",,,,,,,,,,,,,,,,,,,,,,,,,,,,"2009-07-08"
"72306013722","2020-05-21T17:31:00","FM-16","7",,,,,,,,,,,,,,,,,,,,,,,,,,,,,,,,,,,,,,"30.05","66","67","0.12","RA:02 BR:1 |RA |RA",,,"97",,"BKN:07 4 BKN:07 9 OVC:08 50","29.58","3.00","66","070",,"8",,,,,,,,,,,,,,,,,,,,,,,,,,,,,,,,,,,,,"MET11705/21/20 17:31:02 SPECI KRDU 212231Z 07007KT 3SM RA BR BKN004 BKN009 OVC050 19/19 A3005 RMK AO2 P0012 T01940189 (JBA)","FM-16","7",,,,,,,,,,,,,,,,,,,,,,,,,,,,"2009-07-08"
"72306013722","2020-05-21T17:43:00","FM-16","7",,,,,,,,,,,,,,,,,,,,,,,,,,,,,,,,,,,,,,"30.04","66","67","0.12","-RA:02 BR:1 |RA |RA",,,"97",,"BKN:07 6 OVC:08 50","29.57","6.00","66","090",,"10",,,,,,,,,,,,,,,,,,,,,,,,,,,,,,,,,,,,,"MET11105/21/20 17:43:02 SPECI KRDU 212243Z 09009KT 6SM -RA BR BKN006 OVC050 19/19 A3004 RMK AO2 P0012 T01940189 (JBA)","FM-16","7",,,,,,,,,,,,,,,,,,,,,,,,,,,,"2009-07-08"
"72306013722","2020-05-21T17:51:00","FM-15","7",,,,,,,,,,,,,,,,,,,,,,,,,,,,,,,,,,,,,,"30.04","66","67","0.11","-RA:02 |RA |RA",,,"97","30.03","OVC:08 6","29.57","8.00","66","080",,"10",,,,,,,,,,,,,,,,,,,,,,,,,,,,,,,,,,,,,"MET10805/21/20 17:51:02 METAR KRDU 212251Z 08009KT 8SM -RA OVC006 19/19 A3004 RMK AO2 SLP170 P0012 T01940189 (JBA)","FM-15","7",,,,,,,,,,,,,,,,,,,,,,,,,,,,"2009-07-08"
"72306013722","2020-05-21T18:05:00","FM-16","7",,,,,,,,,,,,,,,,,,,,,,,,,,,,,,,,,,,,,,"30.04","66","67","T","-RA:02 BR:1 |RA |RA",,,"97",,"OVC:08 4","29.57","3.00","66","080",,"8",,,,,,,,,,,,,,,,,,,,,,,,,,,,,,,,,,,,,"MET10405/21/20 18:05:02 SPECI KRDU 212305Z 08007KT 3SM -RA BR OVC004 19/19 A3004 RMK AO2 P0000 T01940189 (JBA)","FM-16","7",,,,,,,,,,,,,,,,,,,,,,,,,,,,"2009-07-08"
"72306013722","2020-05-21T18:40:00","FM-16","7",,,,,,,,,,,,,,,,,,,,,,,,,,,,,,,,,,,,,,"30.05","66","67","T","-DZ:01 BR:1 |DZ |DZ",,,"97",,"OVC:08 4","29.58","2.00","66","090",,"8",,,,,,,,,,,,,,,,,,,,,,,,,,,,,,,,,,,,,"MET11505/21/20 18:40:02 SPECI KRDU 212340Z 09007KT 2SM -DZ BR OVC004 19/19 A3005 RMK AO2 RAE16DZB16 P0000 T01940189 (JBA)","FM-16","7",,,,,,,,,,,,,,,,,,,,,,,,,,,,"2009-07-08"
"72306013722","2020-05-21T18:51:00","FM-15","7",,,,,,,,,,,,,,,,,,,,,,,,,,,,,,,,,,,,,,"30.05","66","67","T","BR:1 ||","+0.03","5","97","30.04","OVC:08 4","29.58","2.50","66","080",,"7",,,,,,,,,,,,,,,,,,,,,,,,,,,,,,,,,,,,,"MET14905/21/20 18:51:02 METAR KRDU 212351Z 08006KT 2 1/2SM BR OVC004 19/19 A3005 RMK AO2 RAE16DZB16E44 SLP173 P0000 60013 T01940189 10194 20189 55009 (JBA)","FM-15","7",,,,,,,,,,,,,,,,,,,,,,,,,,,,"2009-07-08"
"72306013722","2020-05-21T19:00:00","FM-12","4",,,,,,,,,,,,,,,,,,,,,,,,,,,,,,,,,,,,,,,"66","67",,,"+0.03","5","97","30.04","5","29.59","2.49","66","080",,"7",,,,,,,,,,,,,,,,,,,,,,,,,,,,,,,,,,,,,"SYN09272306 11240 80806 10194 20189 30020 40173 55009 60031 710// 92351 333 10194 20150 555 92200=","FM-12","4",,,,,,,,,,,,,,,,,,,,,,,,,,,,"2009-07-08"
"72306013722","2020-05-21T19:26:00","FM-16","7",,,,,,,,,,,,,,,,,,,,,,,,,,,,,,,,,,,,,,"30.05","66","67","T","|RA |",,,"97",,,,"1.00",,"080",,"8",,,,,,,,,,,,,,,,,,,,,,,,,,,,,,,,,,,,,"MET05805/21/20 19:26:01 SPECI KRDU 220026Z 08007KT 1SM RVRNO RMK","FM-16","7",,,,,,,,,,,,,,,,,,,,,,,,,,,,"2009-07-08"
"72306013722","2020-05-21T19:38:00","FM-16","7",,,,,,,,,,,,,,,,,,,,,,,,,,,,,,,,,,,,,,"30.05","66","67","0.06","RA:02 BR:1 |RA |RA",,,"97",,"BKN:07 4 OVC:08 7","29.58","1.50","66","070",,"6",,,,,,,,,,,,,,,,,,,,,,,,,,,,,,,,,,,,,"MET11405/21/20 19:38:01 SPECI KRDU 220038Z 07005KT 1 1/2SM RA BR BKN004 OVC007 19/19 A3005 RMK AO2 RAB26 P0006 T01940189","FM-16","7",,,,,,,,,,,,,,,,,,,,,,,,,,,,"2009-07-08"
"72306013722","2020-05-21T19:49:00","FM-16","6",,,,,,,,,,,,,,,,,,,,,,,,,,,,,,,,,,,,,,"30.05","66","66",,"BR:1 ||",,,"100",,"BKN:07 4 OVC:08 34","29.58","5.00","66","080",,"7",,,,,,,,,,,,,,,,,,,,,,,,,,,,,,,,,,,,,"MET11105/21/20 19:49:03 SPECI KRDU 220049Z 08006KT 5SM BR BKN004 OVC034 19/19 A3005 RMK AO2 RAB26E46 P0013 FIBI (JBA)","FM-16","6",,,,,,,,,,,,,,,,,,,,,,,,,,,,"2009-07-08"
"72306013722","2020-05-21T19:51:00","FM-15","7",,,,,,,,,,,,,,,,,,,,,,,,,,,,,,,,,,,,,,"30.05","66","67","0.13","BR:1 ||",,,"97","30.04","BKN:07 4 OVC:08 34","29.58","5.00","66","090",,"8",,,,,,,,,,,,,,,,,,,,,,,,,,,,,,,,,,,,,"MET11705/21/20 19:51:01 METAR KRDU 220051Z 09007KT 5SM BR BKN004 OVC034 19/19 A3005 RMK AO2 RAB26E46 SLP174 P0013 T01940189","FM-15","7",,,,,,,,,,,,,,,,,,,,,,,,,,,,"2009-07-08"
"72306013722","2020-05-21T20:07:00","FM-16","7",,,,,,,,,,,,,,,,,,,,,,,,,,,,,,,,,,,,,,"30.05","66","68",,"BR:1 ||",,,"93",,"BKN:07 6 BKN:07 17 OVC:08 47","29.58","5.00","67","080",,"9",,,,,,,,,,,,,,,,,,,,,,,,,,,,,,,,,,,,,"MET10205/21/20 20:07:01 SPECI KRDU 220107Z 08008KT 5SM BR BKN006 BKN017 OVC047 20/19 A3005 RMK AO2 T02000189","FM-16","7",,,,,,,,,,,,,,,,,,,,,,,,,,,,"2009-07-08"
"72306013722","2020-05-21T20:27:00","FM-16","7",,,,,,,,,,,,,,,,,,,,,,,,,,,,,,,,,,,,,,"30.05","66","68","0.01","-RA:02 BR:1 |RA |RA",,,"93",,"SCT:04 6 BKN:07 49 OVC:08 80","29.58","6.00","67","110",,"10",,,,,,,,,,,,,,,,,,,,,,,,,,,,,,,,,,,,,"MET11805/21/20 20:27:01 SPECI KRDU 220127Z 11009KT 6SM -RA BR SCT006 BKN049 OVC080 20/19 A3005 RMK AO2 RAB20 P0001 T02000189","FM-16","7",,,,,,,,,,,,,,,,,,,,,,,,,,,,"2009-07-08"
"72306013722","2020-05-21T20:51:00","FM-15","7",,,,,,,,,,,,,,,,,,,,,,,,,,,,,,,,,,,,,,"30.05","66","68","0.03","|RA |RA",,,"93","30.04","FEW:02 6 BKN:07 65 BKN:07 100","29.58","6.00","67","100",,"9",,,,,,,,,,,,,,,,,,,,,,,,,,,,,,,,,,,,,"MET12505/21/20 20:51:01 METAR KRDU 220151Z 10008KT 6SM -RA BR FEW006 BKN065 BKN100 20/19 A3005 RMK AO2 RAB20 SLP173 P0003 T02000189","FM-15","7",,,,,,,,,,,,,,,,,,,,,,,,,,,,"2009-07-08"
"72306013722","2020-05-21T21:32:00","FM-16","7",,,,,,,,,,,,,,,,,,,,,,,,,,,,,,,,,,,,,,"30.05","67","68","T",,,,"96",,"BKN:07 6 BKN:07 18 OVC:08 65","29.58","10.00","67","130",,"7",,,,,,,,,,,,,,,,,,,,,,,,,,,,,,,,,,,,,"MET11205/21/20 21:32:01 SPECI KRDU 220232Z 13006KT 10SM BKN006 BKN018 OVC065 20/19 A3005 RMK AO2 RAE32 P0000 T02000194","FM-16","7",,,,,,,,,,,,,,,,,,,,,,,,,,,,"2009-07-08"
"72306013722","2020-05-21T21:51:00","FM-15","7",,,,,,,,,,,,,,,,,,,,,,,,,,,,,,,,,,,,,,"30.05","67","69","T",,"+0.00","8","93","30.04","BKN:07 6 BKN:07 24 OVC:08 34","29.58","10.00","68","110",,"8",,,,,,,,,,,,,,,,,,,,,,,,,,,,,,,,,,,,,"MET13105/21/20 21:51:01 METAR KRDU 220251Z 11007KT 10SM BKN006 BKN024 OVC034 21/19 A3005 RMK AO2 RAE32 SLP172 P0000 60016 T02060194 58001","FM-15","7",,,,,,,,,,,,,,,,,,,,,,,,,,,,"2009-07-08"
"72306013722","2020-05-21T22:11:00","FM-16","7",,,,,,,,,,,,,,,,,,,,,,,,,,,,,,,,,,,,,,"30.06","68","69",,,,,"96",,"SCT:04 6 BKN:07 20 OVC:08 40","29.59","10.00","68","120",,"7",,,,,,,,,,,,,,,,,,,,,,,,,,,,,,,,,,,,,"MET11705/21/20 22:11:01 SPECI KRDU 220311Z 12006KT 10SM SCT006 BKN020 OVC040 21/20 A3006 RMK AO2 OCNL LTG DSNT NE T02060200","FM-16","7",,,,,,,,,,,,,,,,,,,,,,,,,,,,"2009-07-08"
"72306013722","2020-05-21T22:33:00","FM-16","7",,,,,,,,,,,,,,,,,,,,,,,,,,,,,,,,,,,,,,"30.06","68","69",,,,,"96",,"SCT:04 6 BKN:07 13 OVC:08 60","29.59","10.00","68","130",,"6",,,,,,,,,,,,,,,,,,,,,,,,,,,,,,,,,,,,,"MET11605/21/20 22:33:02 SPECI KRDU 220333Z 13005KT 10SM SCT006 BKN013 OVC060 21/20 A3006 RMK AO2 OCNL LTG DSNT W T02060200","FM-16","7",,,,,,,,,,,,,,,,,,,,,,,,,,,,"2009-07-08"
"72306013722","2020-05-21T22:51:00","FM-15","7",,,,,,,,,,,,,,,,,,,,,,,,,,,,,,,,,,,,,,"30.06","68","69","0.00",,,,"96","30.05","SCT:04 6 BKN:07 25 OVC:08 60","29.59","8.00","68","110",,"8",,,,,,,,,,,,,,,,,,,,,,,,,,,,,,,,,,,,,"MET12505/21/20 22:51:02 METAR KRDU 220351Z 11007KT 8SM SCT006 BKN025 OVC060 21/20 A3006 RMK AO2 SLP176 OCNL LTG DSNT W-NW T02060200","FM-15","7",,,,,,,,,,,,,,,,,,,,,,,,,,,,"2009-07-08"
"72306013722","2020-05-21T23:51:00","FM-15","7",,,,,,,,,,,,,,,,,,,,,,,,,,,,,,,,,,,,,,"30.05","68","69","T",,,,"96","30.04","FEW:02 4 BKN:07 13 OVC:08 40","29.58","8.00","68","200",,"6",,,,,,,,,,,,,,,,,,,,,,,,,,,,,,,,,,,,,"MET13105/21/20 23:51:02 METAR KRDU 220451Z 20005KT 8SM FEW004 BKN013 OVC040 21/20 A3005 RMK AO2 RAB21E34 SLP172 P0000 T02060200 402110150","FM-15","7",,,,,,,,,,,,,,,,,,,,,,,,,,,,"2009-07-08"
"72306013722","2020-05-21T23:59:00","SOD  ","6",,,,,,,,,,,,,,,"63","65","95","30.07","29.60","63","12.0","0","-4.4","0","70","59","080","30","0.67","0","0.0","080","20","RA DZ BR",,,,,,,,,,,,,,,,,,,,,,,,,,,,,,,,,,,,,,,,,,,,,,,,,,,,,,,,"SOD78024 HR PRECIPITATION (IN): 0.67 SNOW DEPTH (IN):0     24 HR SNOWFALL (IN):0.0  WEATHER(CODE):1  24 HR MAX TEMP (F): 7024 HR MIN TEMP (F): 59AVERAGE STATION PRESSURE:29.605 MINIMUM SEA LEVEL PRESSURE:30.03 TIME OF OCCURRENCE:1914 PEAK WIND SPEED (MPH): 30 PEAK WIND DIR (DEG): 80 PEAK WIND TIME (LST):      FASTEST 2MIN SPEED (MPH): 20FASTEST 2MIN DIR (DEG): 80 FASTEST 2MIN TIME (LST):     AVERAGE WIND SPEED (MPH):12.0 24 HR AVG TEMP (F): 65DEPART FROM NORMAL: -4  SKY COVER SR-SS (TENTHS): 1HEATING DEGREE DAYS:  0 COOLING DEGREE DAYS:  0 LATEST DAY MAX TEMP (0700-1900 LST):67  LATEST NIGHT MIN TEMP(1900-0800 LST):58 HOURLY INCREMENTAL PRECIPITATION VALUES (IN):.02 0.01 T    0.11 0.17 T    0.03 T    0.01 T    T    0.01 0.02 T    T    T    0.02 0.11 T    0.13 0.03 T    0.00 T","SOD  ","6",,,,,,,,,,,,,,,,,,,,,,,,,"0505","1919",,"2009-07-08"
"72306013722","2020-05-22T00:16:00","FM-16","7",,,,,,,,,,,,,,,,,,,,,,,,,,,,,,,,,,,,,,"30.04","68","69",,,,,"96",,"BKN:07 8 BKN:07 15 BKN:07 50","29.57","7.00","68","180",,"3",,,,,,,,,,,,,,,,,,,,,,,,,,,,,,,,,,,,,"MET10505/22/20 00:16:02 SPECI KRDU 220516Z 18003KT 7SM BKN008 BKN015 BKN050 21/20 A3004 RMK AO2 T02060200 (AWB)","FM-16","7",,,,,,,,,,,,,,,,,,,,,,,,,,,,"2009-07-08"
"72306013722","2020-05-22T00:51:00","FM-15","7",,,,,,,,,,,,,,,,,,,,,,,,,,,,,,,,,,,,,,"30.05","68","69","0.00",,"+0.00","8","96","30.03","SCT:04 7 BKN:07 15 BKN:07 42","29.58","8.00","68","210",,"5",,,,,,,,,,,,,,,,,,,,,,,,,,,,,,,,,,,,,"MET13605/22/20 00:51:02 METAR KRDU 220551Z 21004KT 8SM SCT007 BKN015 BKN042 21/20 A3005 RMK AO2 SLP170 60016 T02060200 10211 20194 58001 (AWB)","FM-15","7",,,,,,,,,,,,,,,,,,,,,,,,,,,,"2009-07-08"
"72306013722","2020-05-22T01:00:00","FM-12","4",,,,,,,,,,,,,,,,,,,,,,,,,,,,,,,,,,,,,,,"68","69",,,"+0.00","8","96","30.03","8","29.59","7.46","68","210",,"5",,,,,,,,,,,,,,,,,,,,,,,,,,,,,,,,,,,,,"SYN08672306 12362 62104 10206 20200 30020 40170 58001 60041 90551 333 10211 20150 555 92206=","FM-12","4",,,,,,,,,,,,,,,,,,,,,,,,,,,,"2009-07-08"
"72306013722","2020-05-22T01:01:00","FM-16","7",,,,,,,,,,,,,,,,,,,,,,,,,,,,,,,,,,,,,,"30.04","68","69",,,,,"96",,"FEW:02 4 BKN:07 13 BKN:07 45","29.57","8.00","68","220",,"6",,,,,,,,,,,,,,,,,,,,,,,,,,,,,,,,,,,,,"MET10505/22/20 01:01:02 SPECI KRDU 220601Z 22005KT 8SM FEW004 BKN013 BKN045 21/20 A3004 RMK AO2 T02060200 (AWB)","FM-16","7",,,,,,,,,,,,,,,,,,,,,,,,,,,,"2009-07-08"
"72306013722","2020-05-22T01:19:00","FM-16","7",,,,,,,,,,,,,,,,,,,,,,,,,,,,,,,,,,,,,,"30.05","67","68",,,,,"96",,"FEW:02 4 BKN:07 7 BKN:07 14","29.58","8.00","67","210",,"6",,,,,,,,,,,,,,,,,,,,,,,,,,,,,,,,,,,,,"MET10505/22/20 01:19:02 SPECI KRDU 220619Z 21005KT 8SM FEW004 BKN007 BKN014 20/19 A3005 RMK AO2 T02000194 (AWB)","FM-16","7",,,,,,,,,,,,,,,,,,,,,,,,,,,,"2009-07-08"
"72306013722","2020-05-22T01:51:00","FM-15","7",,,,,,,,,,,,,,,,,,,,,,,,,,,,,,,,,,,,,,"30.04","66","67","0.00",,,,"97","30.03","FEW:02 5 FEW:02 14 FEW:02 45","29.57","7.00","66","210",,"5",,,,,,,,,,,,,,,,,,,,,,,,,,,,,,,,,,,,,"MET11205/22/20 01:51:02 METAR KRDU 220651Z 21004KT 7SM FEW005 FEW014 FEW045 19/19 A3004 RMK AO2 SLP169 T01940189 (AWB)","FM-15","7",,,,,,,,,,,,,,,,,,,,,,,,,,,,"2009-07-08"
"72306013722","2020-05-22T02:25:00","FM-16","7",,,,,,,,,,,,,,,,,,,,,,,,,,,,,,,,,,,,,,"30.05","65","65",,"BR:1 ||",,,"100",,"BKN:07 5 BKN:07 13 BKN:07 45","29.58","5.00","65","220",,"6",,,,,,,,,,,,,,,,,,,,,,,,,,,,,,,,,,,,,"MET10805/22/20 02:25:02 SPECI KRDU 220725Z 22005KT 5SM BR BKN005 BKN013 BKN045 18/18 A3005 RMK AO2 T01830183 (AWB)","FM-16","7",,,,,,,,,,,,,,,,,,,,,,,,,,,,"2009-07-08"
"72306013722","2020-05-22T02:39:00","FM-16","7",,,,,,,,,,,,,,,,,,,,,,,,,,,,,,,,,,,,,,"30.04","66","66",,,,,"100",,"FEW:02 4 FEW:02 13 BKN:07 65","29.57","7.00","66","210",,"6",,,,,,,,,,,,,,,,,,,,,,,,,,,,,,,,,,,,,"MET10505/22/20 02:39:02 SPECI KRDU 220739Z 21005KT 7SM FEW004 FEW013 BKN065 19/19 A3004 RMK AO2 T01890189 (AWB)","FM-16","7",,,,,,,,,,,,,,,,,,,,,,,,,,,,"2009-07-08"
"72306013722","2020-05-22T02:51:00","FM-15","7",,,,,,,,,,,,,,,,,,,,,,,,,,,,,,,,,,,,,,"30.04","66","67","0.00",,,,"97","30.03","FEW:02 4 FEW:02 13 BKN:07 70","29.57","7.00","66","210",,"6",,,,,,,,,,,,,,,,,,,,,,,,,,,,,,,,,,,,,"MET11205/22/20 02:51:02 METAR KRDU 220751Z 21005KT 7SM FEW004 FEW013 BKN070 19/19 A3004 RMK AO2 SLP171 T01940189 (AWB)","FM-15","7",,,,,,,,,,,,,,,,,,,,,,,,,,,,"2009-07-08"
"72306013722","2020-05-22T03:13:00","FM-16","7",,,,,,,,,,,,,,,,,,,,,,,,,,,,,,,,,,,,,,"30.04","66","66",,"BR:1 ||",,,"100",,"BKN:07 7 BKN:07 13 BKN:07 75","29.57","4.00","66","220",,"7",,,,,,,,,,,,,,,,,,,,,,,,,,,,,,,,,,,,,"MET10805/22/20 03:13:02 SPECI KRDU 220813Z 22006KT 4SM BR BKN007 BKN013 BKN075 19/19 A3004 RMK AO2 T01890189 (AWB)","FM-16","7",,,,,,,,,,,,,,,,,,,,,,,,,,,,"2009-07-08"
"72306013722","2020-05-22T03:49:00","FM-16","6",,,,,,,,,,,,,,,,,,,,,,,,,,,,,,,,,,,,,,"30.04","64","66",,"BR:1 ||",,,"94",,"FEW:02 3 BKN:07 6 BKN:07 55","29.57","1.00","65","240",,"6",,,,,,,,,,,,,,,,,,,,,,,,,,,,,,,,,,,,,"MET11305/22/20 03:49:02 SPECI KRDU 220849Z 24005KT 1SM BR FEW003 BKN006 BKN055 19/18 A3004 RMK AO2 SFC VIS 3 FIBI (AWB)","FM-16","6",,,,,,,,,,,,,,,,,,,,,,,,,,,,"2009-07-08"
"72306013722","2020-05-22T03:51:00","FM-15","7",,,,,,,,,,,,,,,,,,,,,,,,,,,,,,,,,,,,,,"30.04","65","66","0.00","BR:1 ||","-0.00","1","96","30.03","FEW:02 3 BKN:07 6 BKN:07 55","29.57","1.00","65","230",,"6",,,,,,,,,,,,,,,,,,,,,,,,,,,,,,,,,,,,,"MET13105/22/20 03:51:02 METAR KRDU 220851Z 23005KT 1SM BR FEW003 BKN006 BKN055 19/18 A3004 RMK AO2 SFC VIS 2 SLP170 T01890183 51001 (AWB)","FM-15","7",,,,,,,,,,,,,,,,,,,,,,,,,,,,"2009-07-08"
"72306013722","2020-05-22T04:21:00","FM-16","7",,,,,,,,,,,,,,,,,,,,,,,,,,,,,,,,,,,,,,"30.06","64","65",,"BR:1 ||",,,"97",,"FEW:02 3 BKN:07 6 BKN:07 55","29.59","3.00","64","220",,"8",,,,,,,,,,,,,,,,,,,,,,,,,,,,,,,,,,,,,"MET11805/22/20 04:21:02 SPECI KRDU 220921Z 22007KT 3SM BR FEW003 BKN006 BKN055 18/18 A3006 RMK AO2 SFC VIS 5 T01830178 (AWB)","FM-16","7",,,,,,,,,,,,,,,,,,,,,,,,,,,,"2009-07-08"
"72306013722","2020-05-22T04:51:00","FM-15","7",,,,,,,,,,,,,,,,,,,,,,,,,,,,,,,,,,,,,,"30.06","63","64","0.00",,,,"96","30.05","FEW:02 3 BKN:07 9 BKN:07 55","29.59","3.00","63","240",,"7",,,,,,,,,,,,,,,,,,,,,,,,,,,,,,,,,,,,,"MET12205/22/20 04:51:02 METAR KRDU 220951Z 24006KT 3SM FEW003 BKN009 BKN055 18/17 A3006 RMK AO2 SFC VIS 9 SLP176 T01780172 (AWB)","FM-15","7",,,,,,,,,,,,,,,,,,,,,,,,,,,,"2009-07-08"
"72306013722","2020-05-22T05:51:00","FM-15","7",,,,,,,,,,,,,,,,,,,,,,,,,,,,,,,,,,,,,,"30.08","62","63","0.00",,,,"97","30.07","BKN:07 10","29.61","10.00","62","250",,"6",,,,,,,,,,,,,,,,,,,,,,,,,,,,,,,,,,,,,"MET09905/22/20 05:51:02 METAR KRDU 221051Z 25005KT 10SM BKN010 17/17 A3008 RMK AO2 SLP182 T01720167 (AWB)","FM-15","7",,,,,,,,,,,,,,,,,,,,,,,,,,,,"2009-07-08"
"72306013722","2020-05-22T06:21:00","FM-16","7",,,,,,,,,,,,,,,,,,,,,,,,,,,,,,,,,,,,,,"30.09","61","63",,,,,"93",,"BKN:07 6 BKN:07 10","29.62","10.00","62","270",,"5",,,,,,,,,,,,,,,,,,,,,,,,,,,,,,,,,,,,,"MET09905/22/20 06:21:02 SPECI KRDU 221121Z 27004KT 10SM BKN006 BKN010 17/16 A3009 RMK AO2 T01720161 (KAH)","FM-16","7",,,,,,,,,,,,,,,,,,,,,,,,,,,,"2009-07-08"
"72306013722","2020-05-22T06:51:00","FM-15","7",,,,,,,,,,,,,,,,,,,,,,,,,,,,,,,,,,,,,,"30.09","61","63","0.00",,"-0.05","3","93","30.09","BKN:07 6 BKN:07 14","29.62","10.00","62","250",,"6",,,,,,,,,,,,,,,,,,,,,,,,,,,,,,,,,,,,,"MET13005/22/20 06:51:02 METAR KRDU 221151Z 25005KT 10SM BKN006 BKN014 17/16 A3009 RMK AO2 SLP188 70033 T01720161 10206 20167 53017 (KAH)","FM-15","7",,,,,,,,,,,,,,,,,,,,,,,,,,,,"2009-07-08"
"72306013722","2020-05-22T07:00:00","FM-12","4",,,,,,,,,,,,,,,,,,,,,,,,,,,,,,,,,,,,,,,"61","63",,,"-0.05","3","93","30.09","5","29.63","9.94","62","250",,"6",,,,,,,,,,,,,,,,,,,,,,,,,,,,,,,,,,,,,"SYN08672306 32266 62505 10172 20161 30033 40188 53017 91151 333 10211 20167 70084 555 92212=","FM-12","4",,,,,,,,,,,,,,,,,,,,,,,,,,,,"2009-07-08"
"72306013722","2020-05-22T07:51:00","FM-15","7",,,,,,,,,,,,,,,,,,,,,,,,,,,,,,,,,,,,,,"30.11","61","63","0.00",,,,"93","30.10","BKN:07 6 OVC:08 10","29.64","10.00","62","240",,"6",,,,,,,,,,,,,,,,,,,,,,,,,,,,,,,,,,,,,"MET10605/22/20 07:51:02 METAR KRDU 221251Z 24005KT 10SM BKN006 OVC010 17/16 A3011 RMK AO2 SLP192 T01720161 (KAH)","FM-15","7",,,,,,,,,,,,,,,,,,,,,,,,,,,,"2009-07-08"
"72306013722","2020-05-22T08:51:00","FM-15","7",,,,,,,,,,,,,,,,,,,,,,,,,,,,,,,,,,,,,,"30.12","62","66","0.00",,,,"87","30.11","BKN:07 9 BKN:07 16","29.65","10.00","64","VRB",,"6",,,,,,,,,,,,,,,,,,,,,,,,,,,,,,,,,,,,,"MET10605/22/20 08:51:02 METAR KRDU 221351Z VRB05KT 10SM BKN009 BKN016 19/17 A3012 RMK AO2 SLP197 T01890167 (KAH)","FM-15","7",,,,,,,,,,,,,,,,,,,,,,,,,,,,"2009-07-08"
"72306013722","2020-05-22T09:18:00","FM-16","7",,,,,,,,,,,,,,,,,,,,,,,,,,,,,,,,,,,,,,"30.12","62","67",,,,,"84",,"BKN:07 11 BKN:07 21","29.65","10.00","64","250",,"8",,,,,,,,,,,,,,,,,,,,,,,,,,,,,,,,,,,,,"MET09905/22/20 09:18:02 SPECI KRDU 221418Z 25007KT 10SM BKN011 BKN021 19/17 A3012 RMK AO2 T01940167 (KAH)","FM-16","7",,,,,,,,,,,,,,,,,,,,,,,,,,,,"2009-07-08"
"72306013722","2020-05-22T09:51:00","FM-15","7",,,,,,,,,,,,,,,,,,,,,,,,,,,,,,,,,,,,,,"30.11","62","67","0.00",,"-0.02","0","84","30.10","BKN:07 14 BKN:07 250","29.64","10.00","64","280",,"6",,,,,,,,,,,,,,,,,,,,,,,,,,,,,,,,,,,,,"MET11205/22/20 09:51:02 METAR KRDU 221451Z 28005KT 10SM BKN014 BKN250 19/17 A3011 RMK AO2 SLP194 T01940167 50006 (KAH)","FM-15","7",,,,,,,,,,,,,,,,,,,,,,,,,,,,"2009-07-08"
"72306013722","2020-05-22T10:20:00","FM-16","7",,,,,,,,,,,,,,,,,,,,,,,,,,,,,,,,,,,,,,"30.11","62","70",,,,,"76",,"SCT:04 16 SCT:04 250","29.64","10.00","65","VRB",,"6",,,,,,,,,,,,,,,,,,,,,,,,,,,,,,,,,,,,,"MET09905/22/20 10:20:02 SPECI KRDU 221520Z VRB05KT 10SM SCT016 SCT250 21/17 A3011 RMK AO2 T02110167 (KAH)","FM-16","7",,,,,,,,,,,,,,,,,,,,,,,,,,,,"2009-07-08"
"72306013722","2020-05-22T10:51:00","FM-15","7",,,,,,,,,,,,,,,,,,,,,,,,,,,,,,,,,,,,,,"30.11","63","72","0.00",,,,"73","30.10","SCT:04 20 SCT:04 250","29.64","10.00","66","VRB",,"5",,,,,,,,,,,,,,,,,,,,,,,,,,,,,,,,,,,,,"MET10605/22/20 10:51:02 METAR KRDU 221551Z VRB04KT 10SM SCT020 SCT250 22/17 A3011 RMK AO2 SLP192 T02220172 (KAH)","FM-15","7",,,,,,,,,,,,,,,,,,,,,,,,,,,,"2009-07-08"
"72306013722","2020-05-22T11:51:00","FM-15","7",,,,,,,,,,,,,,,,,,,,,,,,,,,,,,,,,,,,,,"30.09","65","77","0.00",,,,"66","30.07","SCT:04 25 SCT:04 250","29.62","10.00","69","220","17","10",,,,,,,,,,,,,,,,,,,,,,,,,,,,,,,,,,,,,"MET10905/22/20 11:51:02 METAR KRDU 221651Z 22009G15KT 10SM SCT025 SCT250 25/18 A3009 RMK AO2 SLP184 T02500183 (KAH)","FM-15","7",,,,,,,,,,,,,,,,,,,,,,,,,,,,"2009-07-08"
"72306013722","2020-05-22T12:51:00","FM-15","7",,,,,,,,,,,,,,,,,,,,,,,,,,,,,,,,,,,,,,"30.07","65","79","0.00",,"+0.05","8","62","30.05","SCT:04 30 SCT:04 250","29.60","10.00","70","210",,"6",,,,,,,,,,,,,,,,,,,,,,,,,,,,,,,,,,,,,"MET12405/22/20 12:51:02 METAR KRDU 221751Z 21005KT 10SM SCT030 SCT250 26/18 A3007 RMK AO2 SLP177 T02610183 10261 20167 58016 (KAH)","FM-15","7",,,,,,,,,,,,,,,,,,,,,,,,,,,,"2009-07-08"
"72306013722","2020-05-22T13:00:00","FM-12","4",,,,,,,,,,,,,,,,,,,,,,,,,,,,,,,,,,,,,,,"65","79",,,"+0.05","8","62","30.05","26","29.61","9.94","70","210",,"6",,,,,,,,,,,,,,,,,,,,,,,,,,,,,,,,,,,,,"SYN08072306 32566 42105 10261 20183 30027 40177 58016 91751 333 10261 20167 555 92218=","FM-12","4",,,,,,,,,,,,,,,,,,,,,,,,,,,,"2009-07-08"
"72306013722","2020-05-22T13:51:00","FM-15","7",,,,,,,,,,,,,,,,,,,,,,,,,,,,,,,,,,,,,,"30.05","63","80","0.00",,,,"56","30.03","SCT:04 35 BKN:07 250","29.58","10.00","69","240",,"8",,,,,,,,,,,,,,,,,,,,,,,,,,,,,,,,,,,,,"MET10605/22/20 13:51:02 METAR KRDU 221851Z 24007KT 10SM SCT035 BKN250 27/17 A3005 RMK AO2 SLP171 T02670172 (KAH)","FM-15","7",,,,,,,,,,,,,,,,,,,,,,,,,,,,"2009-07-08"
"72306013722","2020-05-22T14:51:00","FM-15","7",,,,,,,,,,,,,,,,,,,,,,,,,,,,,,,,,,,,,,"30.04","64","81","0.00",,,,"57","30.02","SCT:04 35 BKN:07 250","29.57","10.00","70","240","18","8",,,,,,,,,,,,,,,,,,,,,,,,,,,,,,,,,,,,,"MET10905/22/20 14:51:02 METAR KRDU 221951Z 24007G16KT 10SM SCT035 BKN250 27/18 A3004 RMK AO2 SLP167 T02720178 (JBA)","FM-15","7",,,,,,,,,,,,,,,,,,,,,,,,,,,,"2009-07-08"
"72306013722","2020-05-22T15:51:00","FM-15","7",,,,,,,,,,,,,,,,,,,,,,,,,,,,,,,,,,,,,,"30.02","63","82","0.00",,"+0.05","8","53","30.01","FEW:02 35 BKN:07 250","29.55","10.00","70","250",,"13",,,,,,,,,,,,,,,,,,,,,,,,,,,,,,,,,,,,,"MET11205/22/20 15:51:02 METAR KRDU 222051Z 25011KT 10SM FEW035 BKN250 28/17 A3002 RMK AO2 SLP161 T02780172 58016 (JBA)","FM-15","7",,,,,,,,,,,,,,,,,,,,,,,,,,,,"2009-07-08"
"72306013722","2020-05-22T16:51:00","FM-15","7",,,,,,,,,,,,,,,,,,,,,,,,,,,,,,,,,,,,,,"30.02","62","80","0.00",,,,"54","30.01","FEW:02 35 BKN:07 250","29.55","10.00","69","250",,"8",,,,,,,,,,,,,,,,,,,,,,,,,,,,,,,,,,,,,"MET10605/22/20 16:51:02 METAR KRDU 222151Z 25007KT 10SM FEW035 BKN250 27/17 A3002 RMK AO2 SLP162 T02670167 (JBA)","FM-15","7",,,,,,,,,,,,,,,,,,,,,,,,,,,,"2009-07-08"
"72306013722","2020-05-22T17:51:00","FM-15","7",,,,,,,,,,,,,,,,,,,,,,,,,,,,,,,,,,,,,,"30.02","63","75","0.00",,,,"66","30.01","FEW:02 35 SCT:04 75 BKN:07 200","29.55","10.00","67","280",,"3",,,,,,,,,,,,,,,,,,,,,,,,,,,,,,,,,,,,,"MET11305/22/20 17:51:02 METAR KRDU 222251Z 28003KT 10SM FEW035 SCT075 BKN200 24/17 A3002 RMK AO2 SLP163 T02390172 (JBA)","FM-15","7",,,,,,,,,,,,,,,,,,,,,,,,,,,,"2009-07-08"
"72306013722","2020-05-22T18:51:00","FM-15","7",,,,,,,,,,,,,,,,,,,,,,,,,,,,,,,,,,,,,,"30.02","66","69","0.05s","-RA:02 |RA |RA","-0.00","0","90","30.01","SCT:04 95 BKN:07 110 OVC:08 250","29.55","7.00","67","000",,"0",,,,,,,,,,,,,,,,,,,,,,,,,,,,,,,,,,,,,"MET15205/22/20 18:51:02 METAR KRDU 222351Z 00000KT 7SM -RA SCT095 BKN110 OVC250 21/19 A3002 RMK AO2 RAB15 SLP163 P0004 60004 T02060189 10278 20206 50000 (JBA)","FM-15","7",,,,,,,,,,,,,,,,,,,,,,,,,,,,"2009-07-08"
"72306013722","2020-05-22T19:00:00","FM-12","4",,,,,,,,,,,,,,,,,,,,,,,,,,,,,,,,,,,,,,,"66","69",,"||RA","0.00","9","90","30.01",,"29.56","6.84","67","000",,"0",,,,,,,,,,,,,,,,,,,,,,,,,,,,,,,,,,,,,"SYN09272306 11961 80000 10206 20189 30010 40163 50000 60011 761// 92351 333 10278 20167 555 92300=","FM-12","4",,,,,,,,,,,,,,,,,,,,,,,,,,,,"2009-07-08"
"72306013722","2020-05-22T19:51:00","FM-15","7",,,,,,,,,,,,,,,,,,,,,,,,,,,,,,,,,,,,,,"29.97","66","70","T",,,,"87","29.96","FEW:02 95 SCT:04 110 BKN:07 160","29.50","10.00","67","130",,"7",,,,,,,,,,,,,,,,,,,,,,,,,,,,,,,,,,,,,"MET11905/22/20 19:51:01 METAR KRDU 230051Z 13006KT 10SM FEW095 SCT110 BKN160 21/19 A2997 RMK AO2 RAE30 SLP144 P0001 T02110189","FM-15","7",,,,,,,,,,,,,,,,,,,,,,,,,,,,"2009-07-08"
"72306013722","2020-05-22T20:51:00","FM-15","7",,,,,,,,,,,,,,,,,,,,,,,,,,,,,,,,,,,,,,"30.02","67","68","0.00",,,,"96","30.01","BKN:07 85 BKN:07 170 OVC:08 250","29.55","10.00","67","240",,"7",,,,,,,,,,,,,,,,,,,,,,,,,,,,,,,,,,,,,"MET10705/22/20 20:51:01 METAR KRDU 230151Z 24006KT 10SM BKN085 BKN170 OVC250 20/19 A3002 RMK AO2 SLP164 T02000194","FM-15","7",,,,,,,,,,,,,,,,,,,,,,,,,,,,"2009-07-08"
"72306013722","2020-05-22T21:51:00","FM-15","7",,,,,,,,,,,,,,,,,,,,,,,,,,,,,,,,,,,,,,"30.05","66","68","0.00",,"-0.04","3","93","30.04","BKN:07 85 OVC:08 110","29.58","10.00","67","230",,"8",,,,,,,,,,,,,,,,,,,,,,,,,,,,,,,,,,,,,"MET11205/22/20 21:51:01 METAR KRDU 230251Z 23007KT 10SM BKN085 OVC110 20/19 A3005 RMK AO2 SLP174 60001 T02000189 53012","FM-15","7",,,,,,,,,,,,,,,,,,,,,,,,,,,,"2009-07-08"
"72306013722","2020-05-22T22:26:00","FM-16","7",,,,,,,,,,,,,,,,,,,,,,,,,,,,,,,,,,,,,,"30.06","66","68",,,,,"93",,"BKN:07 6","29.59","10.00","67","230",,"6",,,,,,,,,,,,,,,,,,,,,,,,,,,,,,,,,,,,,"MET08605/22/20 22:26:02 SPECI KRDU 230326Z 23005KT 10SM BKN006 20/19 A3006 RMK AO2 T02000189","FM-16","7",,,,,,,,,,,,,,,,,,,,,,,,,,,,"2009-07-08"
"72306013722","2020-05-22T22:51:00","FM-15","7",,,,,,,,,,,,,,,,,,,,,,,,,,,,,,,,,,,,,,"30.06","65","66","0.00",,,,"96","30.04","BKN:07 6","29.59","10.00","65","240",,"7",,,,,,,,,,,,,,,,,,,,,,,,,,,,,,,,,,,,,"MET09305/22/20 22:51:02 METAR KRDU 230351Z 24006KT 10SM BKN006 19/18 A3006 RMK AO2 SLP174 T01890183","FM-15","7",,,,,,,,,,,,,,,,,,,,,,,,,,,,"2009-07-08"
"72306013722","2020-05-22T23:10:00","FM-16","7",,,,,,,,,,,,,,,,,,,,,,,,,,,,,,,,,,,,,,"30.05","64","65",,,,,"97",,"SCT:04 100","29.58","10.00","64","250",,"6",,,,,,,,,,,,,,,,,,,,,,,,,,,,,,,,,,,,,"MET08605/22/20 23:10:02 SPECI KRDU 230410Z 25005KT 10SM SCT100 18/18 A3005 RMK AO2 T01830178","FM-16","7",,,,,,,,,,,,,,,,,,,,,,,,,,,,"2009-07-08"
"72306013722","2020-05-22T23:51:00","FM-15","7",,,,,,,,,,,,,,,,,,,,,,,,,,,,,,,,,,,,,,"30.05","63","64","0.00",,,,"96","30.03","FEW:02 250","29.58","10.00","63","240",,"6",,,,,,,,,,,,,,,,,,,,,,,,,,,,,,,,,,,,,"MET10305/22/20 23:51:02 METAR KRDU 230451Z 24005KT 10SM FEW250 18/17 A3005 RMK AO2 SLP170 T01780172 402780167","FM-15","7",,,,,,,,,,,,,,,,,,,,,,,,,,,,"2009-07-08"
"72306013722","2020-05-22T23:59:00","SOD  ","6",,,,,,,,,,,,,,,"64","72","82","30.04","29.58","66","6.3","7","2.4","0","82","62","230","22","0.05","0","0.0","240","17","RA BR",,,,,,,,,,,,,,,,,,,,,,,,,,,,,,,,,,,,,,,,,,,,,,,,,,,,,,,,"SOD75624 HR PRECIPITATION (IN): 0.05 SNOW DEPTH (IN):0     24 HR SNOWFALL (IN):0.0  WEATHER(CODE):1  24 HR MAX TEMP (F): 8224 HR MIN TEMP (F): 62AVERAGE STATION PRESSURE:29.580 MINIMUM SEA LEVEL PRESSURE:29.95 TIME OF OCCURRENCE:2003 PEAK WIND SPEED (MPH): 22 PEAK WIND DIR (DEG):230 PEAK WIND TIME (LST):      FASTEST 2MIN SPEED (MPH): 17FASTEST 2MIN DIR (DEG):240 FASTEST 2MIN TIME (LST):     AVERAGE WIND SPEED (MPH): 6.3 24 HR AVG TEMP (F): 72DEPART FROM NORMAL:  2  HEATING DEGREE DAYS:  0 COOLING DEGREE DAYS:  7 LATEST DAY MAX TEMP (0700-1900 LST):82  LATEST NIGHT MIN TEMP(1900-0800 LST):62 HOURLY INCREMENTAL PRECIPITATION VALUES (IN):.00 0.00 0.00 0.00 0.00 0.00 0.00 0.00 0.00 0.00 0.00 0.00 0.00 0.00 0.00 0.00 0.00 0.00 0.05 T    0.00 0.00 0.00 0.00","SOD  ","6",,,,,,,,,,,,,,,,,,,,,,,,,"0504","1920",,"2009-07-08"
"72306013722","2020-05-23T00:51:00","FM-15","7",,,,,,,,,,,,,,,,,,,,,,,,,,,,,,,,,,,,,,"30.04","63","64","0.00",,"+0.01","8","96","30.03","FEW:02 250","29.57","10.00","63","250",,"6",,,,,,,,,,,,,,,,,,,,,,,,,,,,,,,,,,,,,"MET12205/23/20 00:51:02 METAR KRDU 230551Z 25005KT 10SM FEW250 18/17 A3004 RMK AO2 SLP169 60001 T01780172 10217 20172 58004 (VD)","FM-15","7",,,,,,,,,,,,,,,,,,,,,,,,,,,,"2009-07-08"
"72306013722","2020-05-23T01:00:00","FM-12","4",,,,,,,,,,,,,,,,,,,,,,,,,,,,,,,,,,,,,,,"63","64",,,"+0.01","8","96","30.03",,"29.58","9.94","63","250",,"6",,,,,,,,,,,,,,,,,,,,,,,,,,,,,,,,,,,,,"SYN08672306 12966 22505 10178 20172 30017 40169 58004 69931 90551 333 10217 20167 555 92306=","FM-12","4",,,,,,,,,,,,,,,,,,,,,,,,,,,,"2009-07-08"
"72306013722","2020-05-23T01:51:00","FM-15","7",,,,,,,,,,,,,,,,,,,,,,,,,,,,,,,,,,,,,,"30.04","61","62","0.00",,,,"96","30.03","FEW:02 250","29.57","10.00","61","240",,"5",,,,,,,,,,,,,,,,,,,,,,,,,,,,,,,,,,,,,"MET09805/23/20 01:51:02 METAR KRDU 230651Z 24004KT 10SM FEW250 17/16 A3004 RMK AO2 SLP168 T01670161 (VD)","FM-15","7",,,,,,,,,,,,,,,,,,,,,,,,,,,,"2009-07-08"
"72306013722","2020-05-23T02:51:00","FM-15","7",,,,,,,,,,,,,,,,,,,,,,,,,,,,,,,,,,,,,,"30.03","61","62","0.00",,,,"96","30.02","BKN:07 100","29.56","10.00","61","250",,"3",,,,,,,,,,,,,,,,,,,,,,,,,,,,,,,,,,,,,"MET09805/23/20 02:51:02 METAR KRDU 230751Z 25003KT 10SM BKN100 17/16 A3003 RMK AO2 SLP166 T01670161 (VD)","FM-15","7",,,,,,,,,,,,,,,,,,,,,,,,,,,,"2009-07-08"
"72306013722","2020-05-23T03:34:00","FM-16","7",,,,,,,,,,,,,,,,,,,,,,,,,,,,,,,,,,,,,,"30.03","62","63",,,,,"97",,"BKN:07 12 BKN:07 18","29.56","10.00","62","240",,"5",,,,,,,,,,,,,,,,,,,,,,,,,,,,,,,,,,,,,"MET09805/23/20 03:34:02 SPECI KRDU 230834Z 24004KT 10SM BKN012 BKN018 17/17 A3003 RMK AO2 T01720167 (VD)","FM-16","7",,,,,,,,,,,,,,,,,,,,,,,,,,,,"2009-07-08"
"72306013722","2020-05-23T03:51:00","FM-15","7",,,,,,,,,,,,,,,,,,,,,,,,,,,,,,,,,,,,,,"30.03","62","63","0.00",,"+0.01","6","97","30.01","BKN:07 12 BKN:07 18","29.56","10.00","62","250",,"3",,,,,,,,,,,,,,,,,,,,,,,,,,,,,,,,,,,,,"MET11105/23/20 03:51:02 METAR KRDU 230851Z 25003KT 10SM BKN012 BKN018 17/17 A3003 RMK AO2 SLP164 T01720167 56003 (VD)","FM-15","7",,,,,,,,,,,,,,,,,,,,,,,,,,,,"2009-07-08"
"72306013722","2020-05-23T04:51:00","FM-15","7",,,,,,,,,,,,,,,,,,,,,,,,,,,,,,,,,,,,,,"30.03","62","63","0.00",,,,"97","30.02","BKN:07 10","29.56","10.00","62","240",,"3",,,,,,,,,,,,,,,,,,,,,,,,,,,,,,,,,,,,,"MET09805/23/20 04:51:02 METAR KRDU 230951Z 24003KT 10SM BKN010 17/17 A3003 RMK AO2 SLP165 T01720167 (VD)","FM-15","7",,,,,,,,,,,,,,,,,,,,,,,,,,,,"2009-07-08"
"72306013722","2020-05-23T05:02:00","FM-16","7",,,,,,,,,,,,,,,,,,,,,,,,,,,,,,,,,,,,,,"30.03","62","63",,,,,"97",,"FEW:02 10 SCT:04 100","29.56","10.00","62","000",,"0",,,,,,,,,,,,,,,,,,,,,,,,,,,,,,,,,,,,,"MET09805/23/20 05:02:02 SPECI KRDU 231002Z 00000KT 10SM FEW010 SCT100 17/17 A3003 RMK AO2 T01720167 (VD)","FM-16","7",,,,,,,,,,,,,,,,,,,,,,,,,,,,"2009-07-08"
"72306013722","2020-05-23T05:51:00","FM-15","7",,,,,,,,,,,,,,,,,,,,,,,,,,,,,,,,,,,,,,"30.04","62","63","0.00",,,,"97","30.02","BKN:07 250","29.57","10.00","62","000",,"0",,,,,,,,,,,,,,,,,,,,,,,,,,,,,,,,,,,,,"MET09805/23/20 05:51:02 METAR KRDU 231051Z 00000KT 10SM BKN250 17/17 A3004 RMK AO2 SLP167 T01720167 (VD)","FM-15","7",,,,,,,,,,,,,,,,,,,,,,,,,,,,"2009-07-08"
"72306013722","2020-05-23T06:51:00","FM-15","7",,,,,,,,,,,,,,,,,,,,,,,,,,,,,,,,,,,,,,"30.05","65","67","0.00",,"-0.02","3","93","30.03","FEW:02 6 SCT:04 100 BKN:07 250","29.58","10.00","66","240",,"5",,,,,,,,,,,,,,,,,,,,,,,,,,,,,,,,,,,,,"MET13605/23/20 06:51:02 METAR KRDU 231151Z 24004KT 10SM FEW006 SCT100 BKN250 19/18 A3005 RMK AO2 SLP171 70005 T01940183 10194 20161 53006 (RP)","FM-15","7",,,,,,,,,,,,,,,,,,,,,,,,,,,,"2009-07-08"
"72306013722","2020-05-23T07:00:00","FM-12","4",,,,,,,,,,,,,,,,,,,,,,,,,,,,,,,,,,,,,,,"65","67",,,"-0.02","3","93","30.03","5","29.59","9.94","66","240",,"5",,,,,,,,,,,,,,,,,,,,,,,,,,,,,,,,,,,,,"SYN08672306 32266 62404 10194 20183 30020 40171 53006 91151 333 10278 20161 70013 555 92312=","FM-12","4",,,,,,,,,,,,,,,,,,,,,,,,,,,,"2009-07-08"
"72306013722","2020-05-23T07:51:00","FM-15","7",,,,,,,,,,,,,,,,,,,,,,,,,,,,,,,,,,,,,,"30.06","65","70","0.00",,,,"84","30.05","FEW:02 12 SCT:04 110 BKN:07 250","29.59","10.00","67","VRB",,"3",,,,,,,,,,,,,,,,,,,,,,,,,,,,,,,,,,,,,"MET11205/23/20 07:51:02 METAR KRDU 231251Z VRB03KT 10SM FEW012 SCT110 BKN250 21/18 A3006 RMK AO2 SLP175 T02110183 (RP)","FM-15","7",,,,,,,,,,,,,,,,,,,,,,,,,,,,"2009-07-08"
"72306013722","2020-05-23T08:51:00","FM-15","7",,,,,,,,,,,,,,,,,,,,,,,,,,,,,,,,,,,,,,"30.07","66","73","0.00",,,,"79","30.06","SCT:04 14 SCT:04 120 BKN:07 250","29.60","10.00","69","240",,"10",,,,,,,,,,,,,,,,,,,,,,,,,,,,,,,,,,,,,"MET11205/23/20 08:51:02 METAR KRDU 231351Z 24009KT 10SM SCT014 SCT120 BKN250 23/19 A3007 RMK AO2 SLP180 T02280189 (RP)","FM-15","7",,,,,,,,,,,,,,,,,,,,,,,,,,,,"2009-07-08"
"72306013722","2020-05-23T09:51:00","FM-15","7",,,,,,,,,,,,,,,,,,,,,,,,,,,,,,,,,,,,,,"30.06","67","75","0.00",,"-0.01","0","76","30.05","FEW:02 17 FEW:02 120 SCT:04 250","29.59","10.00","70","230",,"6",,,,,,,,,,,,,,,,,,,,,,,,,,,,,,,,,,,,,"MET11805/23/20 09:51:02 METAR KRDU 231451Z 23005KT 10SM FEW017 FEW120 SCT250 24/19 A3006 RMK AO2 SLP176 T02390194 50005 (RP)","FM-15","7",,,,,,,,,,,,,,,,,,,,,,,,,,,,"2009-07-08"
"72306013722","2020-05-23T10:51:00","FM-15","7",,,,,,,,,,,,,,,,,,,,,,,,,,,,,,,,,,,,,,"30.07","68","78","0.00",,,,"71","30.06","SCT:04 25 BKN:07 130 BKN:07 250","29.60","10.00","71","VRB",,"7",,,,,,,,,,,,,,,,,,,,,,,,,,,,,,,,,,,,,"MET11205/23/20 10:51:02 METAR KRDU 231551Z VRB06KT 10SM SCT025 BKN130 BKN250 26/20 A3007 RMK AO2 SLP179 T02560200 (RP)","FM-15","7",,,,,,,,,,,,,,,,,,,,,,,,,,,,"2009-07-08"
"72306013722","2020-05-23T11:51:00","FM-15","7",,,,,,,,,,,,,,,,,,,,,,,,,,,,,,,,,,,,,,"30.06","69","80","0.00",,,,"69","30.05","SCT:04 25 BKN:07 250","29.59","10.00","73","230",,"10",,,,,,,,,,,,,,,,,,,,,,,,,,,,,,,,,,,,,"MET10505/23/20 11:51:02 METAR KRDU 231651Z 23009KT 10SM SCT025 BKN250 27/21 A3006 RMK AO2 SLP176 T02670206 (RP)","FM-15","7",,,,,,,,,,,,,,,,,,,,,,,,,,,,"2009-07-08"
"72306013722","2020-05-23T12:51:00","FM-15","7",,,,,,,,,,,,,,,,,,,,,,,,,,,,,,,,,,,,,,"30.05","69","82","0.00",,"+0.01","8","65","30.03","SCT:04 30 BKN:07 250","29.58","10.00","73","VRB","16","5",,,,,,,,,,,,,,,,,,,,,,,,,,,,,,,,,,,,,"MET12605/23/20 12:51:02 METAR KRDU 231751Z VRB04G14KT 10SM SCT030 BKN250 28/21 A3005 RMK AO2 SLP169 T02780206 10278 20189 58005 (RP)","FM-15","7",,,,,,,,,,,,,,,,,,,,,,,,,,,,"2009-07-08"
"72306013722","2020-05-23T13:00:00","FM-12","4",,,,,,,,,,,,,,,,,,,,,,,,,,,,,,,,,,,,,,,"69","82",,,"+0.01","8","65","30.03","26","29.59","9.94","73",,,"5",,,,,,,,,,,,,,,,,,,,,,,,,,,,,,,,,,,,,"SYN08672306 32566 6//04 10278 20206 30020 40169 58005 91751 333 10278 20189 91014 555 92318=","FM-12","4",,,,,,,,,,,,,,,,,,,,,,,,,,,,"2009-07-08"
"72306013722","2020-05-23T13:51:00","FM-15","7",,,,,,,,,,,,,,,,,,,,,,,,,,,,,,,,,,,,,,"30.03","67","80","0.00",,,,"64","30.02","BKN:07 33 BKN:07 250","29.56","10.00","71","VRB",,"3",,,,,,,,,,,,,,,,,,,,,,,,,,,,,,,,,,,,,"MET10505/23/20 13:51:02 METAR KRDU 231851Z VRB03KT 10SM BKN033 BKN250 27/19 A3003 RMK AO2 SLP166 T02670194 (RP)","FM-15","7",,,,,,,,,,,,,,,,,,,,,,,,,,,,"2009-07-08"
"72306013722","2020-05-23T14:51:00","FM-15","7",,,,,,,,,,,,,,,,,,,,,,,,,,,,,,,,,,,,,,"30.02","70","85","0.00",,,,"61","30.01","SCT:04 40 BKN:07 95 BKN:07 250","29.55","10.00","75","240",,"9",,,,,,,,,,,,,,,,,,,,,,,,,,,,,,,,,,,,,"MET11205/23/20 14:51:02 METAR KRDU 231951Z 24008KT 10SM SCT040 BKN095 BKN250 29/21 A3002 RMK AO2 SLP162 T02940211 (HA)","FM-15","7",,,,,,,,,,,,,,,,,,,,,,,,,,,,"2009-07-08"
"72306013722","2020-05-23T15:51:00","FM-15","7",,,,,,,,,,,,,,,,,,,,,,,,,,,,,,,,,,,,,,"30.02","68","84","0.00",,"+0.03","6","59","30.00","SCT:04 60 BKN:07 120 BKN:07 250","29.55","10.00","73","VRB",,"8",,,,,,,,,,,,,,,,,,,,,,,,,,,,,,,,,,,,,"MET12605/23/20 15:51:02 METAR KRDU 232051Z 26007KT 10SM SCT060 BKN120 BKN250 29/20 A3002 RMK AO2 SLP159 VCSH SW T02890200 56010 (HA)","FM-15","7",,,,,,,,,,,,,,,,,,,,,,,,,,,,"2009-07-08"
"72306013722","2020-05-23T16:51:00","FM-15","7",,,,,,,,,,,,,,,,,,,,,,,,,,,,,,,,,,,,,,"30.02","68","83","0.00",,,,"61","30.00","SCT:04 65 SCT:04 80 SCT:04 250","29.55","10.00","73","240",,"10",,,,,,,,,,,,,,,,,,,,,,,,,,,,,,,,,,,,,"MET12305/23/20 16:51:02 METAR KRDU 232151Z 24009KT 10SM SCT065 SCT080 SCT250 28/20 A3002 RMK AO2 SLP160 TCU DSNT S T02830200 (HA)","FM-15","7",,,,,,,,,,,,,,,,,,,,,,,,,,,,"2009-07-08"
"72306013722","2020-05-23T17:51:00","FM-15","7",,,,,,,,,,,,,,,,,,,,,,,,,,,,,,,,,,,,,,"30.01","68","80","0.00",,,,"67","30.00","FEW:02 90 FEW:02 250","29.54","10.00","72","230",,"7",,,,,,,,,,,,,,,,,,,,,,,,,,,,,,,,,,,,,"MET10505/23/20 17:51:02 METAR KRDU 232251Z 23006KT 10SM FEW090 FEW250 27/20 A3001 RMK AO2 SLP158 T02670200 (HA)","FM-15","7",,,,,,,,,,,,,,,,,,,,,,,,,,,,"2009-07-08"
"72306013722","2020-05-23T18:51:00","FM-15","7",,,,,,,,,,,,,,,,,,,,,,,,,,,,,,,,,,,,,,"30.00","68","77","0.00",,"+0.01","8","74","29.99","FEW:02 250","29.53","10.00","71","260",,"3",,,,,,,,,,,,,,,,,,,,,,,,,,,,,,,,,,,,,"MET11605/23/20 18:51:02 METAR KRDU 232351Z 26003KT 10SM FEW250 25/20 A3000 RMK AO2 SLP157 T02500200 10294 20250 58004 (HA)","FM-15","7",,,,,,,,,,,,,,,,,,,,,,,,,,,,"2009-07-08"
"72306013722","2020-05-23T19:00:00","FM-12","4",,,,,,,,,,,,,,,,,,,,,,,,,,,,,,,,,,,,,,,"68","77",,,"+0.01","8","74","29.99",,"29.54","9.94","71","260",,"3",,,,,,,,,,,,,,,,,,,,,,,,,,,,,,,,,,,,,"SYN08072306 32966 22603 10250 20200 30003 40157 58004 92351 333 10294 20161 555 92400=","FM-12","4",,,,,,,,,,,,,,,,,,,,,,,,,,,,"2009-07-08"
"72306013722","2020-05-23T19:51:00","FM-15","7",,,,,,,,,,,,,,,,,,,,,,,,,,,,,,,,,,,,,,"30.01","68","72","0.00",,,,"87","30.00","SCT:04 250","29.54","10.00","69","000",,"0",,,,,,,,,,,,,,,,,,,,,,,,,,,,,,,,,,,,,"MET09305/23/20 19:51:01 METAR KRDU 240051Z 00000KT 10SM SCT250 22/20 A3001 RMK AO2 SLP159 T02220200","FM-15","7",,,,,,,,,,,,,,,,,,,,,,,,,,,,"2009-07-08"
"72306013722","2020-05-23T20:51:00","FM-15","7",,,,,,,,,,,,,,,,,,,,,,,,,,,,,,,,,,,,,,"30.03","67","70","0.00",,,,"90","30.02","SCT:04 250","29.56","10.00","68","000",,"0",,,,,,,,,,,,,,,,,,,,,,,,,,,,,,,,,,,,,"MET09305/23/20 20:51:01 METAR KRDU 240151Z 00000KT 10SM SCT250 21/19 A3003 RMK AO2 SLP165 T02110194","FM-15","7",,,,,,,,,,,,,,,,,,,,,,,,,,,,"2009-07-08"
"72306013722","2020-05-23T21:51:00","FM-15","7",,,,,,,,,,,,,,,,,,,,,,,,,,,,,,,,,,,,,,"30.05","68","71","0.00",,"-0.05","3","90","30.04","SCT:04 250","29.58","10.00","69","000",,"0",,,,,,,,,,,,,,,,,,,,,,,,,,,,,,,,,,,,,"MET09905/23/20 21:51:01 METAR KRDU 240251Z 00000KT 10SM SCT250 22/20 A3005 RMK AO2 SLP173 T02170200 53017","FM-15","7",,,,,,,,,,,,,,,,,,,,,,,,,,,,"2009-07-08"
"72306013722","2020-05-23T22:51:00","FM-15","7",,,,,,,,,,,,,,,,,,,,,,,,,,,,,,,,,,,,,,"30.06","66","68","0.00",,,,"93","30.05","SCT:04 250","29.59","10.00","67","000",,"0",,,,,,,,,,,,,,,,,,,,,,,,,,,,,,,,,,,,,"MET09305/23/20 22:51:02 METAR KRDU 240351Z 00000KT 10SM SCT250 20/19 A3006 RMK AO2 SLP175 T02000189","FM-15","7",,,,,,,,,,,,,,,,,,,,,,,,,,,,"2009-07-08"
"72306013722","2020-05-23T23:51:00","FM-15","7",,,,,,,,,,,,,,,,,,,,,,,,,,,,,,,,,,,,,,"30.06","66","67","0.00",,,,"97","30.04","SCT:04 250","29.59","10.00","66","000",,"0",,,,,,,,,,,,,,,,,,,,,,,,,,,,,,,,,,,,,"MET10305/23/20 23:51:02 METAR KRDU 240451Z 00000KT 10SM SCT250 19/19 A3006 RMK AO2 SLP174 T01940189 402940161","FM-15","7",,,,,,,,,,,,,,,,,,,,,,,,,,,,"2009-07-08"
"72306013722","2020-05-23T23:59:00","SOD  ","6",,,,,,,,,,,,,,,"66","73","81","30.03","29.56","68","4.5","8","3.1","0","85","61","230","16","0.00","0","0.0","240","13",,,,,,,,,,,,,,,,,,,,,,,,,,,,,,,,,,,,,,,,,,,,,,,,,,,,,,,,,"SOD73924 HR PRECIPITATION (IN): 0.00 SNOW DEPTH (IN):0     24 HR SNOWFALL (IN):0.0  24 HR MAX TEMP (F): 8524 HR MIN TEMP (F): 61AVERAGE STATION PRESSURE:29.560 MINIMUM SEA LEVEL PRESSURE:29.99 TIME OF OCCURRENCE:1940 PEAK WIND SPEED (MPH): 16 PEAK WIND DIR (DEG):230 PEAK WIND TIME (LST):      FASTEST 2MIN SPEED (MPH): 13FASTEST 2MIN DIR (DEG):240 FASTEST 2MIN TIME (LST):     AVERAGE WIND SPEED (MPH): 4.5 24 HR AVG TEMP (F): 73DEPART FROM NORMAL:  3  HEATING DEGREE DAYS:  0 COOLING DEGREE DAYS:  8 LATEST DAY MAX TEMP (0700-1900 LST):85  LATEST NIGHT MIN TEMP(1900-0800 LST):61 HOURLY INCREMENTAL PRECIPITATION VALUES (IN):.00 0.00 0.00 0.00 0.00 0.00 0.00 0.00 0.00 0.00 0.00 0.00 0.00 0.00 0.00 0.00 0.00 0.00 0.00 0.00 0.00 0.00 0.00 0.00","SOD  ","6",,,,,,,,,,,,,,,,,,,,,,,,,"0504","1921",,"2009-07-08"
"72306013722","2020-05-24T00:51:00","FM-15","7",,,,,,,,,,,,,,,,,,,,,,,,,,,,,,,,,,,,,,"30.05","65","66","0.00",,"+0.00","8","96","30.04","SCT:04 250","29.58","10.00","65","000",,"0",,,,,,,,,,,,,,,,,,,,,,,,,,,,,,,,,,,,,"MET11605/24/20 00:51:02 METAR KRDU 240551Z 00000KT 10SM SCT250 19/18 A3005 RMK AO2 SLP172 T01890183 10250 20189 58000 (VD)","FM-15","7",,,,,,,,,,,,,,,,,,,,,,,,,,,,"2009-07-08"
"72306013722","2020-05-24T01:00:00","FM-12","4",,,,,,,,,,,,,,,,,,,,,,,,,,,,,,,,,,,,,,,"65","66",,,,,"96","30.04",,"29.59","9.94","65","000",,"0",,,,,,,,,,,,,,,,,,,,,,,,,,,,,,,,,,,,,"SYN08072306 32966 40000 10189 20183 30020 40172 58000 90551 333 10250 20161 555 92406=","FM-12","4",,,,,,,,,,,,,,,,,,,,,,,,,,,,"2009-07-08"
"72306013722","2020-05-24T01:51:00","FM-15","7",,,,,,,,,,,,,,,,,,,,,,,,,,,,,,,,,,,,,,"30.04","64","65","0.00",,,,"97","30.03","SCT:04 250","29.57","10.00","64","000",,"0",,,,,,,,,,,,,,,,,,,,,,,,,,,,,,,,,,,,,"MET09805/24/20 01:51:02 METAR KRDU 240651Z 00000KT 10SM SCT250 18/18 A3004 RMK AO2 SLP169 T01830178 (VD)","FM-15","7",,,,,,,,,,,,,,,,,,,,,,,,,,,,"2009-07-08"
"72306013722","2020-05-24T02:51:00","FM-15","7",,,,,,,,,,,,,,,,,,,,,,,,,,,,,,,,,,,,,,"30.05","64","65","0.00",,,,"97","30.03","SCT:04 250","29.58","10.00","64","000",,"0",,,,,,,,,,,,,,,,,,,,,,,,,,,,,,,,,,,,,"MET09805/24/20 02:51:02 METAR KRDU 240751Z 00000KT 10SM SCT250 18/18 A3005 RMK AO2 SLP170 T01830178 (VD)","FM-15","7",,,,,,,,,,,,,,,,,,,,,,,,,,,,"2009-07-08"
"72306013722","2020-05-24T03:51:00","FM-15","7",,,,,,,,,,,,,,,,,,,,,,,,,,,,,,,,,,,,,,"30.05","64","64","0.00",,"+0.01","5","100","30.03","SCT:04 250","29.58","10.00","64","000",,"0",,,,,,,,,,,,,,,,,,,,,,,,,,,,,,,,,,,,,"MET10405/24/20 03:51:02 METAR KRDU 240851Z 00000KT 10SM SCT250 18/18 A3005 RMK AO2 SLP170 T01780178 55002 (VD)","FM-15","7",,,,,,,,,,,,,,,,,,,,,,,,,,,,"2009-07-08"
"72306013722","2020-05-24T04:51:00","FM-15","7",,,,,,,,,,,,,,,,,,,,,,,,,,,,,,,,,,,,,,"30.06","62","62","0.00",,,,"100","30.05","SCT:04 250","29.59","10.00","62","000",,"0",,,,,,,,,,,,,,,,,,,,,,,,,,,,,,,,,,,,,"MET09805/24/20 04:51:02 METAR KRDU 240951Z 00000KT 10SM SCT250 17/17 A3006 RMK AO2 SLP175 T01670167 (VD)","FM-15","7",,,,,,,,,,,,,,,,,,,,,,,,,,,,"2009-07-08"
"72306013722","2020-05-24T05:51:00","FM-15","7",,,,,,,,,,,,,,,,,,,,,,,,,,,,,,,,,,,,,,"30.08","64","64","0.00",,,,"100","30.06","SCT:04 250","29.61","10.00","64","000",,"0",,,,,,,,,,,,,,,,,,,,,,,,,,,,,,,,,,,,,"MET09805/24/20 05:51:02 METAR KRDU 241051Z 00000KT 10SM SCT250 18/18 A3008 RMK AO2 SLP181 T01780178 (VD)","FM-15","7",,,,,,,,,,,,,,,,,,,,,,,,,,,,"2009-07-08"
"72306013722","2020-05-24T06:51:00","FM-15","7",,,,,,,,,,,,,,,,,,,,,,,,,,,,,,,,,,,,,,"30.09","66","71","0.00",,"-0.05","3","84","30.08","FEW:02 50 FEW:02 250","29.62","10.00","68","000",,"0",,,,,,,,,,,,,,,,,,,,,,,,,,,,,,,,,,,,,"MET12305/24/20 06:51:02 METAR KRDU 241151Z 00000KT 10SM FEW050 FEW250 22/19 A3009 RMK AO2 SLP186 T02170189 10217 20167 53016 (RP)","FM-15","7",,,,,,,,,,,,,,,,,,,,,,,,,,,,"2009-07-08"
"72306013722","2020-05-24T07:00:00","FM-12","4",,,,,,,,,,,,,,,,,,,,,,,,,,,,,,,,,,,,,,,"66","71",,,"-0.05","3","84","30.08","57","29.63","9.94","68","000",,"0",,,,,,,,,,,,,,,,,,,,,,,,,,,,,,,,,,,,,"SYN08072306 32766 20000 10217 20189 30033 40186 53016 91151 333 10294 20167 555 92412=","FM-12","4",,,,,,,,,,,,,,,,,,,,,,,,,,,,"2009-07-08"
"72306013722","2020-05-24T07:51:00","FM-15","7",,,,,,,,,,,,,,,,,,,,,,,,,,,,,,,,,,,,,,"30.11","67","76","0.00",,,,"74","30.09","FEW:02 80 FEW:02 250","29.64","10.00","70","000",,"0",,,,,,,,,,,,,,,,,,,,,,,,,,,,,,,,,,,,,"MET10505/24/20 07:51:02 METAR KRDU 241251Z 00000KT 10SM FEW080 FEW250 24/19 A3011 RMK AO2 SLP191 T02440194 (RP)","FM-15","7",,,,,,,,,,,,,,,,,,,,,,,,,,,,"2009-07-08"
"72306013722","2020-05-24T08:51:00","FM-15","7",,,,,,,,,,,,,,,,,,,,,,,,,,,,,,,,,,,,,,"30.11","68","80","0.00",,,,"67","30.10","FEW:02 60 FEW:02 250","29.64","10.00","72","150",,"5",,,,,,,,,,,,,,,,,,,,,,,,,,,,,,,,,,,,,"MET10505/24/20 08:51:02 METAR KRDU 241351Z 15004KT 10SM FEW060 FEW250 27/20 A3011 RMK AO2 SLP192 T02670200 (RP)","FM-15","7",,,,,,,,,,,,,,,,,,,,,,,,,,,,"2009-07-08"
"72306013722","2020-05-24T09:51:00","FM-15","7",,,,,,,,,,,,,,,,,,,,,,,,,,,,,,,,,,,,,,"30.11","68","82","0.00",,"-0.02","1","63","30.10","FEW:02 60 SCT:04 250","29.64","10.00","73","VRB",,"5",,,,,,,,,,,,,,,,,,,,,,,,,,,,,,,,,,,,,"MET11105/24/20 09:51:02 METAR KRDU 241451Z VRB04KT 10SM FEW060 SCT250 28/20 A3011 RMK AO2 SLP192 T02780200 51006 (RP)","FM-15","7",,,,,,,,,,,,,,,,,,,,,,,,,,,,"2009-07-08"
"72306013722","2020-05-24T10:51:00","FM-15","7",,,,,,,,,,,,,,,,,,,,,,,,,,,,,,,,,,,,,,"30.11","68","84","0.00",,,,"59","30.10","FEW:02 37 FEW:02 60 BKN:07 250","29.64","10.00","73","130",,"7",,,,,,,,,,,,,,,,,,,,,,,,,,,,,,,,,,,,,"MET11205/24/20 10:51:02 METAR KRDU 241551Z 13006KT 10SM FEW037 FEW060 BKN250 29/20 A3011 RMK AO2 SLP192 T02890200 (RP)","FM-15","7",,,,,,,,,,,,,,,,,,,,,,,,,,,,"2009-07-08"
"72306013722","2020-05-24T11:51:00","FM-15","6",,,,,,,,,,,,,,,,,,,,,,,,,,,,,,,,,,,,,,"30.10","68","85","0.00",,,,"57","30.09","SCT:04 40 BKN:07 250","29.63","10.00","74","080",,"8",,,,,,,,,,,,,,,,,,,,,,,,,,,,,,,,,,,,,"MET10505/24/20 11:51:02 METAR KRDU 241651Z 08007KT 10SM SCT040 BKN250 29/20 A3010 RMK AO2 SLP189 T02940200 (RP)","FM-15","6",,,,,,,,,,,,,,,,,,,,,,,,,,,,"2009-07-08"
"72306013722","2020-05-24T12:51:00","FM-15","7",,,,,,,,,,,,,,,,,,,,,,,,,,,,,,,,,,,,,,"30.09","67","86","0.00",,"+0.02","8","53","30.08","BKN:07 45 BKN:07 250","29.62","10.00","73","110",,"5",,,,,,,,,,,,,,,,,,,,,,,,,,,,,,,,,,,,,"MET12305/24/20 12:51:02 METAR KRDU 241751Z 11004KT 10SM BKN045 BKN250 30/19 A3009 RMK AO2 SLP185 T03000194 10306 20222 58007 (RP)","FM-15","7",,,,,,,,,,,,,,,,,,,,,,,,,,,,"2009-07-08"
"72306013722","2020-05-24T13:00:00","FM-12","4",,,,,,,,,,,,,,,,,,,,,,,,,,,,,,,,,,,,,,,"67","86",,,"+0.02","8","53","30.08","41","29.63","9.94","73","110",,"5",,,,,,,,,,,,,,,,,,,,,,,,,,,,,,,,,,,,,"SYN08072306 32666 61104 10300 20194 30033 40185 58007 91751 333 10306 20222 555 92418=","FM-12","4",,,,,,,,,,,,,,,,,,,,,,,,,,,,"2009-07-08"
"72306013722","2020-05-24T13:51:00","FM-15","7",,,,,,,,,,,,,,,,,,,,,,,,,,,,,,,,,,,,,,"30.07","67","84","0.00",,,,"57","30.06","BKN:07 45 BKN:07 250","29.60","10.00","73","110",,"8",,,,,,,,,,,,,,,,,,,,,,,,,,,,,,,,,,,,,"MET12005/24/20 13:51:02 METAR KRDU 241851Z 11007KT 10SM BKN045 BKN250 29/19 A3007 RMK AO2 LTG DSNT SW-NW SLP179 T02890194 (RP)","FM-15","7",,,,,,,,,,,,,,,,,,,,,,,,,,,,"2009-07-08"
"72306013722","2020-05-24T14:17:00","FM-16","7",,,,,,,,,,,,,,,,,,,,,,,,,,,,,,,,,,,,,,"30.09","68","82",,"TS:7 |TS TS |",,,"63",,"SCT:04 47 BKN:07 60","29.62","10.00","73","240","17","13",,,,,,,,,,,,,,,,,,,,,,,,,,,,,,,,,,,,,"MET14505/24/20 14:17:02 SPECI KRDU 241917Z 24011G15KT 10SM TS SCT047 BKN060CB 28/20 A3009 RMK AO2 TSB13 OCNL LTGICCG SW-W TS SW-W MOV SE T02780200 (HA)","FM-16","7",,,,,,,,,,,,,,,,,,,,,,,,,,,,"2009-07-08"
"72306013722","2020-05-24T14:37:00","FM-16","7",,,,,,,,,,,,,,,,,,,,,,,,,,,,,,,,,,,,,,"30.10","70","74",,"TS:7 |TS TS |",,,"88",,"BKN:07 43 OVC:08 60","29.63","10.00","71","230","26","14",,,,,,,,,,,,,,,,,,,,,,,,,,,,,,,,,,,,,"MET15905/24/20 14:37:02 SPECI KRDU 241937Z 23012G23KT 10SM TS BKN043CB OVC060 23/21 A3010 RMK AO2 WSHFT 1917 TSB13 FRQ LTGICCG S-SW-W TS S-SW-W MOV SE T02330211 (HA)","FM-16","7",,,,,,,,,,,,,,,,,,,,,,,,,,,,"2009-07-08"
"72306013722","2020-05-24T14:51:00","FM-15","7",,,,,,,,,,,,,,,,,,,,,,,,,,,,,,,,,,,,,,"30.10","67","71","0.03","TS:7 -RA:02 |RA TS TS |RA",,,"87","30.09","BKN:07 37 OVC:08 43","29.63","9.00","68","230",,"13",,,,,,,,,,,,,,,,,,,,,,,,,,,,,,,,,,,,,"MET17905/24/20 14:51:02 METAR KRDU 241951Z 23011KT 9SM -TSRA BKN037CB OVC043 22/19 A3010 RMK AO2 WSHFT 1917 RAB39 TSB13 SLP190 FRQ LTGICCG SE-S-SW TS SE-S-SW MOV SE P0000 T02170194 (HA)","FM-15","7",,,,,,,,,,,,,,,,,,,,,,,,,,,,"2009-07-08"
"72306013722","2020-05-24T15:20:00","FM-16","7",,,,,,,,,,,,,,,,,,,,,,,,,,,,,,,,,,,,,,"30.08","67","71","0.11","-RA:02 |RA |RA",,,"87",,"SCT:04 29 BKN:07 41 OVC:08 70","29.61","9.00","68","170",,"8",,,,,,,,,,,,,,,,,,,,,,,,,,,,,,,,,,,,,"MET12005/24/20 15:20:02 SPECI KRDU 242020Z 17007KT 9SM -RA SCT029 BKN041 OVC070 22/19 A3008 RMK AO2 TSE16 P0011 T02170194 (HA)","FM-16","7",,,,,,,,,,,,,,,,,,,,,,,,,,,,"2009-07-08"
"72306013722","2020-05-24T15:51:00","FM-15","7",,,,,,,,,,,,,,,,,,,,,,,,,,,,,,,,,,,,,,"30.08","67","72","0.09",,"+0.01","8","84","30.07","FEW:02 45 SCT:04 70 BKN:07 110","29.61","8.00","69","140",,"9",,,,,,,,,,,,,,,,,,,,,,,,,,,,,,,,,,,,,"MET14105/24/20 15:51:02 METAR KRDU 242051Z 14008KT 8SM FEW045 SCT070 BKN110 22/19 A3008 RMK AO2 RAE25 TSE16 SLP182 P0011 60011 T02220194 58004 (HA)","FM-15","7",,,,,,,,,,,,,,,,,,,,,,,,,,,,"2009-07-08"
"72306013722","2020-05-24T16:51:00","FM-15","7",,,,,,,,,,,,,,,,,,,,,,,,,,,,,,,,,,,,,,"30.06","70","76","0.00",,,,"82","30.05","FEW:02 75 SCT:04 110 BKN:07 170","29.59","10.00","72","120",,"7",,,,,,,,,,,,,,,,,,,,,,,,,,,,,,,,,,,,,"MET13205/24/20 16:51:02 METAR KRDU 242151Z 12006KT 10SM FEW075 SCT110 BKN170 24/21 A3006 RMK AO2 SLP175 TCU DSNT SE-S P0001 T02440211 (HA)","FM-15","7",,,,,,,,,,,,,,,,,,,,,,,,,,,,"2009-07-08"
"72306013722","2020-05-24T17:51:00","FM-15","7",,,,,,,,,,,,,,,,,,,,,,,,,,,,,,,,,,,,,,"30.06","70","77","0.00",,,,"79","30.05","FEW:02 70 BKN:07 190 BKN:07 250","29.59","10.00","72","080",,"6",,,,,,,,,,,,,,,,,,,,,,,,,,,,,,,,,,,,,"MET11205/24/20 17:51:02 METAR KRDU 242251Z 08005KT 10SM FEW070 BKN190 BKN250 25/21 A3006 RMK AO2 SLP176 T02500211 (HA)","FM-15","7",,,,,,,,,,,,,,,,,,,,,,,,,,,,"2009-07-08"
"72306013722","2020-05-24T18:51:00","FM-15","7",,,,,,,,,,,,,,,,,,,,,,,,,,,,,,,,,,,,,,"30.07","69","75","0.00",,"+0.01","5","82","30.05","FEW:02 60 SCT:04 110 BKN:07 200","29.60","10.00","71","090",,"8",,,,,,,,,,,,,,,,,,,,,,,,,,,,,,,,,,,,,"MET13605/24/20 18:51:02 METAR KRDU 242351Z 09007KT 10SM FEW060 SCT110 BKN200 24/21 A3007 RMK AO2 SLP177 60012 T02390206 10306 20211 55004 (HA)","FM-15","7",,,,,,,,,,,,,,,,,,,,,,,,,,,,"2009-07-08"
"72306013722","2020-05-24T19:00:00","FM-12","4",,,,,,,,,,,,,,,,,,,,,,,,,,,,,,,,,,,,,,,"69","75",,,"+0.01","5","82","30.05","57","29.61","9.94","71","090",,"8",,,,,,,,,,,,,,,,,,,,,,,,,,,,,,,,,,,,,"SYN08672306 12766 60907 10239 20206 30027 40177 55004 60031 92351 333 10306 20167 555 92500=","FM-12","4",,,,,,,,,,,,,,,,,,,,,,,,,,,,"2009-07-08"
"72306013722","2020-05-24T19:51:00","FM-15","7",,,,,,,,,,,,,,,,,,,,,,,,,,,,,,,,,,,,,,"30.10","68","73","0.00",,,,"84","30.08","FEW:02 60 SCT:04 120 BKN:07 250","29.63","10.00","70","060",,"6",,,,,,,,,,,,,,,,,,,,,,,,,,,,,,,,,,,,,"MET10705/24/20 19:51:01 METAR KRDU 250051Z 06005KT 10SM FEW060 SCT120 BKN250 23/20 A3010 RMK AO2 SLP187 T02280200","FM-15","7",,,,,,,,,,,,,,,,,,,,,,,,,,,,"2009-07-08"
"72306013722","2020-05-24T20:51:00","FM-15","7",,,,,,,,,,,,,,,,,,,,,,,,,,,,,,,,,,,,,,"30.12","67","72","0.00",,,,"84","30.11","FEW:02 45 SCT:04 85 OVC:08 200","29.65","10.00","69","060",,"6",,,,,,,,,,,,,,,,,,,,,,,,,,,,,,,,,,,,,"MET10705/24/20 20:51:01 METAR KRDU 250151Z 06005KT 10SM FEW045 SCT085 OVC200 22/19 A3012 RMK AO2 SLP195 T02220194","FM-15","7",,,,,,,,,,,,,,,,,,,,,,,,,,,,"2009-07-08"
"72306013722","2020-05-24T21:51:00","FM-15","7",,,,,,,,,,,,,,,,,,,,,,,,,,,,,,,,,,,,,,"30.14","66","71","0.00",,"-0.07","1","84","30.13","OVC:08 32","29.67","10.00","68","070",,"7",,,,,,,,,,,,,,,,,,,,,,,,,,,,,,,,,,,,,"MET09905/24/20 21:51:01 METAR KRDU 250251Z 07006KT 10SM OVC032 22/19 A3014 RMK AO2 SLP202 T02170189 51025","FM-15","7",,,,,,,,,,,,,,,,,,,,,,,,,,,,"2009-07-08"
"72306013722","2020-05-24T22:51:00","FM-15","7",,,,,,,,,,,,,,,,,,,,,,,,,,,,,,,,,,,,,,"30.14","65","70","0.00",,,,"84","30.13","SCT:04 30 BKN:07 38","29.67","10.00","67","100",,"6",,,,,,,,,,,,,,,,,,,,,,,,,,,,,,,,,,,,,"MET10005/24/20 22:51:02 METAR KRDU 250351Z 10005KT 10SM SCT030 BKN038 21/18 A3014 RMK AO2 SLP202 T02110183","FM-15","7",,,,,,,,,,,,,,,,,,,,,,,,,,,,"2009-07-08"
"72306013722","2020-05-24T23:15:00","FM-16","7",,,,,,,,,,,,,,,,,,,,,,,,,,,,,,,,,,,,,,"30.14","65","70",,,,,"84",,"OVC:08 22","29.67","10.00","67","090",,"5",,,,,,,,,,,,,,,,,,,,,,,,,,,,,,,,,,,,,"MET08605/24/20 23:15:02 SPECI KRDU 250415Z 09004KT 10SM OVC022 21/18 A3014 RMK AO2 T02110183","FM-16","7",,,,,,,,,,,,,,,,,,,,,,,,,,,,"2009-07-08"
"72306013722","2020-05-24T23:51:00","FM-15","7",,,,,,,,,,,,,,,,,,,,,,,,,,,,,,,,,,,,,,"30.12","64","70","0.00",,,,"82","30.11","OVC:08 22","29.65","10.00","66","120",,"7",,,,,,,,,,,,,,,,,,,,,,,,,,,,,,,,,,,,,"MET10305/24/20 23:51:02 METAR KRDU 250451Z 12006KT 10SM OVC022 21/18 A3012 RMK AO2 SLP196 T02110178 403060167","FM-15","7",,,,,,,,,,,,,,,,,,,,,,,,,,,,"2009-07-08"
"72306013722","2020-05-24T23:59:00","SOD  ","6",,,,,,,,,,,,,,,"66","75","80","30.08","29.60","69","4.6","10","4.8","0","87","62","230","27","0.12","0","0.0","230","22","TS RA",,,,,,,,,,,,,,,,,,,,,,,,,,,,,,,,,,,,,,,,,,,,,,,,,,,,,,,,"SOD75724 HR PRECIPITATION (IN): 0.12 SNOW DEPTH (IN):0     24 HR SNOWFALL (IN):0.0  WEATHER(CODE):13  24 HR MAX TEMP (F): 8724 HR MIN TEMP (F): 62AVERAGE STATION PRESSURE:29.600 MINIMUM SEA LEVEL PRESSURE:30.03 TIME OF OCCURRENCE:0354 PEAK WIND SPEED (MPH): 27 PEAK WIND DIR (DEG):230 PEAK WIND TIME (LST):      FASTEST 2MIN SPEED (MPH): 22FASTEST 2MIN DIR (DEG):230 FASTEST 2MIN TIME (LST):     AVERAGE WIND SPEED (MPH): 4.6 24 HR AVG TEMP (F): 75DEPART FROM NORMAL:  5  HEATING DEGREE DAYS:  0 COOLING DEGREE DAYS: 10 LATEST DAY MAX TEMP (0700-1900 LST):87  LATEST NIGHT MIN TEMP(1900-0800 LST):62 HOURLY INCREMENTAL PRECIPITATION VALUES (IN):.00 0.00 0.00 0.00 0.00 0.00 0.00 0.00 0.00 0.00 0.00 0.00 0.00 0.00 0.03 0.09 0.00 0.00 0.00 0.00 0.00 0.00 0.00 0.00","SOD  ","6",,,,,,,,,,,,,,,,,,,,,,,,,"0503","1921",,"2009-07-08"
"72306013722","2020-05-25T00:51:00","SY-MT","7",,,,,,,,,,,,,,,,,,,,,,,,,,,,,,,,,,,,,,"30.11","64","68","0.00",,"+0.03","8","87","30.10","BKN:07 22","29.64","10.00","66","090",,"9",,,,,,,,,,,,,,,,,,,,,,,,,,,,,,,,,,,,,"SYN08072306 32566 60908 10200 20178 30040 40192 58010 90551 333 10239 20167 555 92506=MET11605/25/20 00:51:02 METAR KRDU 250551Z 09008KT 10SM BKN022 20/18 A3011 RMK AO2 SLP192 T02000178 10239 20200 58010 (VD)","SY-MT","7",,,,,,,,,,,,,,,,,,,,,,,,,,,,"2009-07-08"
"72306013722","2020-05-25T01:17:00","FM-16","7",,,,,,,,,,,,,,,,,,,,,,,,,,,,,,,,,,,,,,"30.12","63","67",,,,,"87",,"BKN:07 14 OVC:08 19","29.65","10.00","65","100",,"10",,,,,,,,,,,,,,,,,,,,,,,,,,,,,,,,,,,,,"MET09805/25/20 01:17:02 SPECI KRDU 250617Z 10009KT 10SM BKN014 OVC019 19/17 A3012 RMK AO2 T01940172 (VD)","FM-16","7",,,,,,,,,,,,,,,,,,,,,,,,,,,,"2009-07-08"
"72306013722","2020-05-25T01:51:00","FM-15","7",,,,,,,,,,,,,,,,,,,,,,,,,,,,,,,,,,,,,,"30.12","62","66","0.00",,,,"87","30.11","BKN:07 14 OVC:08 19","29.65","10.00","64","050",,"8",,,,,,,,,,,,,,,,,,,,,,,,,,,,,,,,,,,,,"MET10505/25/20 01:51:02 METAR KRDU 250651Z 05007KT 10SM BKN014 OVC019 19/17 A3012 RMK AO2 SLP196 T01890167 (VD)","FM-15","7",,,,,,,,,,,,,,,,,,,,,,,,,,,,"2009-07-08"
"72306013722","2020-05-25T02:51:00","FM-15","7",,,,,,,,,,,,,,,,,,,,,,,,,,,,,,,,,,,,,,"30.14","62","65","0.00",,,,"90","30.12","BKN:07 11 OVC:08 19","29.67","10.00","63","050",,"7",,,,,,,,,,,,,,,,,,,,,,,,,,,,,,,,,,,,,"MET10505/25/20 02:51:02 METAR KRDU 250751Z 05006KT 10SM BKN011 OVC019 18/17 A3014 RMK AO2 SLP201 T01830167 (VD)","FM-15","7",,,,,,,,,,,,,,,,,,,,,,,,,,,,"2009-07-08"
"72306013722","2020-05-25T03:51:00","FM-15","7",,,,,,,,,,,,,,,,,,,,,,,,,,,,,,,,,,,,,,"30.14","60","64","0.00",,"-0.03","1","87","30.13","BKN:07 11 OVC:08 19","29.67","10.00","62","070",,"7",,,,,,,,,,,,,,,,,,,,,,,,,,,,,,,,,,,,,"MET11105/25/20 03:51:02 METAR KRDU 250851Z 07006KT 10SM BKN011 OVC019 18/16 A3014 RMK AO2 SLP202 T01780156 51009 (VD)","FM-15","7",,,,,,,,,,,,,,,,,,,,,,,,,,,,"2009-07-08"
"72306013722","2020-05-25T04:51:00","FM-15","7",,,,,,,,,,,,,,,,,,,,,,,,,,,,,,,,,,,,,,"30.15","60","63","0.00",,,,"90","30.14","BKN:07 11 OVC:08 17","29.68","10.00","61","050",,"8",,,,,,,,,,,,,,,,,,,,,,,,,,,,,,,,,,,,,"MET10505/25/20 04:51:02 METAR KRDU 250951Z 05007KT 10SM BKN011 OVC017 17/16 A3015 RMK AO2 SLP205 T01720156 (VD)","FM-15","7",,,,,,,,,,,,,,,,,,,,,,,,,,,,"2009-07-08"
"72306013722","2020-05-25T05:03:00","FM-16","7",,,,,,,,,,,,,,,,,,,,,,,,,,,,,,,,,,,,,,"30.14","60","63",,,,,"90",,"OVC:08 8","29.67","10.00","61","070",,"6",,,,,,,,,,,,,,,,,,,,,,,,,,,,,,,,,,,,,"MET09105/25/20 05:03:02 SPECI KRDU 251003Z 07005KT 10SM OVC008 17/16 A3014 RMK AO2 T01720156 (VD)","FM-16","7",,,,,,,,,,,,,,,,,,,,,,,,,,,,"2009-07-08"
"72306013722","2020-05-25T05:51:00","FM-15","7",,,,,,,,,,,,,,,,,,,,,,,,,,,,,,,,,,,,,,"30.16","60","63","0.00",,,,"90","30.15","OVC:08 8","29.69","10.00","61","050",,"9",,,,,,,,,,,,,,,,,,,,,,,,,,,,,,,,,,,,,"MET09805/25/20 05:51:02 METAR KRDU 251051Z 05008KT 10SM OVC008 17/16 A3016 RMK AO2 SLP209 T01720156 (VD)","FM-15","7",,,,,,,,,,,,,,,,,,,,,,,,,,,,"2009-07-08"
"72306013722","2020-05-25T06:51:00","FM-15","7",,,,,,,,,,,,,,,,,,,,,,,,,,,,,,,,,,,,,,"30.18","60","63","0.00",,"-0.04","3","90","30.16","BKN:07 8 OVC:08 16","29.71","10.00","61","090",,"8",,,,,,,,,,,,,,,,,,,,,,,,,,,,,,,,,,,,,"MET13005/25/20 06:51:02 METAR KRDU 251151Z 09007KT 10SM BKN008 OVC016 17/16 A3018 RMK AO2 SLP215 70012 T01720156 10200 20167 53013 (KAH)","FM-15","7",,,,,,,,,,,,,,,,,,,,,,,,,,,,"2009-07-08"
"72306013722","2020-05-25T07:00:00","FM-12","4",,,,,,,,,,,,,,,,,,,,,,,,,,,,,,,,,,,,,,,"60","63",,,"-0.04","3","90","30.16","8","29.72","9.94","61","090",,"8",,,,,,,,,,,,,,,,,,,,,,,,,,,,,,,,,,,,,"SYN08672306 32366 80907 10172 20156 30063 40215 53013 91151 333 10306 20167 70030 555 92512=","FM-12","4",,,,,,,,,,,,,,,,,,,,,,,,,,,,"2009-07-08"
"72306013722","2020-05-25T07:51:00","FM-15","7",,,,,,,,,,,,,,,,,,,,,,,,,,,,,,,,,,,,,,"30.19","60","63","0.00",,,,"90","30.18","BKN:07 7 OVC:08 12","29.72","10.00","61","050",,"6",,,,,,,,,,,,,,,,,,,,,,,,,,,,,,,,,,,,,"MET10605/25/20 07:51:02 METAR KRDU 251251Z 05005KT 10SM BKN007 OVC012 17/16 A3019 RMK AO2 SLP221 T01720156 (KAH)","FM-15","7",,,,,,,,,,,,,,,,,,,,,,,,,,,,"2009-07-08"
"72306013722","2020-05-25T08:25:00","FM-16","7",,,,,,,,,,,,,,,,,,,,,,,,,,,,,,,,,,,,,,"30.20","60","64",,,,,"87",,"BKN:07 10 OVC:08 17","29.73","10.00","62","070",,"6",,,,,,,,,,,,,,,,,,,,,,,,,,,,,,,,,,,,,"MET09905/25/20 08:25:02 SPECI KRDU 251325Z 07005KT 10SM BKN010 OVC017 18/16 A3020 RMK AO2 T01780156 (KAH)","FM-16","7",,,,,,,,,,,,,,,,,,,,,,,,,,,,"2009-07-08"
"72306013722","2020-05-25T08:51:00","FM-15","7",,,,,,,,,,,,,,,,,,,,,,,,,,,,,,,,,,,,,,"30.20","60","64","0.00",,,,"87","30.19","BKN:07 10 OVC:08 16","29.73","10.00","62","070",,"5",,,,,,,,,,,,,,,,,,,,,,,,,,,,,,,,,,,,,"MET10605/25/20 08:51:02 METAR KRDU 251351Z 07004KT 10SM BKN010 OVC016 18/16 A3020 RMK AO2 SLP224 T01780156 (KAH)","FM-15","7",,,,,,,,,,,,,,,,,,,,,,,,,,,,"2009-07-08"
"72306013722","2020-05-25T09:51:00","FM-15","7",,,,,,,,,,,,,,,,,,,,,,,,,,,,,,,,,,,,,,"30.22","60","65","T","-DZ:01 |DZ |DZ","-0.04","2","84","30.21","BKN:07 10 OVC:08 15","29.75","10.00","62","040",,"3",,,,,,,,,,,,,,,,,,,,,,,,,,,,,,,,,,,,,"MET13405/25/20 09:51:02 METAR KRDU 251451Z 04003KT 10SM -DZ BKN010 OVC015 18/16 A3022 RMK AO2 DZB49 SLP230 P0000 60000 T01830156 52015 (KAH)","FM-15","7",,,,,,,,,,,,,,,,,,,,,,,,,,,,"2009-07-08"
"72306013722","2020-05-25T10:51:00","FM-15","7",,,,,,,,,,,,,,,,,,,,,,,,,,,,,,,,,,,,,,"30.22","60","66","T",,,,"81","30.21","BKN:07 11 OVC:08 40","29.75","10.00","62","070",,"6",,,,,,,,,,,,,,,,,,,,,,,,,,,,,,,,,,,,,"MET11805/25/20 10:51:02 METAR KRDU 251551Z 07005KT 10SM BKN011 OVC040 19/16 A3022 RMK AO2 DZE19 SLP231 P0000 T01890156 (KAH)","FM-15","7",,,,,,,,,,,,,,,,,,,,,,,,,,,,"2009-07-08"
"72306013722","2020-05-25T11:51:00","FM-15","7",,,,,,,,,,,,,,,,,,,,,,,,,,,,,,,,,,,,,,"30.21","62","69","0.00",,,,"78","30.19","BKN:07 15 OVC:08 40","29.74","10.00","65","020",,"3",,,,,,,,,,,,,,,,,,,,,,,,,,,,,,,,,,,,,"MET10605/25/20 11:51:02 METAR KRDU 251651Z 02003KT 10SM BKN015 OVC040 21/17 A3021 RMK AO2 SLP225 T02060167 (KAH)","FM-15","7",,,,,,,,,,,,,,,,,,,,,,,,,,,,"2009-07-08"
"72306013722","2020-05-25T12:27:00","FM-16","7",,,,,,,,,,,,,,,,,,,,,,,,,,,,,,,,,,,,,,"30.20","63","71",,,,,"76",,"SCT:04 15 OVC:08 42","29.73","10.00","66","000",,"0",,,,,,,,,,,,,,,,,,,,,,,,,,,,,,,,,,,,,"MET09905/25/20 12:27:02 SPECI KRDU 251727Z 00000KT 10SM SCT015 OVC042 22/17 A3020 RMK AO2 T02170172 (KAH)","FM-16","7",,,,,,,,,,,,,,,,,,,,,,,,,,,,"2009-07-08"
"72306013722","2020-05-25T12:51:00","FM-15","7",,,,,,,,,,,,,,,,,,,,,,,,,,,,,,,,,,,,,,"30.20","63","71","0.00",,"+0.02","8","76","30.19","FEW:02 18 OVC:08 42","29.73","10.00","66","070",,"3",,,,,,,,,,,,,,,,,,,,,,,,,,,,,,,,,,,,,"MET13005/25/20 12:51:02 METAR KRDU 251751Z 07003KT 10SM FEW018 OVC042 22/17 A3020 RMK AO2 SLP222 60000 T02170172 10222 20172 58008 (KAH)","FM-15","7",,,,,,,,,,,,,,,,,,,,,,,,,,,,"2009-07-08"
"72306013722","2020-05-25T13:00:00","FM-12","4",,,,,,,,,,,,,,,,,,,,,,,,,,,,,,,,,,,,,,,"63","71",,,"+0.02","8","76","30.19","15","29.74","9.94","66","070",,"3",,,,,,,,,,,,,,,,,,,,,,,,,,,,,,,,,,,,,"SYN08672306 12466 80703 10217 20172 30070 40222 58008 69901 91751 333 10222 20172 555 92518=","FM-12","4",,,,,,,,,,,,,,,,,,,,,,,,,,,,"2009-07-08"
"72306013722","2020-05-25T13:51:00","FM-15","7",,,,,,,,,,,,,,,,,,,,,,,,,,,,,,,,,,,,,,"30.17","64","73","0.00",,,,"74","30.16","FEW:02 20 BKN:07 42","29.70","10.00","67","010",,"7",,,,,,,,,,,,,,,,,,,,,,,,,,,,,,,,,,,,,"MET10605/25/20 13:51:02 METAR KRDU 251851Z 01006KT 10SM FEW020 BKN042 23/18 A3017 RMK AO2 SLP213 T02280178 (KAH)","FM-15","7",,,,,,,,,,,,,,,,,,,,,,,,,,,,"2009-07-08"
"72306013722","2020-05-25T14:51:00","FM-15","7",,,,,,,,,,,,,,,,,,,,,,,,,,,,,,,,,,,,,,"30.15","66","75","0.00",,,,"74","30.14","FEW:02 20 BKN:07 42","29.68","10.00","69","000",,"0",,,,,,,,,,,,,,,,,,,,,,,,,,,,,,,,,,,,,"MET10605/25/20 14:51:02 METAR KRDU 251951Z 00000KT 10SM FEW020 BKN042 24/19 A3015 RMK AO2 SLP206 T02390189 (JBA)","FM-15","7",,,,,,,,,,,,,,,,,,,,,,,,,,,,"2009-07-08"
"72306013722","2020-05-25T15:49:00","FM-16","6",,,,,,,,,,,,,,,,,,,,,,,,,,,,,,,,,,,,,,"30.13","66","75",,,,,"74",,"BKN:07 22 BKN:07 42","29.66","10.00","69","020",,"5",,,,,,,,,,,,,,,,,,,,,,,,,,,,,,,,,,,,,"MET09405/25/20 15:49:02 SPECI KRDU 252049Z 02004KT 10SM BKN022 BKN042 24/19 A3013 RMK AO2 FIBI (JBA)","FM-16","6",,,,,,,,,,,,,,,,,,,,,,,,,,,,"2009-07-08"
"72306013722","2020-05-25T15:51:00","FM-15","7",,,,,,,,,,,,,,,,,,,,,,,,,,,,,,,,,,,,,,"30.13","66","75","0.00",,"+0.06","6","74","30.12","BKN:07 22 BKN:07 42","29.66","10.00","69","010",,"5",,,,,,,,,,,,,,,,,,,,,,,,,,,,,,,,,,,,,"MET11205/25/20 15:51:02 METAR KRDU 252051Z 01004KT 10SM BKN022 BKN042 24/19 A3013 RMK AO2 SLP200 T02390189 56021 (JBA)","FM-15","7",,,,,,,,,,,,,,,,,,,,,,,,,,,,"2009-07-08"
"72306013722","2020-05-25T16:08:00","FM-16","7",,,,,,,,,,,,,,,,,,,,,,,,,,,,,,,,,,,,,,"30.13","66","75",,,,,"74",,"SCT:04 22 BKN:07 43","29.66","10.00","69","010",,"3",,,,,,,,,,,,,,,,,,,,,,,,,,,,,,,,,,,,,"MET09905/25/20 16:08:02 SPECI KRDU 252108Z 01003KT 10SM SCT022 BKN043 24/19 A3013 RMK AO2 T02390189 (JBA)","FM-16","7",,,,,,,,,,,,,,,,,,,,,,,,,,,,"2009-07-08"
"72306013722","2020-05-25T16:51:00","FM-15","7",,,,,,,,,,,,,,,,,,,,,,,,,,,,,,,,,,,,,,"30.12","65","76","0.00",,,,"69","30.11","SCT:04 22 BKN:07 43 BKN:07 250","29.65","10.00","69","060",,"5",,,,,,,,,,,,,,,,,,,,,,,,,,,,,,,,,,,,,"MET11305/25/20 16:51:02 METAR KRDU 252151Z 06004KT 10SM SCT022 BKN043 BKN250 24/18 A3012 RMK AO2 SLP197 T02440183 (JBA)","FM-15","7",,,,,,,,,,,,,,,,,,,,,,,,,,,,"2009-07-08"
"72306013722","2020-05-25T17:51:00","FM-15","7",,,,,,,,,,,,,,,,,,,,,,,,,,,,,,,,,,,,,,"30.12","65","74","0.00",,,,"74","30.11","SCT:04 22 BKN:07 43 BKN:07 250","29.65","10.00","68","060",,"6",,,,,,,,,,,,,,,,,,,,,,,,,,,,,,,,,,,,,"MET11305/25/20 17:51:02 METAR KRDU 252251Z 06005KT 10SM SCT022 BKN043 BKN250 23/18 A3012 RMK AO2 SLP195 T02330183 (JBA)","FM-15","7",,,,,,,,,,,,,,,,,,,,,,,,,,,,"2009-07-08"
"72306013722","2020-05-25T18:51:00","FM-15","7",,,,,,,,,,,,,,,,,,,,,,,,,,,,,,,,,,,,,,"30.13","65","72","0.00",,"+0.00","5","79","30.12","FEW:02 22 SCT:04 30 BKN:07 43","29.66","10.00","68","030",,"5",,,,,,,,,,,,,,,,,,,,,,,,,,,,,,,,,,,,,"MET13105/25/20 18:51:02 METAR KRDU 252351Z 03004KT 10SM FEW022 SCT030 BKN043 22/18 A3013 RMK AO2 SLP199 T02220183 10244 20217 55001 (JBA)","FM-15","7",,,,,,,,,,,,,,,,,,,,,,,,,,,,"2009-07-08"
"72306013722","2020-05-25T19:00:00","FM-12","4",,,,,,,,,,,,,,,,,,,,,,,,,,,,,,,,,,,,,,,"65","72",,,"+0.00","5","79","30.12","26","29.67","9.94","68","030",,"5",,,,,,,,,,,,,,,,,,,,,,,,,,,,,,,,,,,,,"SYN08072306 32566 80304 10222 20183 30047 40199 55001 92351 333 10244 20167 555 92600=","FM-12","4",,,,,,,,,,,,,,,,,,,,,,,,,,,,"2009-07-08"
"72306013722","2020-05-25T19:51:00","FM-15","7",,,,,,,,,,,,,,,,,,,,,,,,,,,,,,,,,,,,,,"30.14","65","71","0.00",,,,"81","30.13","FEW:02 22 BKN:07 36 BKN:07 43","29.67","10.00","67","030",,"6",,,,,,,,,,,,,,,,,,,,,,,,,,,,,,,,,,,,,"MET10705/25/20 19:51:01 METAR KRDU 260051Z 03005KT 10SM FEW022 BKN036 BKN043 22/18 A3014 RMK AO2 SLP204 T02170183","FM-15","7",,,,,,,,,,,,,,,,,,,,,,,,,,,,"2009-07-08"
"72306013722","2020-05-25T20:51:00","FM-15","7",,,,,,,,,,,,,,,,,,,,,,,,,,,,,,,,,,,,,,"30.15","65","70","0.00",,,,"84","30.14","FEW:02 36 BKN:07 43 OVC:08 250","29.68","10.00","67","060",,"3",,,,,,,,,,,,,,,,,,,,,,,,,,,,,,,,,,,,,"MET10705/25/20 20:51:01 METAR KRDU 260151Z 06003KT 10SM FEW036 BKN043 OVC250 21/18 A3015 RMK AO2 SLP208 T02110183","FM-15","7",,,,,,,,,,,,,,,,,,,,,,,,,,,,"2009-07-08"
"72306013722","2020-05-25T21:51:00","FM-15","7",,,,,,,,,,,,,,,,,,,,,,,,,,,,,,,,,,,,,,"30.17","64","70","0.00",,"-0.04","3","82","30.16","OVC:08 46","29.70","10.00","66","070",,"5",,,,,,,,,,,,,,,,,,,,,,,,,,,,,,,,,,,,,"MET09905/25/20 21:51:01 METAR KRDU 260251Z 07004KT 10SM OVC046 21/18 A3017 RMK AO2 SLP212 T02110178 53012","FM-15","7",,,,,,,,,,,,,,,,,,,,,,,,,,,,"2009-07-08"
"72306013722","2020-05-25T22:51:00","FM-15","7",,,,,,,,,,,,,,,,,,,,,,,,,,,,,,,,,,,,,,"30.16","63","70","0.00",,,,"79","30.15","FEW:02 32 BKN:07 49","29.69","10.00","66","070",,"5",,,,,,,,,,,,,,,,,,,,,,,,,,,,,,,,,,,,,"MET10005/25/20 22:51:02 METAR KRDU 260351Z 07004KT 10SM FEW032 BKN049 21/17 A3016 RMK AO2 SLP209 T02110172","FM-15","7",,,,,,,,,,,,,,,,,,,,,,,,,,,,"2009-07-08"
"72306013722","2020-05-25T23:51:00","FM-15","7",,,,,,,,,,,,,,,,,,,,,,,,,,,,,,,,,,,,,,"30.15","63","69","0.00",,,,"81","30.14","BKN:07 50","29.68","10.00","65","070",,"5",,,,,,,,,,,,,,,,,,,,,,,,,,,,,,,,,,,,,"MET10305/25/20 23:51:02 METAR KRDU 260451Z 07004KT 10SM BKN050 21/17 A3015 RMK AO2 SLP206 T02060172 402440167","FM-15","7",,,,,,,,,,,,,,,,,,,,,,,,,,,,"2009-07-08"
"72306013722","2020-05-25T23:59:00","SOD  ","6",,,,,,,,,,,,,,,"63","69","82","30.15","29.67","65","5.5","4","-1.5","0","76","62","090","16","T","0","0.0","100","12","DZ",,,,,,,,,,,,,,,,,,,,,,,,,,,,,,,,,,,,,,,,,,,,,,,,,,,,,,,,"SOD73924 HR PRECIPITATION (IN):    T SNOW DEPTH (IN):0     24 HR SNOWFALL (IN):0.0  24 HR MAX TEMP (F): 7624 HR MIN TEMP (F): 62AVERAGE STATION PRESSURE:29.675 MINIMUM SEA LEVEL PRESSURE:30.09 TIME OF OCCURRENCE:0043 PEAK WIND SPEED (MPH): 16 PEAK WIND DIR (DEG): 90 PEAK WIND TIME (LST):      FASTEST 2MIN SPEED (MPH): 12FASTEST 2MIN DIR (DEG):100 FASTEST 2MIN TIME (LST):     AVERAGE WIND SPEED (MPH): 5.5 24 HR AVG TEMP (F): 69DEPART FROM NORMAL: -1  HEATING DEGREE DAYS:  0 COOLING DEGREE DAYS:  4 LATEST DAY MAX TEMP (0700-1900 LST):76  LATEST NIGHT MIN TEMP(1900-0800 LST):62 HOURLY INCREMENTAL PRECIPITATION VALUES (IN):.00 0.00 0.00 0.00 0.00 0.00 0.00 0.00 0.00 T    T    0.00 0.00 0.00 0.00 0.00 0.00 0.00 0.00 0.00 0.00 0.00 0.00 0.00","SOD  ","6",,,,,,,,,,,,,,,,,,,,,,,,,"0503","1922",,"2009-07-08"
"72306013722","2020-05-26T00:51:00","FM-15","7",,,,,,,,,,,,,,,,,,,,,,,,,,,,,,,,,,,,,,"30.15","62","69","0.00",,"+0.02","6","78","30.14","FEW:02 28 BKN:07 50 BKN:07 250","29.68","10.00","65","000",,"0",,,,,,,,,,,,,,,,,,,,,,,,,,,,,,,,,,,,,"MET13105/26/20 00:51:02 METAR KRDU 260551Z 00000KT 10SM FEW028 BKN050 BKN250 21/17 A3015 RMK AO2 SLP205 T02060167 10222 20200 56006 (AWB)","FM-15","7",,,,,,,,,,,,,,,,,,,,,,,,,,,,"2009-07-08"
"72306013722","2020-05-26T01:00:00","FM-12","4",,,,,,,,,,,,,,,,,,,,,,,,,,,,,,,,,,,,,,,"62","69",,,"+0.02","6","78","30.14","26","29.69","9.94","65","000",,"0",,,,,,,,,,,,,,,,,,,,,,,,,,,,,,,,,,,,,"SYN08072306 32566 60000 10206 20167 30053 40205 56006 90551 333 10222 20167 555 92606=","FM-12","4",,,,,,,,,,,,,,,,,,,,,,,,,,,,"2009-07-08"
"72306013722","2020-05-26T01:51:00","FM-15","7",,,,,,,,,,,,,,,,,,,,,,,,,,,,,,,,,,,,,,"30.14","62","68","0.00",,,,"81","30.12","FEW:02 28 BKN:07 50 OVC:08 250","29.67","10.00","64","150",,"5",,,,,,,,,,,,,,,,,,,,,,,,,,,,,,,,,,,,,"MET11305/26/20 01:51:02 METAR KRDU 260651Z 15004KT 10SM FEW028 BKN050 OVC250 20/17 A3014 RMK AO2 SLP201 T02000167 (AWB)","FM-15","7",,,,,,,,,,,,,,,,,,,,,,,,,,,,"2009-07-08"
"72306013722","2020-05-26T02:51:00","FM-15","7",,,,,,,,,,,,,,,,,,,,,,,,,,,,,,,,,,,,,,"30.13","62","67","0.00",,,,"84","30.11","FEW:02 28 BKN:07 50 OVC:08 250","29.66","10.00","64","000",,"0",,,,,,,,,,,,,,,,,,,,,,,,,,,,,,,,,,,,,"MET11305/26/20 02:51:02 METAR KRDU 260751Z 00000KT 10SM FEW028 BKN050 OVC250 19/17 A3013 RMK AO2 SLP198 T01940167 (AWB)","FM-15","7",,,,,,,,,,,,,,,,,,,,,,,,,,,,"2009-07-08"
"72306013722","2020-05-26T03:51:00","FM-15","7",,,,,,,,,,,,,,,,,,,,,,,,,,,,,,,,,,,,,,"30.14","62","67","0.00",,"+0.01","5","84","30.13","FEW:02 7 FEW:02 28 OVC:08 50","29.67","10.00","64","110",,"3",,,,,,,,,,,,,,,,,,,,,,,,,,,,,,,,,,,,,"MET11905/26/20 03:51:02 METAR KRDU 260851Z 11003KT 10SM FEW007 FEW028 OVC050 19/17 A3014 RMK AO2 SLP202 T01940167 55003 (AWB)","FM-15","7",,,,,,,,,,,,,,,,,,,,,,,,,,,,"2009-07-08"
"72306013722","2020-05-26T04:51:00","FM-15","7",,,,,,,,,,,,,,,,,,,,,,,,,,,,,,,,,,,,,,"30.14","63","66","0.00",,,,"90","30.13","FEW:02 7 BKN:07 50 BKN:07 250","29.67","10.00","64","080",,"3",,,,,,,,,,,,,,,,,,,,,,,,,,,,,,,,,,,,,"MET11305/26/20 04:51:02 METAR KRDU 260951Z 08003KT 10SM FEW007 BKN050 BKN250 19/17 A3014 RMK AO2 SLP204 T01890172 (AWB)","FM-15","7",,,,,,,,,,,,,,,,,,,,,,,,,,,,"2009-07-08"
"72306013722","2020-05-26T05:51:00","FM-15","7",,,,,,,,,,,,,,,,,,,,,,,,,,,,,,,,,,,,,,"30.16","63","66","0.00",,,,"90","30.14","FEW:02 5 BKN:07 55 BKN:07 250","29.69","10.00","64","060",,"5",,,,,,,,,,,,,,,,,,,,,,,,,,,,,,,,,,,,,"MET11305/26/20 05:51:02 METAR KRDU 261051Z 06004KT 10SM FEW005 BKN055 BKN250 19/17 A3016 RMK AO2 SLP208 T01890172 (AWB)","FM-15","7",,,,,,,,,,,,,,,,,,,,,,,,,,,,"2009-07-08"
"72306013722","2020-05-26T06:14:00","FM-16","7",,,,,,,,,,,,,,,,,,,,,,,,,,,,,,,,,,,,,,"30.16","63","66",,,,,"90",,"BKN:07 7 BKN:07 55 BKN:07 250","29.69","10.00","64","080",,"5",,,,,,,,,,,,,,,,,,,,,,,,,,,,,,,,,,,,,"MET10605/26/20 06:14:02 SPECI KRDU 261114Z 08004KT 10SM BKN007 BKN055 BKN250 19/17 A3016 RMK AO2 T01890172 (KAH)","FM-16","7",,,,,,,,,,,,,,,,,,,,,,,,,,,,"2009-07-08"
"72306013722","2020-05-26T06:51:00","FM-15","7",,,,,,,,,,,,,,,,,,,,,,,,,,,,,,,,,,,,,,"30.17","63","68","0.00",,"-0.03","3","84","30.15","BKN:07 8 BKN:07 55 BKN:07 250","29.70","10.00","65","VRB",,"5",,,,,,,,,,,,,,,,,,,,,,,,,,,,,,,,,,,,,"MET13105/26/20 06:51:02 METAR KRDU 261151Z VRB04KT 10SM BKN008 BKN055 BKN250 20/17 A3017 RMK AO2 SLP211 T02000172 10206 20189 53009 (KAH)","FM-15","7",,,,,,,,,,,,,,,,,,,,,,,,,,,,"2009-07-08"
"72306013722","2020-05-26T07:00:00","FM-12","4",,,,,,,,,,,,,,,,,,,,,,,,,,,,,,,,,,,,,,,"63","68",,,"-0.03","3","84","30.15","8","29.71","9.94","65",,,"5",,,,,,,,,,,,,,,,,,,,,,,,,,,,,,,,,,,,,"SYN08072306 32366 6//04 10200 20172 30060 40211 53009 91151 333 10244 20189 555 92612=","FM-12","4",,,,,,,,,,,,,,,,,,,,,,,,,,,,"2009-07-08"
"72306013722","2020-05-26T07:51:00","FM-15","7",,,,,,,,,,,,,,,,,,,,,,,,,,,,,,,,,,,,,,"30.18","63","67","0.00",,,,"87","30.17","BKN:07 8 BKN:07 55 BKN:07 250","29.71","10.00","65","100",,"9",,,,,,,,,,,,,,,,,,,,,,,,,,,,,,,,,,,,,"MET11305/26/20 07:51:02 METAR KRDU 261251Z 10008KT 10SM BKN008 BKN055 BKN250 19/17 A3018 RMK AO2 SLP216 T01940172 (KAH)","FM-15","7",,,,,,,,,,,,,,,,,,,,,,,,,,,,"2009-07-08"
"72306013722","2020-05-26T08:27:00","FM-16","7",,,,,,,,,,,,,,,,,,,,,,,,,,,,,,,,,,,,,,"30.19","62","67",,,,,"84",,"BKN:07 10 BKN:07 55 OVC:08 250","29.72","10.00","64","080",,"8",,,,,,,,,,,,,,,,,,,,,,,,,,,,,,,,,,,,,"MET10605/26/20 08:27:02 SPECI KRDU 261327Z 08007KT 10SM BKN010 BKN055 OVC250 19/17 A3019 RMK AO2 T01940167 (KAH)","FM-16","7",,,,,,,,,,,,,,,,,,,,,,,,,,,,"2009-07-08"
"72306013722","2020-05-26T08:51:00","FM-15","7",,,,,,,,,,,,,,,,,,,,,,,,,,,,,,,,,,,,,,"30.19","62","68","0.00",,,,"81","30.18","BKN:07 12 BKN:07 55 OVC:08 250","29.72","10.00","64","090",,"11",,,,,,,,,,,,,,,,,,,,,,,,,,,,,,,,,,,,,"MET11305/26/20 08:51:02 METAR KRDU 261351Z 09010KT 10SM BKN012 BKN055 OVC250 20/17 A3019 RMK AO2 SLP219 T02000167 (KAH)","FM-15","7",,,,,,,,,,,,,,,,,,,,,,,,,,,,"2009-07-08"
"72306013722","2020-05-26T09:45:00","FM-16","7",,,,,,,,,,,,,,,,,,,,,,,,,,,,,,,,,,,,,,"30.19","63","72",,,,,"73",,"BKN:07 15 BKN:07 250","29.72","10.00","66","080",,"8",,,,,,,,,,,,,,,,,,,,,,,,,,,,,,,,,,,,,"MET08905/26/20 09:45:02 SPECI KRDU 261445Z 08007KT 10SM BKN015 BKN250 22/17 A3019 RMK AO2 (KAH)","FM-16","7",,,,,,,,,,,,,,,,,,,,,,,,,,,,"2009-07-08"
"72306013722","2020-05-26T09:51:00","FM-15","7",,,,,,,,,,,,,,,,,,,,,,,,,,,,,,,,,,,,,,"30.19","63","71","0.00",,"-0.01","1","76","30.18","SCT:04 15 BKN:07 250","29.72","10.00","66","070",,"9",,,,,,,,,,,,,,,,,,,,,,,,,,,,,,,,,,,,,"MET12205/26/20 09:51:02 METAR KRDU 261451Z 07008KT 10SM SCT015 BKN250 22/17 A3019 RMK AO2 SLP219 SCT V BKN T02170172 51002 (KAH)","FM-15","7",,,,,,,,,,,,,,,,,,,,,,,,,,,,"2009-07-08"
"72306013722","2020-05-26T10:51:00","FM-15","7",,,,,,,,,,,,,,,,,,,,,,,,,,,,,,,,,,,,,,"30.19","63","74","0.00",,,,"69","30.17","FEW:02 23 BKN:07 240","29.72","10.00","67","VRB",,"6",,,,,,,,,,,,,,,,,,,,,,,,,,,,,,,,,,,,,"MET10605/26/20 10:51:02 METAR KRDU 261551Z VRB05KT 10SM FEW023 BKN240 23/17 A3019 RMK AO2 SLP218 T02330172 (KAH)","FM-15","7",,,,,,,,,,,,,,,,,,,,,,,,,,,,"2009-07-08"
"72306013722","2020-05-26T11:51:00","FM-15","7",,,,,,,,,,,,,,,,,,,,,,,,,,,,,,,,,,,,,,"30.17","62","77","0.00",,,,"60","30.16","FEW:02 32 FEW:02 180 BKN:07 250","29.70","10.00","68","060","21","10",,,,,,,,,,,,,,,,,,,,,,,,,,,,,,,,,,,,,"MET11605/26/20 11:51:02 METAR KRDU 261651Z 06009G18KT 10SM FEW032 FEW180 BKN250 25/17 A3017 RMK AO2 SLP212 T02500167 (KAH)","FM-15","7",,,,,,,,,,,,,,,,,,,,,,,,,,,,"2009-07-08"
"72306013722","2020-05-26T12:51:00","FM-15","7",,,,,,,,,,,,,,,,,,,,,,,,,,,,,,,,,,,,,,"30.15","63","78","0.00",,"+0.03","8","60","30.14","SCT:04 32 BKN:07 250","29.68","10.00","68","060",,"10",,,,,,,,,,,,,,,,,,,,,,,,,,,,,,,,,,,,,"MET12405/26/20 12:51:02 METAR KRDU 261751Z 06009KT 10SM SCT032 BKN250 26/17 A3015 RMK AO2 SLP206 T02560172 10256 20194 58011 (KAH)","FM-15","7",,,,,,,,,,,,,,,,,,,,,,,,,,,,"2009-07-08"
"72306013722","2020-05-26T13:00:00","FM-12","4",,,,,,,,,,,,,,,,,,,,,,,,,,,,,,,,,,,,,,,"63","78",,,"+0.03","8","60","30.14","26","29.69","9.94","68","060",,"10",,,,,,,,,,,,,,,,,,,,,,,,,,,,,,,,,,,,,"SYN08072306 32566 60609 10256 20172 30053 40206 58011 91751 333 10256 20194 555 92618=","FM-12","4",,,,,,,,,,,,,,,,,,,,,,,,,,,,"2009-07-08"
"72306013722","2020-05-26T13:51:00","FM-15","7",,,,,,,,,,,,,,,,,,,,,,,,,,,,,,,,,,,,,,"30.15","63","77","0.00",,,,"62","30.14","SCT:04 30 BKN:07 250","29.68","10.00","68","060",,"10",,,,,,,,,,,,,,,,,,,,,,,,,,,,,,,,,,,,,"MET10605/26/20 13:51:02 METAR KRDU 261851Z 06009KT 10SM SCT030 BKN250 25/17 A3015 RMK AO2 SLP206 T02500172 (KAH)","FM-15","7",,,,,,,,,,,,,,,,,,,,,,,,,,,,"2009-07-08"
"72306013722","2020-05-26T14:51:00","FM-15","7",,,,,,,,,,,,,,,,,,,,,,,,,,,,,,,,,,,,,,"30.14","64","76","0.00",,,,"67","30.13","SCT:04 30 BKN:07 250","29.67","10.00","68","110",,"9",,,,,,,,,,,,,,,,,,,,,,,,,,,,,,,,,,,,,"MET10605/26/20 14:51:02 METAR KRDU 261951Z 11008KT 10SM SCT030 BKN250 24/18 A3014 RMK AO2 SLP204 T02440178 (JBA)","FM-15","7",,,,,,,,,,,,,,,,,,,,,,,,,,,,"2009-07-08"
"72306013722","2020-05-26T15:51:00","FM-15","7",,,,,,,,,,,,,,,,,,,,,,,,,,,,,,,,,,,,,,"30.13","63","73","0.00",,"+0.02","8","71","30.12","SCT:04 30 BKN:07 190","29.66","10.00","67","100",,"11",,,,,,,,,,,,,,,,,,,,,,,,,,,,,,,,,,,,,"MET11205/26/20 15:51:02 METAR KRDU 262051Z 10010KT 10SM SCT030 BKN190 23/17 A3013 RMK AO2 SLP199 T02280172 58008 (JBA)","FM-15","7",,,,,,,,,,,,,,,,,,,,,,,,,,,,"2009-07-08"
"72306013722","2020-05-26T16:51:00","FM-15","7",,,,,,,,,,,,,,,,,,,,,,,,,,,,,,,,,,,,,,"30.13","63","72","0.00",,,,"73","30.12","SCT:04 23 BKN:07 190","29.66","10.00","66","090",,"13",,,,,,,,,,,,,,,,,,,,,,,,,,,,,,,,,,,,,"MET11605/26/20 16:51:02 METAR KRDU 262151Z 09011KT 10SM SCT023 BKN190 22/17 A3013 RMK AO2 SLP199 SCT V BKN T02220172 (JBA)","FM-15","7",,,,,,,,,,,,,,,,,,,,,,,,,,,,"2009-07-08"
"72306013722","2020-05-26T17:51:00","FM-15","7",,,,,,,,,,,,,,,,,,,,,,,,,,,,,,,,,,,,,,"30.13","63","72","0.00",,,,"73","30.11","SCT:04 23 BKN:07 200","29.66","10.00","66","080",,"9",,,,,,,,,,,,,,,,,,,,,,,,,,,,,,,,,,,,,"MET10605/26/20 17:51:02 METAR KRDU 262251Z 08008KT 10SM SCT023 BKN200 22/17 A3013 RMK AO2 SLP198 T02220172 (JBA)","FM-15","7",,,,,,,,,,,,,,,,,,,,,,,,,,,,"2009-07-08"
"72306013722","2020-05-26T18:51:00","FM-15","7",,,,,,,,,,,,,,,,,,,,,,,,,,,,,,,,,,,,,,"30.13","64","71","0.00",,"+0.00","5","79","30.12","FEW:02 23 BKN:07 170","29.66","10.00","67","080",,"6",,,,,,,,,,,,,,,,,,,,,,,,,,,,,,,,,,,,,"MET12405/26/20 18:51:02 METAR KRDU 262351Z 08005KT 10SM FEW023 BKN170 22/18 A3013 RMK AO2 SLP200 T02170178 10261 20217 55000 (JBA)","FM-15","7",,,,,,,,,,,,,,,,,,,,,,,,,,,,"2009-07-08"
"72306013722","2020-05-26T19:00:00","FM-12","4",,,,,,,,,,,,,,,,,,,,,,,,,,,,,,,,,,,,,,,"64","71",,,"+0.00","5","79","30.12","26","29.67","9.94","67","080",,"6",,,,,,,,,,,,,,,,,,,,,,,,,,,,,,,,,,,,,"SYN08072306 32566 60805 10217 20178 30047 40200 55000 92351 333 10261 20189 555 92700=","FM-12","4",,,,,,,,,,,,,,,,,,,,,,,,,,,,"2009-07-08"
"72306013722","2020-05-26T19:51:00","FM-15","7",,,,,,,,,,,,,,,,,,,,,,,,,,,,,,,,,,,,,,"30.13","64","70","0.00",,,,"82","30.12","FEW:02 23 SCT:04 33 BKN:07 170","29.66","10.00","66","080",,"6",,,,,,,,,,,,,,,,,,,,,,,,,,,,,,,,,,,,,"MET10705/26/20 19:51:01 METAR KRDU 270051Z 08005KT 10SM FEW023 SCT033 BKN170 21/18 A3013 RMK AO2 SLP199 T02110178","FM-15","7",,,,,,,,,,,,,,,,,,,,,,,,,,,,"2009-07-08"
"72306013722","2020-05-26T20:51:00","FM-15","7",,,,,,,,,,,,,,,,,,,,,,,,,,,,,,,,,,,,,,"30.14","65","69","0.00",,,,"87","30.13","FEW:02 23 SCT:04 33 OVC:08 190","29.67","10.00","66","070",,"5",,,,,,,,,,,,,,,,,,,,,,,,,,,,,,,,,,,,,"MET10705/26/20 20:51:01 METAR KRDU 270151Z 07004KT 10SM FEW023 SCT033 OVC190 21/18 A3014 RMK AO2 SLP202 T02060183","FM-15","7",,,,,,,,,,,,,,,,,,,,,,,,,,,,"2009-07-08"
"72306013722","2020-05-26T21:51:00","FM-15","7",,,,,,,,,,,,,,,,,,,,,,,,,,,,,,,,,,,,,,"30.14","65","69","0.00",,"-0.01","0","87","30.13","BKN:07 33 OVC:08 190","29.67","10.00","66","070",,"6",,,,,,,,,,,,,,,,,,,,,,,,,,,,,,,,,,,,,"MET10605/26/20 21:51:01 METAR KRDU 270251Z 07005KT 10SM BKN033 OVC190 21/18 A3014 RMK AO2 SLP202 T02060183 50002","FM-15","7",,,,,,,,,,,,,,,,,,,,,,,,,,,,"2009-07-08"
"72306013722","2020-05-26T21:59:00","FM-16","7",,,,,,,,,,,,,,,,,,,,,,,,,,,,,,,,,,,,,,"30.14","65","69",,,,,"87",,"FEW:02 9 BKN:07 32 BKN:07 190","29.67","10.00","66","080",,"7",,,,,,,,,,,,,,,,,,,,,,,,,,,,,,,,,,,,,"MET10005/26/20 21:59:01 SPECI KRDU 270259Z 08006KT 10SM FEW009 BKN032 BKN190 21/18 A3014 RMK AO2 T02060183","FM-16","7",,,,,,,,,,,,,,,,,,,,,,,,,,,,"2009-07-08"
"72306013722","2020-05-26T22:51:00","FM-15","7",,,,,,,,,,,,,,,,,,,,,,,,,,,,,,,,,,,,,,"30.14","66","69","0.00",,,,"90","30.12","FEW:02 9 BKN:07 31 BKN:07 170","29.67","10.00","67","080",,"7",,,,,,,,,,,,,,,,,,,,,,,,,,,,,,,,,,,,,"MET10705/26/20 22:51:02 METAR KRDU 270351Z 08006KT 10SM FEW009 BKN031 BKN170 21/19 A3014 RMK AO2 SLP201 T02060189","FM-15","7",,,,,,,,,,,,,,,,,,,,,,,,,,,,"2009-07-08"
"72306013722","2020-05-26T23:33:00","FM-16","7",,,,,,,,,,,,,,,,,,,,,,,,,,,,,,,,,,,,,,"30.14","66","68",,,,,"93",,"BKN:07 8 BKN:07 31 BKN:07 170","29.67","10.00","67","090",,"7",,,,,,,,,,,,,,,,,,,,,,,,,,,,,,,,,,,,,"MET10005/26/20 23:33:02 SPECI KRDU 270433Z 09006KT 10SM BKN008 BKN031 BKN170 20/19 A3014 RMK AO2 T02000189","FM-16","7",,,,,,,,,,,,,,,,,,,,,,,,,,,,"2009-07-08"
"72306013722","2020-05-26T23:51:00","FM-15","7",,,,,,,,,,,,,,,,,,,,,,,,,,,,,,,,,,,,,,"30.14","66","68","0.00",,,,"93","30.12","BKN:07 8 BKN:07 31 BKN:07 170","29.67","10.00","67","090",,"7",,,,,,,,,,,,,,,,,,,,,,,,,,,,,,,,,,,,,"MET11705/26/20 23:51:02 METAR KRDU 270451Z 09006KT 10SM BKN008 BKN031 BKN170 20/19 A3014 RMK AO2 SLP200 T02000189 402610189","FM-15","7",,,,,,,,,,,,,,,,,,,,,,,,,,,,"2009-07-08"
"72306013722","2020-05-26T23:59:00","SOD  ","6",,,,,,,,,,,,,,,"63","73","79","30.14","29.67","66","6.9","8","2.2","0","79","66","060","21","0.00","0","0.0","080","15",,,,,,,,,,,,,,,,,,,,,,,,,,,,,,,,,,,,,,,,,,,,,,,,,,,,,,,,,"SOD73924 HR PRECIPITATION (IN): 0.00 SNOW DEPTH (IN):0     24 HR SNOWFALL (IN):0.0  24 HR MAX TEMP (F): 7924 HR MIN TEMP (F): 66AVERAGE STATION PRESSURE:29.675 MINIMUM SEA LEVEL PRESSURE:30.11 TIME OF OCCURRENCE:1835 PEAK WIND SPEED (MPH): 20 PEAK WIND DIR (DEG): 30 PEAK WIND TIME (LST):      FASTEST 2MIN SPEED (MPH): 15FASTEST 2MIN DIR (DEG): 80 FASTEST 2MIN TIME (LST):     AVERAGE WIND SPEED (MPH): 6.9 24 HR AVG TEMP (F): 73DEPART FROM NORMAL:  2  HEATING DEGREE DAYS:  0 COOLING DEGREE DAYS:  8 LATEST DAY MAX TEMP (0700-1900 LST):79  LATEST NIGHT MIN TEMP(1900-0800 LST):66 HOURLY INCREMENTAL PRECIPITATION VALUES (IN):.00 0.00 0.00 0.00 0.00 0.00 0.00 0.00 0.00 0.00 0.00 0.00 0.00 0.00 0.00 0.00 0.00 0.00 0.00 0.00 0.00 0.00 0.00 0.00","SOD  ","6",,,,,,,,,,,,,,,,,,,,,,,,,"0502","1923",,"2009-07-08"
"72306013722","2020-05-27T00:51:00","FM-15","7",,,,,,,,,,,,,,,,,,,,,,,,,,,,,,,,,,,,,,"30.13","65","68","0.00",,"+0.01","8","90","30.11","FEW:02 8 BKN:07 32 BKN:07 170","29.66","10.00","66","070",,"7",,,,,,,,,,,,,,,,,,,,,,,,,,,,,,,,,,,,,"MET13105/27/20 00:51:02 METAR KRDU 270551Z 07006KT 10SM FEW008 BKN032 BKN170 20/18 A3013 RMK AO2 SLP198 T02000183 10217 20200 58003 (AWB)","FM-15","7",,,,,,,,,,,,,,,,,,,,,,,,,,,,"2009-07-08"
"72306013722","2020-05-27T01:00:00","FM-12","4",,,,,,,,,,,,,,,,,,,,,,,,,,,,,,,,,,,,,,,"65","68",,,"+0.01","8","90","30.11","8","29.67","9.94","66","070",,"7",,,,,,,,,,,,,,,,,,,,,,,,,,,,,,,,,,,,,"SYN08072306 32366 60706 10200 20183 30047 40198 58003 90551 333 10217 20189 555 92706=","FM-12","4",,,,,,,,,,,,,,,,,,,,,,,,,,,,"2009-07-08"
"72306013722","2020-05-27T01:51:00","FM-15","7",,,,,,,,,,,,,,,,,,,,,,,,,,,,,,,,,,,,,,"30.13","65","68","0.00",,,,"90","30.11","FEW:02 8 BKN:07 32","29.66","10.00","66","060",,"6",,,,,,,,,,,,,,,,,,,,,,,,,,,,,,,,,,,,,"MET10605/27/20 01:51:02 METAR KRDU 270651Z 06005KT 10SM FEW008 BKN032 20/18 A3013 RMK AO2 SLP198 T02000183 (AWB)","FM-15","7",,,,,,,,,,,,,,,,,,,,,,,,,,,,"2009-07-08"
"72306013722","2020-05-27T02:51:00","FM-15","7",,,,,,,,,,,,,,,,,,,,,,,,,,,,,,,,,,,,,,"30.12","65","67","0.00",,,,"93","30.11","SCT:04 7 BKN:07 30 BKN:07 40","29.65","10.00","66","060",,"6",,,,,,,,,,,,,,,,,,,,,,,,,,,,,,,,,,,,,"MET11305/27/20 02:51:02 METAR KRDU 270751Z 06005KT 10SM SCT007 BKN030 BKN040 19/18 A3012 RMK AO2 SLP196 T01940183 (AWB)","FM-15","7",,,,,,,,,,,,,,,,,,,,,,,,,,,,"2009-07-08"
"72306013722","2020-05-27T03:51:00","FM-15","7",,,,,,,,,,,,,,,,,,,,,,,,,,,,,,,,,,,,,,"30.12","65","67","0.00",,"+0.01","8","93","30.11","BKN:07 6 OVC:08 38","29.65","10.00","66","050",,"6",,,,,,,,,,,,,,,,,,,,,,,,,,,,,,,,,,,,,"MET11205/27/20 03:51:02 METAR KRDU 270851Z 05005KT 10SM BKN006 OVC038 19/18 A3012 RMK AO2 SLP195 T01940183 58004 (AWB)","FM-15","7",,,,,,,,,,,,,,,,,,,,,,,,,,,,"2009-07-08"
"72306013722","2020-05-27T04:51:00","FM-15","7",,,,,,,,,,,,,,,,,,,,,,,,,,,,,,,,,,,,,,"30.13","65","67","0.00",,,,"93","30.11","BKN:07 6 OVC:08 70","29.66","10.00","66","080",,"7",,,,,,,,,,,,,,,,,,,,,,,,,,,,,,,,,,,,,"MET10605/27/20 04:51:02 METAR KRDU 270951Z 08006KT 10SM BKN006 OVC070 19/18 A3013 RMK AO2 SLP198 T01940183 (AWB)","FM-15","7",,,,,,,,,,,,,,,,,,,,,,,,,,,,"2009-07-08"
"72306013722","2020-05-27T05:51:00","FM-15","7",,,,,,,,,,,,,,,,,,,,,,,,,,,,,,,,,,,,,,"30.13","65","67","0.00",,,,"93","30.12","BKN:07 8 BKN:07 75 BKN:07 150","29.66","10.00","66","060",,"7",,,,,,,,,,,,,,,,,,,,,,,,,,,,,,,,,,,,,"MET11305/27/20 05:51:02 METAR KRDU 271051Z 06006KT 10SM BKN008 BKN075 BKN150 19/18 A3013 RMK AO2 SLP200 T01940183 (AWB)","FM-15","7",,,,,,,,,,,,,,,,,,,,,,,,,,,,"2009-07-08"
"72306013722","2020-05-27T06:51:00","FM-15","7",,,,,,,,,,,,,,,,,,,,,,,,,,,,,,,,,,,,,,"30.14","65","68","0.00",,"-0.03","3","90","30.13","BKN:07 7 OVC:08 60","29.67","10.00","66","080",,"8",,,,,,,,,,,,,,,,,,,,,,,,,,,,,,,,,,,,,"MET12405/27/20 06:51:02 METAR KRDU 271151Z 08007KT 10SM BKN007 OVC060 20/18 A3014 RMK AO2 SLP204 T02000183 10200 20194 53009 (KAH)","FM-15","7",,,,,,,,,,,,,,,,,,,,,,,,,,,,"2009-07-08"
"72306013722","2020-05-27T07:00:00","FM-12","4",,,,,,,,,,,,,,,,,,,,,,,,,,,,,,,,,,,,,,,"65","68",,,"-0.03","3","90","30.13","8","29.68","9.94","66","080",,"8",,,,,,,,,,,,,,,,,,,,,,,,,,,,,,,,,,,,,"SYN08072306 32366 80807 10200 20183 30050 40204 53009 91151 333 10261 20194 555 92712=","FM-12","4",,,,,,,,,,,,,,,,,,,,,,,,,,,,"2009-07-08"
"72306013722","2020-05-27T07:51:00","FM-15","7",,,,,,,,,,,,,,,,,,,,,,,,,,,,,,,,,,,,,,"30.14","65","68","0.00",,,,"90","30.13","BKN:07 8 OVC:08 40","29.67","10.00","66","070",,"9",,,,,,,,,,,,,,,,,,,,,,,,,,,,,,,,,,,,,"MET10605/27/20 07:51:02 METAR KRDU 271251Z 07008KT 10SM BKN008 OVC040 20/18 A3014 RMK AO2 SLP203 T02000183 (KAH)","FM-15","7",,,,,,,,,,,,,,,,,,,,,,,,,,,,"2009-07-08"
"72306013722","2020-05-27T08:51:00","FM-15","7",,,,,,,,,,,,,,,,,,,,,,,,,,,,,,,,,,,,,,"30.14","66","69","T","-RA:02 BR:1 |RA |RA",,,"90","30.13","BKN:07 9 OVC:08 40","29.67","6.00","67","070",,"6",,,,,,,,,,,,,,,,,,,,,,,,,,,,,,,,,,,,,"MET12405/27/20 08:51:02 METAR KRDU 271351Z 07005KT 6SM -RA BR BKN009 OVC040 21/19 A3014 RMK AO2 RAB48 SLP203 P0000 T02060189 (KAH)","FM-15","7",,,,,,,,,,,,,,,,,,,,,,,,,,,,"2009-07-08"
"72306013722","2020-05-27T09:51:00","FM-15","7",,,,,,,,,,,,,,,,,,,,,,,,,,,,,,,,,,,,,,"30.13","67","70","0.01",,"+0.01","8","90","30.12","BKN:07 7 BKN:07 15 OVC:08 45","29.66","10.00","68","070",,"9",,,,,,,,,,,,,,,,,,,,,,,,,,,,,,,,,,,,,"MET13705/27/20 09:51:02 METAR KRDU 271451Z 07008KT 10SM BKN007 BKN015 OVC045 21/19 A3013 RMK AO2 RAE43 SLP200 P0001 60001 T02110194 58004 (KAH)","FM-15","7",,,,,,,,,,,,,,,,,,,,,,,,,,,,"2009-07-08"
"72306013722","2020-05-27T10:24:00","FM-16","7",,,,,,,,,,,,,,,,,,,,,,,,,,,,,,,,,,,,,,"30.13","68","72",,,,,"87",,"BKN:07 10 BKN:07 45 OVC:08 65","29.66","10.00","69","070",,"10",,,,,,,,,,,,,,,,,,,,,,,,,,,,,,,,,,,,,"MET10605/27/20 10:24:02 SPECI KRDU 271524Z 07009KT 10SM BKN010 BKN045 OVC065 22/20 A3013 RMK AO2 T02220200 (KAH)","FM-16","7",,,,,,,,,,,,,,,,,,,,,,,,,,,,"2009-07-08"
"72306013722","2020-05-27T10:51:00","FM-15","7",,,,,,,,,,,,,,,,,,,,,,,,,,,,,,,,,,,,,,"30.12","68","74","0.00",,,,"82","30.11","BKN:07 13 BKN:07 60 BKN:07 150","29.65","10.00","70","050",,"10",,,,,,,,,,,,,,,,,,,,,,,,,,,,,,,,,,,,,"MET11305/27/20 10:51:02 METAR KRDU 271551Z 05009KT 10SM BKN013 BKN060 BKN150 23/20 A3012 RMK AO2 SLP195 T02330200 (KAH)","FM-15","7",,,,,,,,,,,,,,,,,,,,,,,,,,,,"2009-07-08"
"72306013722","2020-05-27T11:19:00","FM-16","7",,,,,,,,,,,,,,,,,,,,,,,,,,,,,,,,,,,,,,"30.12","67","75",,,,,"76",,"BKN:07 17 BKN:07 60 OVC:08 110","29.65","10.00","70","080",,"8",,,,,,,,,,,,,,,,,,,,,,,,,,,,,,,,,,,,,"MET10605/27/20 11:19:02 SPECI KRDU 271619Z 08007KT 10SM BKN017 BKN060 OVC110 24/19 A3012 RMK AO2 T02390194 (KAH)","FM-16","7",,,,,,,,,,,,,,,,,,,,,,,,,,,,"2009-07-08"
"72306013722","2020-05-27T11:51:00","FM-15","7",,,,,,,,,,,,,,,,,,,,,,,,,,,,,,,,,,,,,,"30.11","67","76","0.00",,,,"74","30.10","BKN:07 20 BKN:07 37 OVC:08 100","29.64","10.00","70","090",,"6",,,,,,,,,,,,,,,,,,,,,,,,,,,,,,,,,,,,,"MET11305/27/20 11:51:02 METAR KRDU 271651Z 09005KT 10SM BKN020 BKN037 OVC100 24/19 A3011 RMK AO2 SLP192 T02440194 (KAH)","FM-15","7",,,,,,,,,,,,,,,,,,,,,,,,,,,,"2009-07-08"
"72306013722","2020-05-27T12:18:00","FM-16","7",,,,,,,,,,,,,,,,,,,,,,,,,,,,,,,,,,,,,,"30.09","67","77",,,,,"71",,"SCT:04 22 BKN:07 36 OVC:08 120","29.62","10.00","70","080",,"8",,,,,,,,,,,,,,,,,,,,,,,,,,,,,,,,,,,,,"MET10605/27/20 12:18:02 SPECI KRDU 271718Z 08007KT 10SM SCT022 BKN036 OVC120 25/19 A3009 RMK AO2 T02500194 (KAH)","FM-16","7",,,,,,,,,,,,,,,,,,,,,,,,,,,,"2009-07-08"
"72306013722","2020-05-27T12:51:00","FM-15","7",,,,,,,,,,,,,,,,,,,,,,,,,,,,,,,,,,,,,,"30.08","67","78","T","|RA |RA","+0.05","8","69","30.06","SCT:04 22 BKN:07 35 BKN:07 90","29.61","10.00","71","VRB",,"9",,,,,,,,,,,,,,,,,,,,,,,,,,,,,,,,,,,,,"MET15305/27/20 12:51:02 METAR KRDU 271751Z 07008KT 10SM -RA SCT022 BKN035 BKN090 26/19 A3008 RMK AO2 RAB49 SLP181 P0000 60001 T02560194 10256 20200 58018 (KAH)","FM-15","7",,,,,,,,,,,,,,,,,,,,,,,,,,,,"2009-07-08"
"72306013722","2020-05-27T13:00:00","FM-12","4",,,,,,,,,,,,,,,,,,,,,,,,,,,,,,,,,,,,,,,"67","78",,"||RA","+0.05","8","69","30.06","26","29.62","9.94","71","070",,"9",,,,,,,,,,,,,,,,,,,,,,,,,,,,,,,,,,,,,"SYN09272306 11566 80708 10256 20194 30030 40181 58018 69931 761// 91751 333 10256 20200 555 92718=","FM-12","4",,,,,,,,,,,,,,,,,,,,,,,,,,,,"2009-07-08"
"72306013722","2020-05-27T13:51:00","FM-15","7",,,,,,,,,,,,,,,,,,,,,,,,,,,,,,,,,,,,,,"30.06","69","76","0.02","|RA |RA",,,"79","30.05","SCT:04 24 BKN:07 35 BKN:07 70","29.59","8.00","71","080",,"9",,,,,,,,,,,,,,,,,,,,,,,,,,,,,,,,,,,,,"MET12205/27/20 13:51:02 METAR KRDU 271851Z 08008KT 8SM -RA SCT024 BKN035 BKN070 24/21 A3006 RMK AO2 SLP177 P0000 T02440206 (KAH)","FM-15","7",,,,,,,,,,,,,,,,,,,,,,,,,,,,"2009-07-08"
"72306013722","2020-05-27T14:17:00","FM-16","7",,,,,,,,,,,,,,,,,,,,,,,,,,,,,,,,,,,,,,"30.06","70","74","0.07","|RA |RA",,,"88",,"SCT:04 24 BKN:07 35 BKN:07 70","29.59","2.00","71","060",,"3",,,,,,,,,,,,,,,,,,,,,,,,,,,,,,,,,,,,,"MET12805/27/20 14:17:02 SPECI KRDU 271917Z 06003KT 2SM +RA BR SCT024 BKN035 BKN070 23/21 A3006 RMK AO2 TWR VIS 4 P0007 T02330211 (JBA)","FM-16","7",,,,,,,,,,,,,,,,,,,,,,,,,,,,"2009-07-08"
"72306013722","2020-05-27T14:36:00","FM-16","7",,,,,,,,,,,,,,,,,,,,,,,,,,,,,,,,,,,,,,"30.06","71","73","0.11","-RA:02 BR:1 |RA |RA",,,"94",,"FEW:02 12 BKN:07 24 OVC:08 40","29.59","2.00","72","090",,"9",,,,,,,,,,,,,,,,,,,,,,,,,,,,,,,,,,,,,"MET12805/27/20 14:36:02 SPECI KRDU 271936Z 09008KT 2SM -RA BR FEW012 BKN024 OVC040 23/22 A3006 RMK AO2 TWR VIS 4 P0011 T02280217 (JBA)","FM-16","7",,,,,,,,,,,,,,,,,,,,,,,,,,,,"2009-07-08"
"72306013722","2020-05-27T14:49:00","FM-16","6",,,,,,,,,,,,,,,,,,,,,,,,,,,,,,,,,,,,,,"30.05","72","73",,"-RA:02 BR:1 |RA |RA",,,"94",,"FEW:02 6 BKN:07 30 OVC:08 40","29.58","3.00","72","080",,"6",,,,,,,,,,,,,,,,,,,,,,,,,,,,,,,,,,,,,"MET12305/27/20 14:49:02 SPECI KRDU 271949Z 08005KT 3SM -RA BR FEW006 BKN030 OVC040 23/22 A3005 RMK AO2 TWR VIS 4 P0011 FIBI (JBA)","FM-16","6",,,,,,,,,,,,,,,,,,,,,,,,,,,,"2009-07-08"
"72306013722","2020-05-27T14:51:00","FM-15","7",,,,,,,,,,,,,,,,,,,,,,,,,,,,,,,,,,,,,,"30.05","71","73","0.09","-RA:02 BR:1 |RA |RA",,,"94","30.04","FEW:02 6 BKN:07 30 OVC:08 40","29.58","3.00","72","090",,"5",,,,,,,,,,,,,,,,,,,,,,,,,,,,,,,,,,,,,"MET13505/27/20 14:51:02 METAR KRDU 271951Z 09004KT 3SM -RA BR FEW006 BKN030 OVC040 23/22 A3005 RMK AO2 TWR VIS 4 SLP172 P0011 T02280217 (JBA)","FM-15","7",,,,,,,,,,,,,,,,,,,,,,,,,,,,"2009-07-08"
"72306013722","2020-05-27T15:51:00","FM-15","7",,,,,,,,,,,,,,,,,,,,,,,,,,,,,,,,,,,,,,"30.03","71","73","0.03","-RA:02 BR:1 |RA |RA","+0.05","8","94","30.02","FEW:02 6 FEW:02 30 OVC:08 100","29.56","6.00","72","060",,"7",,,,,,,,,,,,,,,,,,,,,,,,,,,,,,,,,,,,,"MET13705/27/20 15:51:02 METAR KRDU 272051Z 06006KT 6SM -RA BR FEW006 FEW030 OVC100 23/22 A3003 RMK AO2 SLP165 P0003 60014 T02280217 58016 (JBA)","FM-15","7",,,,,,,,,,,,,,,,,,,,,,,,,,,,"2009-07-08"
"72306013722","2020-05-27T16:49:00","FM-16","6",,,,,,,,,,,,,,,,,,,,,,,,,,,,,,,,,,,,,,"30.01","72","73",,"||RA",,,"94",,"FEW:02 6 SCT:04 45 BKN:07 100","29.54","2.50","72","080",,"8",,,,,,,,,,,,,,,,,,,,,,,,,,,,,,,,,,,,,"MET12705/27/20 16:49:02 SPECI KRDU 272149Z 08007KT 2 1/2SM -RA BR FEW006 SCT045 BKN100 23/22 A3001 RMK AO2 TWR VIS 4 P0002 FIBI (JBA)","FM-16","6",,,,,,,,,,,,,,,,,,,,,,,,,,,,"2009-07-08"
"72306013722","2020-05-27T16:51:00","FM-15","7",,,,,,,,,,,,,,,,,,,,,,,,,,,,,,,,,,,,,,"30.01","71","73","0.06","|RA |RA",,,"94","30.00","FEW:02 6 SCT:04 45 BKN:07 100","29.54","2.50","72","080",,"7",,,,,,,,,,,,,,,,,,,,,,,,,,,,,,,,,,,,,"MET13905/27/20 16:51:02 METAR KRDU 272151Z 08006KT 2 1/2SM -RA BR FEW006 SCT045 BKN100 23/22 A3001 RMK AO2 TWR VIS 4 SLP158 P0002 T02280217 (JBA)","FM-15","7",,,,,,,,,,,,,,,,,,,,,,,,,,,,"2009-07-08"
"72306013722","2020-05-27T17:36:00","FM-16","7",,,,,,,,,,,,,,,,,,,,,,,,,,,,,,,,,,,,,,"30.01","72","73","0.05","BR:1 ||",,,"96",,"SCT:04 6 BKN:07 45 OVC:08 70","29.54","4.00","72","080",,"10",,,,,,,,,,,,,,,,,,,,,,,,,,,,,,,,,,,,,"MET12005/27/20 17:36:02 SPECI KRDU 272236Z 08009KT 4SM BR SCT006 BKN045 OVC070 23/22 A3001 RMK AO2 RAE35 P0005 T02280222 (JBA)","FM-16","7",,,,,,,,,,,,,,,,,,,,,,,,,,,,"2009-07-08"
"72306013722","2020-05-27T17:51:00","FM-15","7",,,,,,,,,,,,,,,,,,,,,,,,,,,,,,,,,,,,,,"30.01","71","74","0.01","BR:1 ||",,,"91","30.00","SCT:04 6 BKN:07 50 OVC:08 80","29.54","6.00","72","090",,"11",,,,,,,,,,,,,,,,,,,,,,,,,,,,,,,,,,,,,"MET12705/27/20 17:51:02 METAR KRDU 272251Z 09010KT 6SM BR SCT006 BKN050 OVC080 23/22 A3001 RMK AO2 RAE35 SLP158 P0005 T02330217 (JBA)","FM-15","7",,,,,,,,,,,,,,,,,,,,,,,,,,,,"2009-07-08"
"72306013722","2020-05-27T18:51:00","FM-15","7",,,,,,,,,,,,,,,,,,,,,,,,,,,,,,,,,,,,,,"30.01","72","74","0.00",,"+0.02","5","94","30.00","SCT:04 6 BKN:07 33 BKN:07 50","29.54","8.00","73","080",,"8",,,,,,,,,,,,,,,,,,,,,,,,,,,,,,,,,,,,,"MET13605/27/20 18:51:02 METAR KRDU 272351Z 08007KT 8SM SCT006 BKN033 BKN050 23/22 A3001 RMK AO2 SLP159 60021 T02330222 10256 20228 55006 (JBA)","FM-15","7",,,,,,,,,,,,,,,,,,,,,,,,,,,,"2009-07-08"
"72306013722","2020-05-27T19:00:00","FM-12","4",,,,,,,,,,,,,,,,,,,,,,,,,,,,,,,,,,,,,,,"72","74",,,"+0.02","5","94","30.00","5","29.55","7.46","73","080",,"8",,,,,,,,,,,,,,,,,,,,,,,,,,,,,,,,,,,,,"SYN08672306 12262 80807 10233 20222 30007 40159 55006 60051 92351 333 10256 20194 555 92800=","FM-12","4",,,,,,,,,,,,,,,,,,,,,,,,,,,,"2009-07-08"
"72306013722","2020-05-27T19:02:00","FM-16","7",,,,,,,,,,,,,,,,,,,,,,,,,,,,,,,,,,,,,,"30.01","72","74",,,,,"94",,"SCT:04 6 BKN:07 26 BKN:07 50","29.54","8.00","73","090",,"8",,,,,,,,,,,,,,,,,,,,,,,,,,,,,,,,,,,,,"MET09905/27/20 19:02:01 SPECI KRDU 280002Z 09007KT 8SM SCT006 BKN026 BKN050 23/22 A3001 RMK AO2 T02330222","FM-16","7",,,,,,,,,,,,,,,,,,,,,,,,,,,,"2009-07-08"
"72306013722","2020-05-27T19:49:00","FM-16","6",,,,,,,,,,,,,,,,,,,,,,,,,,,,,,,,,,,,,,"30.01","72","73",,"-RA:02 BR:1 |RA |RA",,,"94",,"BKN:07 6 OVC:08 27","29.54","5.00","72","100",,"10",,,,,,,,,,,,,,,,,,,,,,,,,,,,,,,,,,,,,"MET11205/27/20 19:49:03 SPECI KRDU 280049Z 10009KT 5SM -RA BR BKN006 OVC027 23/22 A3001 RMK AO2 RAB32 P0004 FIBI (JBA)","FM-16","6",,,,,,,,,,,,,,,,,,,,,,,,,,,,"2009-07-08"
"72306013722","2020-05-27T19:51:00","FM-15","7",,,,,,,,,,,,,,,,,,,,,,,,,,,,,,,,,,,,,,"30.01","72","73","0.04","-RA:02 BR:1 |RA |RA",,,"96","30.00","BKN:07 6 OVC:08 27","29.54","5.00","72","100",,"11",,,,,,,,,,,,,,,,,,,,,,,,,,,,,,,,,,,,,"MET11805/27/20 19:51:01 METAR KRDU 280051Z 10010KT 5SM -RA BR BKN006 OVC027 23/22 A3001 RMK AO2 RAB32 SLP158 P0004 T02280222","FM-15","7",,,,,,,,,,,,,,,,,,,,,,,,,,,,"2009-07-08"
"72306013722","2020-05-27T20:09:00","FM-16","7",,,,,,,,,,,,,,,,,,,,,,,,,,,,,,,,,,,,,,"30.01","72","73","T","-DZ:01 |DZ |DZ",,,"96",,"SCT:04 6 BKN:07 30 OVC:08 50","29.54","7.00","72","110",,"14",,,,,,,,,,,,,,,,,,,,,,,,,,,,,,,,,,,,,"MET12005/27/20 20:09:01 SPECI KRDU 280109Z 11012KT 7SM -DZ SCT006 BKN030 OVC050 23/22 A3001 RMK AO2 RAE09DZB09 P0000 T02280222","FM-16","7",,,,,,,,,,,,,,,,,,,,,,,,,,,,"2009-07-08"
"72306013722","2020-05-27T20:40:00","FM-16","7",,,,,,,,,,,,,,,,,,,,,,,,,,,,,,,,,,,,,,"30.00","71","73","T",,,,"94",,"SCT:04 6 BKN:07 20 OVC:08 50","29.53","10.00","72","120","21","13",,,,,,,,,,,,,,,,,,,,,,,,,,,,,,,,,,,,,"MET12305/27/20 20:40:01 SPECI KRDU 280140Z 12011G18KT 10SM SCT006 BKN020 OVC050 23/22 A3000 RMK AO2 RAE09DZB09E34 P0000 T02280217","FM-16","7",,,,,,,,,,,,,,,,,,,,,,,,,,,,"2009-07-08"
"72306013722","2020-05-27T20:51:00","FM-15","7",,,,,,,,,,,,,,,,,,,,,,,,,,,,,,,,,,,,,,"30.00","71","73","T",,,,"94","29.99","SCT:04 6 BKN:07 15 OVC:08 75","29.53","10.00","72","110",,"13",,,,,,,,,,,,,,,,,,,,,,,,,,,,,,,,,,,,,"MET12705/27/20 20:51:01 METAR KRDU 280151Z 11011KT 10SM SCT006 BKN015 OVC075 23/22 A3000 RMK AO2 RAE09DZB09E34 SLP156 P0000 T02280217","FM-15","7",,,,,,,,,,,,,,,,,,,,,,,,,,,,"2009-07-08"
"72306013722","2020-05-27T21:41:00","FM-16","7",,,,,,,,,,,,,,,,,,,,,,,,,,,,,,,,,,,,,,"30.01","72","73",,,,,"96",,"BKN:07 8 OVC:08 15","29.54","10.00","72","130",,"11",,,,,,,,,,,,,,,,,,,,,,,,,,,,,,,,,,,,,"MET09305/27/20 21:41:01 SPECI KRDU 280241Z 13010KT 10SM BKN008 OVC015 23/22 A3001 RMK AO2 T02280222","FM-16","7",,,,,,,,,,,,,,,,,,,,,,,,,,,,"2009-07-08"
"72306013722","2020-05-27T21:51:00","FM-15","7",,,,,,,,,,,,,,,,,,,,,,,,,,,,,,,,,,,,,,"30.01","72","73","0.00",,"+0.00","5","96","30.00","BKN:07 8 OVC:08 15","29.54","10.00","72","120",,"11",,,,,,,,,,,,,,,,,,,,,,,,,,,,,,,,,,,,,"MET11205/27/20 21:51:01 METAR KRDU 280251Z 12010KT 10SM BKN008 OVC015 23/22 A3001 RMK AO2 SLP159 60004 T02280222 55000","FM-15","7",,,,,,,,,,,,,,,,,,,,,,,,,,,,"2009-07-08"
"72306013722","2020-05-27T22:06:00","FM-16","7",,,,,,,,,,,,,,,,,,,,,,,,,,,,,,,,,,,,,,"30.02","72","74",,,,,"94",,"SCT:04 8 BKN:07 12 OVC:08 25","29.55","10.00","73","140",,"10",,,,,,,,,,,,,,,,,,,,,,,,,,,,,,,,,,,,,"MET10005/27/20 22:06:01 SPECI KRDU 280306Z 14009KT 10SM SCT008 BKN012 OVC025 23/22 A3002 RMK AO2 T02330222","FM-16","7",,,,,,,,,,,,,,,,,,,,,,,,,,,,"2009-07-08"
"72306013722","2020-05-27T22:51:00","FM-15","7",,,,,,,,,,,,,,,,,,,,,,,,,,,,,,,,,,,,,,"30.02","72","73","0.02","-RA:02 |RA |RA",,,"96","30.01","FEW:02 6 BKN:07 12 OVC:08 55","29.55","8.00","72","140",,"8",,,,,,,,,,,,,,,,,,,,,,,,,,,,,,,,,,,,,"MET12205/27/20 22:51:02 METAR KRDU 280351Z 14007KT 8SM -RA FEW006 BKN012 OVC055 23/22 A3002 RMK AO2 RAB21 SLP161 P0000 T02280222","FM-15","7",,,,,,,,,,,,,,,,,,,,,,,,,,,,"2009-07-08"
"72306013722","2020-05-27T23:03:00","FM-16","7",,,,,,,,,,,,,,,,,,,,,,,,,,,,,,,,,,,,,,"30.02","72","73","0.02","RA:02 BR:1 |RA |RA",,,"96",,"FEW:02 6 BKN:07 12 OVC:08 55","29.55","2.00","72","160",,"8",,,,,,,,,,,,,,,,,,,,,,,,,,,,,,,,,,,,,"MET12105/27/20 23:03:02 SPECI KRDU 280403Z 16007KT 2SM RA BR FEW006 BKN012 OVC055 23/22 A3002 RMK AO2 TWR VIS 4 P0002 T02280222","FM-16","7",,,,,,,,,,,,,,,,,,,,,,,,,,,,"2009-07-08"
"72306013722","2020-05-27T23:19:00","FM-16","7",,,,,,,,,,,,,,,,,,,,,,,,,,,,,,,,,,,,,,"30.03","72","73","0.07","-RA:02 BR:1 |RA |RA",,,"96",,"BKN:07 6 OVC:08 15","29.56","4.00","72","180",,"8",,,,,,,,,,,,,,,,,,,,,,,,,,,,,,,,,,,,,"MET10505/27/20 23:19:02 SPECI KRDU 280419Z 18007KT 4SM -RA BR BKN006 OVC015 23/22 A3003 RMK AO2 P0007 T02280222","FM-16","7",,,,,,,,,,,,,,,,,,,,,,,,,,,,"2009-07-08"
"72306013722","2020-05-27T23:40:00","FM-16","7",,,,,,,,,,,,,,,,,,,,,,,,,,,,,,,,,,,,,,"30.02","72","73","0.11","-RA:02 BR:1 |RA |RA",,,"96",,"FEW:02 6 BKN:07 13 OVC:08 65","29.55","6.00","72","150",,"13",,,,,,,,,,,,,,,,,,,,,,,,,,,,,,,,,,,,,"MET11205/27/20 23:40:02 SPECI KRDU 280440Z 15011KT 6SM -RA BR FEW006 BKN013 OVC065 23/22 A3002 RMK AO2 P0011 T02280222","FM-16","7",,,,,,,,,,,,,,,,,,,,,,,,,,,,"2009-07-08"
"72306013722","2020-05-27T23:51:00","FM-15","7",,,,,,,,,,,,,,,,,,,,,,,,,,,,,,,,,,,,,,"30.02","72","73","0.09",,,,"96","30.00","FEW:02 6 SCT:04 13 BKN:07 50","29.55","10.00","72","160","21","13",,,,,,,,,,,,,,,,,,,,,,,,,,,,,,,,,,,,,"MET13205/27/20 23:51:02 METAR KRDU 280451Z 16011G18KT 10SM FEW006 SCT013 BKN050 23/22 A3002 RMK AO2 RAE48 SLP160 P0011 T02280222 402560194","FM-15","7",,,,,,,,,,,,,,,,,,,,,,,,,,,,"2009-07-08"
"72306013722","2020-05-27T23:59:00","SOD  ","6",,,,,,,,,,,,,,,"68","73","90","30.07","29.62","69","8.3","8","1.9","0","78","67","130","23","0.37","0","0.0","130","16","RA DZ BR",,,,,,,,,,,,,,,,,,,,,,,,,,,,,,,,,,,,,,,,,,,,,,,,,,,,,,,,"SOD73524 HR PRECIPITATION (IN): 0.37  24 HR SNOWFALL (IN):0.0  WEATHER(CODE):1  24 HR MAX TEMP (F): 7824 HR MIN TEMP (F): 67AVERAGE STATION PRESSURE:29.615 MINIMUM SEA LEVEL PRESSURE:29.99 TIME OF OCCURRENCE:2105 PEAK WIND SPEED (MPH): 23 PEAK WIND DIR (DEG):130 PEAK WIND TIME (LST):      FASTEST 2MIN SPEED (MPH): 16FASTEST 2MIN DIR (DEG):130 FASTEST 2MIN TIME (LST):     AVERAGE WIND SPEED (MPH): 8.3 24 HR AVG TEMP (F): 73DEPART FROM NORMAL:  2  HEATING DEGREE DAYS:  0 COOLING DEGREE DAYS:  8 LATEST DAY MAX TEMP (0700-1900 LST):78  LATEST NIGHT MIN TEMP(1900-0800 LST):67 HOURLY INCREMENTAL PRECIPITATION VALUES (IN):.00 0.00 0.00 0.00 0.00 0.00 0.00 0.00 T    0.01 0.00 0.00 T    0.02 0.09 0.03 0.06 0.01 0.00 0.04 T    0.00 0.02 0.09","SOD  ","6",,,,,,,,,,,,,,,,,,,,,,,,,"0502","1923",,"2009-07-08"
"72306013722","2020-05-28T00:31:00","FM-16","7",,,,,,,,,,,,,,,,,,,,,,,,,,,,,,,,,,,,,,"30.02","72","73",,,,,"96",,"BKN:07 9 BKN:07 44 BKN:07 70","29.55","10.00","72","180",,"10",,,,,,,,,,,,,,,,,,,,,,,,,,,,,,,,,,,,,"MET10605/28/20 00:31:02 SPECI KRDU 280531Z 18009KT 10SM BKN009 BKN044 BKN070 23/22 A3002 RMK AO2 T02280222 (AWB)","FM-16","7",,,,,,,,,,,,,,,,,,,,,,,,,,,,"2009-07-08"
"72306013722","2020-05-28T00:51:00","FM-15","7",,,,,,,,,,,,,,,,,,,,,,,,,,,,,,,,,,,,,,"30.02","72","73","0.00",,"-0.01","1","96","30.01","BKN:07 9 BKN:07 20 BKN:07 44","29.55","10.00","72","170",,"10",,,,,,,,,,,,,,,,,,,,,,,,,,,,,,,,,,,,,"MET13705/28/20 00:51:02 METAR KRDU 280551Z 17009KT 10SM BKN009 BKN020 BKN044 23/22 A3002 RMK AO2 SLP161 60015 T02280222 10233 20228 51003 (AWB)","FM-15","7",,,,,,,,,,,,,,,,,,,,,,,,,,,,"2009-07-08"
"72306013722","2020-05-28T01:00:00","FM-12","4",,,,,,,,,,,,,,,,,,,,,,,,,,,,,,,,,,,,,,,"72","73",,,"-0.01","1","96","30.01","8","29.56","9.94","72","170",,"10",,,,,,,,,,,,,,,,,,,,,,,,,,,,,,,,,,,,,"SYN08672306 12366 61709 10228 20222 30010 40161 51003 60041 90551 333 10233 20194 555 92806=","FM-12","4",,,,,,,,,,,,,,,,,,,,,,,,,,,,"2009-07-08"
"72306013722","2020-05-28T01:51:00","FM-15","7",,,,,,,,,,,,,,,,,,,,,,,,,,,,,,,,,,,,,,"30.01","71","73","0.01","-RA:02 BR:1 |RA |RA",,,"94","30.00","FEW:02 7 BKN:07 11 OVC:08 31","29.54","3.00","72","190",,"9",,,,,,,,,,,,,,,,,,,,,,,,,,,,,,,,,,,,,"MET14105/28/20 01:51:02 METAR KRDU 280651Z 19008KT 3SM -RA BR FEW007 BKN011 OVC031 23/22 A3001 RMK AO2 TWR VIS 4 RAB47 SLP159 P0001 T02280217 (AWB)","FM-15","7",,,,,,,,,,,,,,,,,,,,,,,,,,,,"2009-07-08"
"72306013722","2020-05-28T02:51:00","FM-15","7",,,,,,,,,,,,,,,,,,,,,,,,,,,,,,,,,,,,,,"30.03","71","72","T",,,,"97","30.02","SCT:04 6 BKN:07 11 OVC:08 31","29.56","10.00","71","230",,"8",,,,,,,,,,,,,,,,,,,,,,,,,,,,,,,,,,,,,"MET12505/28/20 02:51:02 METAR KRDU 280751Z 23007KT 10SM SCT006 BKN011 OVC031 22/22 A3003 RMK AO2 RAE48 SLP165 P0000 T02220217 (AWB)","FM-15","7",,,,,,,,,,,,,,,,,,,,,,,,,,,,"2009-07-08"
"72306013722","2020-05-28T03:19:00","FM-16","7",,,,,,,,,,,,,,,,,,,,,,,,,,,,,,,,,,,,,,"30.04","71","72","T","-DZ:01 |DZ |DZ",,,"97",,"BKN:07 8 BKN:07 15 OVC:08 31","29.57","8.00","71","210",,"8",,,,,,,,,,,,,,,,,,,,,,,,,,,,,,,,,,,,,"MET12105/28/20 03:19:02 SPECI KRDU 280819Z 21007KT 8SM -DZ BKN008 BKN015 OVC031 22/22 A3004 RMK AO2 DZB18 P0000 T02220217 (AWB)","FM-16","7",,,,,,,,,,,,,,,,,,,,,,,,,,,,"2009-07-08"
"72306013722","2020-05-28T03:51:00","FM-15","7",,,,,,,,,,,,,,,,,,,,,,,,,,,,,,,,,,,,,,"30.04","71","72","0.02","-RA:02 BR:1 |RA |RA","-0.02","3","97","30.03","BKN:07 8 BKN:07 15 OVC:08 35","29.57","2.00","71","240",,"6",,,,,,,,,,,,,,,,,,,,,,,,,,,,,,,,,,,,,"MET17405/28/20 03:51:02 METAR KRDU 280851Z 24005KT 2SM -RA BR BKN008 BKN015 OVC035 22/22 A3004 RMK AO2 TWR VIS 4 DZB18E31RAB31 SLP169 BKN008 V SCT P0001 60002 T02220217 53007 (AWB)","FM-15","7",,,,,,,,,,,,,,,,,,,,,,,,,,,,"2009-07-08"
"72306013722","2020-05-28T04:17:00","FM-16","7",,,,,,,,,,,,,,,,,,,,,,,,,,,,,,,,,,,,,,"30.05","70","71","0.02","-DZ:01 BR:1 |DZ |DZ",,,"96",,"FEW:02 4 BKN:07 7 OVC:08 12","29.58","5.00","70","240",,"9",,,,,,,,,,,,,,,,,,,,,,,,,,,,,,,,,,,,,"MET13905/28/20 04:17:02 SPECI KRDU 280917Z 24008KT 5SM -DZ BR FEW004 BKN007 OVC012 22/21 A3005 RMK AO2 RAE17DZB17 BKN V SCT P0002 T02170211 (AWB)","FM-16","7",,,,,,,,,,,,,,,,,,,,,,,,,,,,"2009-07-08"
"72306013722","2020-05-28T04:42:00","FM-16","7",,,,,,,,,,,,,,,,,,,,,,,,,,,,,,,,,,,,,,"30.05","70","70","0.02","-RA:02 BR:1 |RA |RA",,,"100",,"FEW:02 4 BKN:07 17 OVC:08 50","29.58","5.00","70","220",,"3",,,,,,,,,,,,,,,,,,,,,,,,,,,,,,,,,,,,,"MET14505/28/20 04:42:02 SPECI KRDU 280942Z 22003KT 5SM -RA BR FEW004 BKN017 OVC050 21/21 A3005 RMK AO2 SFC VIS 5 RAE17B34DZB17E34 P0002 T02110211 (AWB)","FM-16","7",,,,,,,,,,,,,,,,,,,,,,,,,,,,"2009-07-08"
"72306013722","2020-05-28T04:51:00","FM-15","7",,,,,,,,,,,,,,,,,,,,,,,,,,,,,,,,,,,,,,"30.05","70","70","0.10","-RA:02 BR:1 |RA |RA",,,"100","30.04","FEW:02 4 BKN:07 14 OVC:08 50","29.58","5.00","70","220",,"5",,,,,,,,,,,,,,,,,,,,,,,,,,,,,,,,,,,,,"MET14205/28/20 04:51:02 METAR KRDU 280951Z 22004KT 5SM -RA BR FEW004 BKN014 OVC050 21/21 A3005 RMK AO2 RAE17B34DZB17E34 SLP174 P0003 T02110211 (AWB)","FM-15","7",,,,,,,,,,,,,,,,,,,,,,,,,,,,"2009-07-08"
"72306013722","2020-05-28T04:54:00","FM-16","7",,,,,,,,,,,,,,,,,,,,,,,,,,,,,,,,,,,,,,"30.05","70","70","T","RA:02 BR:1 |RA |RA",,,"100",,"FEW:02 4 BKN:07 14 OVC:08 50","29.58","1.00","70","200",,"6",,,,,,,,,,,,,,,,,,,,,,,,,,,,,,,,,,,,,"MET11705/28/20 04:54:02 SPECI KRDU 280954Z 20005KT 1SM RA BR FEW004 BKN014 OVC050 21/21 A3005 RMK AO2 P0000 T02110211 (AWB)","FM-16","7",,,,,,,,,,,,,,,,,,,,,,,,,,,,"2009-07-08"
"72306013722","2020-05-28T05:39:00","FM-16","7",,,,,,,,,,,,,,,,,,,,,,,,,,,,,,,,,,,,,,"30.07","70","70","0.53","-RA:02 |RA |RA",,,"100",,"FEW:02 4 SCT:04 14 OVC:08 45","29.60","3.00","70","000",,"0",,,,,,,,,,,,,,,,,,,,,,,,,,,,,,,,,,,,,"MET12505/28/20 05:39:02 SPECI KRDU 281039Z 00000KT 3SM -RA FEW004 SCT014 OVC045 21/21 A3007 RMK AO2 SFC VIS 8 P0053 T02110211 (AWB)","FM-16","7",,,,,,,,,,,,,,,,,,,,,,,,,,,,"2009-07-08"
"72306013722","2020-05-28T05:51:00","FM-15","7",,,,,,,,,,,,,,,,,,,,,,,,,,,,,,,,,,,,,,"30.07","70","71","0.45",,,,"96","30.05","SCT:04 4 SCT:04 14 OVC:08 45","29.60","3.00","70","000",,"0",,,,,,,,,,,,,,,,,,,,,,,,,,,,,,,,,,,,,"MET13405/28/20 05:51:02 METAR KRDU 281051Z 00000KT 3SM SCT004 SCT014 OVC045 22/21 A3007 RMK AO2 SFC VIS 8 RAE41 SLP177 P0053 T02170211 (AWB)","FM-15","7",,,,,,,,,,,,,,,,,,,,,,,,,,,,"2009-07-08"
"72306013722","2020-05-28T06:15:00","FM-16","7",,,,,,,,,,,,,,,,,,,,,,,,,,,,,,,,,,,,,,"30.08","70","71",,,,,"96",,"BKN:07 4 BKN:07 14 OVC:08 50","29.61","3.00","70","250",,"5",,,,,,,,,,,,,,,,,,,,,,,,,,,,,,,,,,,,,"MET11505/28/20 06:15:02 SPECI KRDU 281115Z 25004KT 3SM BKN004 BKN014 OVC050 22/21 A3008 RMK AO2 SFC VIS 8 T02170211 (KAH)","FM-16","7",,,,,,,,,,,,,,,,,,,,,,,,,,,,"2009-07-08"
"72306013722","2020-05-28T06:51:00","FM-15","7",,,,,,,,,,,,,,,,,,,,,,,,,,,,,,,,,,,,,,"30.09","70","71","0.02","-RA:02 BR:1 |RA |RA","-0.05","3","96","30.08","BKN:07 4 OVC:08 15","29.62","2.00","70","220",,"3",,,,,,,,,,,,,,,,,,,,,,,,,,,,,,,,,,,,,"MET16405/28/20 06:51:02 METAR KRDU 281151Z 22003KT 2SM -RA BR BKN004 OVC015 22/21 A3009 RMK AO2 TWR VIS 3 RAB50 SLP185 P0000 60058 70095 T02170211 10228 20211 53016 (KAH)","FM-15","7",,,,,,,,,,,,,,,,,,,,,,,,,,,,"2009-07-08"
"72306013722","2020-05-28T07:00:00","FM-12","4",,,,,,,,,,,,,,,,,,,,,,,,,,,,,,,,,,,,,,,"70","71",,"||RA","-0.05","3","96","30.08","5","29.63","1.99","70","220",,"3",,,,,,,,,,,,,,,,,,,,,,,,,,,,,,,,,,,,,"SYN10472306 11232 82203 10217 20211 30033 40185 53016 60151 761// 91151 333 10256 20211 70241 96010 555 92812=","FM-12","4",,,,,,,,,,,,,,,,,,,,,,,,,,,,"2009-07-08"
"72306013722","2020-05-28T07:51:00","FM-15","7",,,,,,,,,,,,,,,,,,,,,,,,,,,,,,,,,,,,,,"30.10","71","72","T","-RA:02 BR:1 |RA |RA",,,"97","30.09","BKN:07 4 OVC:08 10","29.63","2.50","71","230",,"7",,,,,,,,,,,,,,,,,,,,,,,,,,,,,,,,,,,,,"MET13905/28/20 07:51:02 METAR KRDU 281251Z 23006KT 2 1/2SM -RA BR BKN004 OVC010 22/22 A3010 RMK AO2 RAE22B51DZB22E51 SLP188 P0002 T02220217 (KAH)","FM-15","7",,,,,,,,,,,,,,,,,,,,,,,,,,,,"2009-07-08"
"72306013722","2020-05-28T08:21:00","FM-16","7",,,,,,,,,,,,,,,,,,,,,,,,,,,,,,,,,,,,,,"30.10","71","72","T","BR:1 ||",,,"97",,"BKN:07 4 OVC:08 10","29.63","3.00","71","230",,"6",,,,,,,,,,,,,,,,,,,,,,,,,,,,,,,,,,,,,"MET11305/28/20 08:21:02 SPECI KRDU 281321Z 23005KT 3SM BR BKN004 OVC010 22/22 A3010 RMK AO2 RAE20 P0000 T02220217 (KAH)","FM-16","7",,,,,,,,,,,,,,,,,,,,,,,,,,,,"2009-07-08"
"72306013722","2020-05-28T08:51:00","FM-15","7",,,,,,,,,,,,,,,,,,,,,,,,,,,,,,,,,,,,,,"30.09","72","74","T","BR:1 ||",,,"94","30.08","BKN:07 4 OVC:08 10","29.62","3.00","73","210",,"8",,,,,,,,,,,,,,,,,,,,,,,,,,,,,,,,,,,,,"MET12005/28/20 08:51:02 METAR KRDU 281351Z 21007KT 3SM BR BKN004 OVC010 23/22 A3009 RMK AO2 RAE20 SLP186 P0000 T02330222 (KAH)","FM-15","7",,,,,,,,,,,,,,,,,,,,,,,,,,,,"2009-07-08"
"72306013722","2020-05-28T09:26:00","FM-16","7",,,,,,,,,,,,,,,,,,,,,,,,,,,,,,,,,,,,,,"30.10","73","74",,"BR:1 ||",,,"97",,"BKN:07 5 OVC:08 12","29.63","6.00","73","220",,"5",,,,,,,,,,,,,,,,,,,,,,,,,,,,,,,,,,,,,"MET10105/28/20 09:26:02 SPECI KRDU 281426Z 22004KT 6SM BR BKN005 OVC012 23/23 A3010 RMK AO2 T02330228 (KAH)","FM-16","7",,,,,,,,,,,,,,,,,,,,,,,,,,,,"2009-07-08"
"72306013722","2020-05-28T09:51:00","FM-15","7",,,,,,,,,,,,,,,,,,,,,,,,,,,,,,,,,,,,,,"30.10","74","76","0.00",,"-0.01","1","94","30.09","BKN:07 6 OVC:08 16","29.63","7.00","75","230",,"6",,,,,,,,,,,,,,,,,,,,,,,,,,,,,,,,,,,,,"MET11705/28/20 09:51:02 METAR KRDU 281451Z 23005KT 7SM BKN006 OVC016 24/23 A3010 RMK AO2 SLP188 60002 T02440233 51003 (KAH)","FM-15","7",,,,,,,,,,,,,,,,,,,,,,,,,,,,"2009-07-08"
"72306013722","2020-05-28T10:28:00","FM-16","7",,,,,,,,,,,,,,,,,,,,,,,,,,,,,,,,,,,,,,"30.10","73","77",,,,,"88",,"SCT:04 7 BKN:07 24 BKN:07 55","29.63","10.00","74","240",,"9",,,,,,,,,,,,,,,,,,,,,,,,,,,,,,,,,,,,,"MET10605/28/20 10:28:02 SPECI KRDU 281528Z 24008KT 10SM SCT007 BKN024 BKN055 25/23 A3010 RMK AO2 T02500228 (KAH)","FM-16","7",,,,,,,,,,,,,,,,,,,,,,,,,,,,"2009-07-08"
"72306013722","2020-05-28T10:51:00","FM-15","7",,,,,,,,,,,,,,,,,,,,,,,,,,,,,,,,,,,,,,"30.10","73","78","0.00",,,,"85","30.09","BKN:07 12 BKN:07 25 BKN:07 60","29.63","10.00","75","240",,"10",,,,,,,,,,,,,,,,,,,,,,,,,,,,,,,,,,,,,"MET11305/28/20 10:51:02 METAR KRDU 281551Z 24009KT 10SM BKN012 BKN025 BKN060 26/23 A3010 RMK AO2 SLP189 T02560228 (KAH)","FM-15","7",,,,,,,,,,,,,,,,,,,,,,,,,,,,"2009-07-08"
"72306013722","2020-05-28T11:30:00","FM-16","7",,,,,,,,,,,,,,,,,,,,,,,,,,,,,,,,,,,,,,"30.10","73","78","T","|RA |",,,"85",,"SCT:04 12 BKN:07 25 BKN:07 65","29.63","7.00","75","250",,"5",,,,,,,,,,,,,,,,,,,,,,,,,,,,,,,,,,,,,"MET12105/28/20 11:30:02 SPECI KRDU 281630Z 25004KT 7SM -RA SCT012 BKN025 BKN065 26/23 A3010 RMK AO2 RAB25 P0000 T02560228 (KAH)","FM-16","7",,,,,,,,,,,,,,,,,,,,,,,,,,,,"2009-07-08"
"72306013722","2020-05-28T11:51:00","FM-15","7",,,,,,,,,,,,,,,,,,,,,,,,,,,,,,,,,,,,,,"30.09","74","80","T",,,,"82","30.08","SCT:04 12 BKN:07 25 BKN:07 40","29.62","10.00","76","240",,"3",,,,,,,,,,,,,,,,,,,,,,,,,,,,,,,,,,,,,"MET13805/28/20 11:51:02 METAR KRDU 281651Z 24003KT 10SM SCT012 BKN025 BKN040 27/23 A3009 RMK AO2 RAB25E46 SLP186 SCT V BKN P0000 T02670233 (KAH)","FM-15","7",,,,,,,,,,,,,,,,,,,,,,,,,,,,"2009-07-08"
"72306013722","2020-05-28T12:51:00","FM-15","7",,,,,,,,,,,,,,,,,,,,,,,,,,,,,,,,,,,,,,"30.09","74","79","0.07",,"+0.01","8","85","30.08","SCT:04 12 BKN:07 32","29.62","10.00","76","VRB",,"3",,,,,,,,,,,,,,,,,,,,,,,,,,,,,,,,,,,,,"MET16205/28/20 12:51:02 METAR KRDU 281751Z VRB03KT 10SM SCT012TCU BKN032 BKN 26/23 A3009 RMK AO2 RAB16E46 SLP185 TCU ALQDS P0007 60009 T02610233 10267 20217 58004 (KAH)","FM-15","7",,,,,,,,,,,,,,,,,,,,,,,,,,,,"2009-07-08"
"72306013722","2020-05-28T13:00:00","FM-12","4",,,,,,,,,,,,,,,,,,,,,,,,,,,,,,,,,,,,,,,"74","79",,,"+0.01","8","85","30.08","15","29.63","9.94","76",,,"3",,,,,,,,,,,,,,,,,,,,,,,,,,,,,,,,,,,,,"SYN08672306 12466 6//03 10261 20233 30033 40185 58004 60021 91751 333 10267 20217 555 92818=","FM-12","4",,,,,,,,,,,,,,,,,,,,,,,,,,,,"2009-07-08"
"72306013722","2020-05-28T13:51:00","FM-15","7",,,,,,,,,,,,,,,,,,,,,,,,,,,,,,,,,,,,,,"30.07","75","83","0.00",,,,"77","30.06","SCT:04 16 SCT:04 45","29.60","10.00","77","220",,"6",,,,,,,,,,,,,,,,,,,,,,,,,,,,,,,,,,,,,"MET13805/28/20 13:51:02 METAR KRDU 281851Z 22005KT 10SM SCT016TCU SCT045 BKN 28/24 A3007 RMK AO2 SLP178 CB DSNT E-SE TCU E AND S T02830239 (JBA)","FM-15","7",,,,,,,,,,,,,,,,,,,,,,,,,,,,"2009-07-08"
"72306013722","2020-05-28T14:51:00","FM-15","7",,,,,,,,,,,,,,,,,,,,,,,,,,,,,,,,,,,,,,"30.05","74","83","0.00",,,,"74","30.04","SCT:04 22 SCT:04 45","29.58","10.00","77","150",,"6",,,,,,,,,,,,,,,,,,,,,,,,,,,,,,,,,,,,,"MET14805/28/20 14:51:02 METAR KRDU 281951Z 15005KT 10SM SCT022CB SCT045 BKN0 28/23 A3005 RMK AO2 SLP172 CB E AND SW-W MOV NE AND DSNT NE-E T02830233 (JBA)","FM-15","7",,,,,,,,,,,,,,,,,,,,,,,,,,,,"2009-07-08"
"72306013722","2020-05-28T15:51:00","FM-15","7",,,,,,,,,,,,,,,,,,,,,,,,,,,,,,,,,,,,,,"30.05","74","80","0.00",,"+0.04","6","82","30.03","SCT:04 22 BKN:07 45","29.58","10.00","76","120",,"11",,,,,,,,,,,,,,,,,,,,,,,,,,,,,,,,,,,,,"MET16205/28/20 15:51:02 METAR KRDU 282051Z 12010KT 10SM SCT022TCU BKN045 BKN 27/23 A3005 RMK AO2 SLP171 CB DSNT S-SW TCU NE AND SE-SW AND DSNT W T02670233 56014 $ (JBA)","FM-15","7",,,,,,,,,,,,,,,,,,,,,,,,,,,,"2009-07-08"
"72306013722","2020-05-28T16:51:00","FM-15","7",,,,,,,,,,,,,,,,,,,,,,,,,,,,,,,,,,,,,,"30.06","74","78","0.00",,,,"87","30.05","FEW:02 22 SCT:04 45","29.59","10.00","75","150",,"6",,,,,,,,,,,,,,,,,,,,,,,,,,,,,,,,,,,,,"MET14605/28/20 16:51:02 METAR KRDU 282151Z 15005KT 10SM FEW022CB SCT045 SCT0 26/23 A3006 RMK AO2 SLP175 CB NW MOV NE AND DSNT SE-SW-NW T02560233 $ (JBA)","FM-15","7",,,,,,,,,,,,,,,,,,,,,,,,,,,,"2009-07-08"
"72306013722","2020-05-28T17:51:00","FM-15","7",,,,,,,,,,,,,,,,,,,,,,,,,,,,,,,,,,,,,,"30.05","73","78","T","TS:7 -RA:02 |RA TS TS |RA",,,"85","30.04","FEW:02 22 BKN:07 55 OVC:08 250","29.58","10.00","75","140",,"7",,,,,,,,,,,,,,,,,,,,,,,,,,,,,,,,,,,,,"MET19005/28/20 17:51:02 METAR KRDU 282251Z 14006KT 10SM -TSRA FEW022CB BKN055 OVC250 26/23 A3005 RMK AO2 RAB50 TSB50 SLP172 OCNL LTGCC OHD TS OHD MOV NE CB DSNT SE AND NW-N P0000 T02560228 $ (JBA)","FM-15","7",,,,,,,,,,,,,,,,,,,,,,,,,,,,"2009-07-08"
"72306013722","2020-05-28T18:07:00","FM-16","7",,,,,,,,,,,,,,,,,,,,,,,,,,,,,,,,,,,,,,"30.05","73","77","T","|RA |RA",,,"88",,"FEW:02 22 FEW:02 55 BKN:07 140","29.58","5.00","74","VRB",,"5",,,,,,,,,,,,,,,,,,,,,,,,,,,,,,,,,,,,,"MET13705/28/20 18:07:02 SPECI KRDU 282307Z VRB04KT 5SM -RA BR FEW022 FEW055 BKN140 25/23 A3005 RMK AO2 TSE06 CB DSNT NW P0000 T02500228 $ (JBA)","FM-16","7",,,,,,,,,,,,,,,,,,,,,,,,,,,,"2009-07-08"
"72306013722","2020-05-28T18:51:00","FM-15","7",,,,,,,,,,,,,,,,,,,,,,,,,,,,,,,,,,,,,,"30.06","74","76","0.06",,"-0.01","1","94","30.04","FEW:02 22 FEW:02 40 BKN:07 140","29.59","7.00","75","170",,"5",,,,,,,,,,,,,,,,,,,,,,,,,,,,,,,,,,,,,"MET15605/28/20 18:51:02 METAR KRDU 282351Z 17004KT 7SM FEW022 FEW040 BKN140 24/23 A3006 RMK AO2 RAE51 TSE06 SLP174 P0006 60006 T02440233 10294 20244 51003 $ (JBA)","FM-15","7",,,,,,,,,,,,,,,,,,,,,,,,,,,,"2009-07-08"
"72306013722","2020-05-28T19:00:00","FM-12","4",,,,,,,,,,,,,,,,,,,,,,,,,,,,,,,,,,,,,,,"74","76",,,"-0.01","1","94","30.04","26","29.60","6.84","75","170",,"5",,,,,,,,,,,,,,,,,,,,,,,,,,,,,,,,,,,,,"SYN08672306 12561 81704 10244 20233 30023 40174 51003 60021 92351 333 10294 20211 555 92900=","FM-12","4",,,,,,,,,,,,,,,,,,,,,,,,,,,,"2009-07-08"
"72306013722","2020-05-28T19:51:00","FM-15","7",,,,,,,,,,,,,,,,,,,,,,,,,,,,,,,,,,,,,,"30.04","73","75","0.00",,,,"94","30.02","FEW:02 14 FEW:02 40 OVC:08 250","29.57","10.00","74","160",,"6",,,,,,,,,,,,,,,,,,,,,,,,,,,,,,,,,,,,,"MET10905/28/20 19:51:01 METAR KRDU 290051Z 16005KT 10SM FEW014 FEW040 OVC250 24/23 A3004 RMK AO2 SLP167 T02390228 $","FM-15","7",,,,,,,,,,,,,,,,,,,,,,,,,,,,"2009-07-08"
"72306013722","2020-05-28T20:51:00","FM-15","7",,,,,,,,,,,,,,,,,,,,,,,,,,,,,,,,,,,,,,"30.06","72","74","0.00",,,,"94","30.04","OVC:08 250","29.59","10.00","73","150",,"6",,,,,,,,,,,,,,,,,,,,,,,,,,,,,,,,,,,,,"MET09505/28/20 20:51:01 METAR KRDU 290151Z 15005KT 10SM OVC250 23/22 A3006 RMK AO2 SLP174 T02330222 $","FM-15","7",,,,,,,,,,,,,,,,,,,,,,,,,,,,"2009-07-08"
"72306013722","2020-05-28T21:51:00","FM-15","7",,,,,,,,,,,,,,,,,,,,,,,,,,,,,,,,,,,,,,"30.07","70","72","0.00",,"-0.01","3","94","30.05","OVC:08 250","29.60","10.00","71","140",,"7",,,,,,,,,,,,,,,,,,,,,,,,,,,,,,,,,,,,,"MET10105/28/20 21:51:01 METAR KRDU 290251Z 14006KT 10SM OVC250 22/21 A3007 RMK AO2 SLP177 T02220211 53003 $","FM-15","7",,,,,,,,,,,,,,,,,,,,,,,,,,,,"2009-07-08"
"72306013722","2020-05-28T22:21:00","FM-16","7",,,,,,,,,,,,,,,,,,,,,,,,,,,,,,,,,,,,,,"30.07","70","72",,,,,"94",,"FEW:02 8 FEW:02 19 OVC:08 250","29.60","10.00","71","150",,"5",,,,,,,,,,,,,,,,,,,,,,,,,,,,,,,,,,,,,"MET10205/28/20 22:21:01 SPECI KRDU 290321Z 15004KT 10SM FEW008 FEW019 OVC250 22/21 A3007 RMK AO2 T02220211 $","FM-16","7",,,,,,,,,,,,,,,,,,,,,,,,,,,,"2009-07-08"
"72306013722","2020-05-28T22:51:00","FM-15","7",,,,,,,,,,,,,,,,,,,,,,,,,,,,,,,,,,,,,,"30.07","70","72","0.00",,,,"94","30.06","FEW:02 8 FEW:02 19 FEW:02 110","29.60","10.00","71","150",,"6",,,,,,,,,,,,,,,,,,,,,,,,,,,,,,,,,,,,,"MET10905/28/20 22:51:02 METAR KRDU 290351Z 15005KT 10SM FEW008 FEW019 FEW110 22/21 A3007 RMK AO2 SLP178 T02220211 $","FM-15","7",,,,,,,,,,,,,,,,,,,,,,,,,,,,"2009-07-08"
"72306013722","2020-05-28T23:07:00","FM-16","7",,,,,,,,,,,,,,,,,,,,,,,,,,,,,,,,,,,,,,"30.07","70","72",,,,,"94",,"FEW:02 8 BKN:07 17 OVC:08 250","29.60","10.00","71","140",,"6",,,,,,,,,,,,,,,,,,,,,,,,,,,,,,,,,,,,,"MET10205/28/20 23:07:02 SPECI KRDU 290407Z 14005KT 10SM FEW008 BKN017 OVC250 22/21 A3007 RMK AO2 T02220211 $","FM-16","7",,,,,,,,,,,,,,,,,,,,,,,,,,,,"2009-07-08"
"72306013722","2020-05-28T23:51:00","FM-15","7",,,,,,,,,,,,,,,,,,,,,,,,,,,,,,,,,,,,,,"30.07","71","72","0.00",,,,"97","30.05","FEW:02 8 OVC:08 13","29.60","10.00","71","150",,"8",,,,,,,,,,,,,,,,,,,,,,,,,,,,,,,,,,,,,"MET11205/28/20 23:51:02 METAR KRDU 290451Z 15007KT 10SM FEW008 OVC013 22/22 A3007 RMK AO2 SLP177 T02220217 402940211 $","FM-15","7",,,,,,,,,,,,,,,,,,,,,,,,,,,,"2009-07-08"
"72306013722","2020-05-28T23:59:00","SOD  ","6",,,,,,,,,,,,,,,"72","78","91","30.05","29.59","73","6.4","13","6.6","0","85","70","190","23","0.73","0","0.0","170","15","TS RA DZ BR",,,,,,,,,,,,,,,,,,,,,,,,,,,,,,,,,,,,,,,,,,,,,,,,,,,,,,,,"SOD73624 HR PRECIPITATION (IN): 0.73  24 HR SNOWFALL (IN):0.0  WEATHER(CODE):13  24 HR MAX TEMP (F): 8524 HR MIN TEMP (F): 70AVERAGE STATION PRESSURE:29.590 MINIMUM SEA LEVEL PRESSURE:30.00 TIME OF OCCURRENCE:0218 PEAK WIND SPEED (MPH): 23 PEAK WIND DIR (DEG):190 PEAK WIND TIME (LST):      FASTEST 2MIN SPEED (MPH): 15FASTEST 2MIN DIR (DEG):170 FASTEST 2MIN TIME (LST):     AVERAGE WIND SPEED (MPH): 6.4 24 HR AVG TEMP (F): 78DEPART FROM NORMAL:  7  HEATING DEGREE DAYS:  0 COOLING DEGREE DAYS: 13 LATEST DAY MAX TEMP (0700-1900 LST):85  LATEST NIGHT MIN TEMP(1900-0800 LST):70 HOURLY INCREMENTAL PRECIPITATION VALUES (IN):.00 0.01 T    0.02 0.10 0.45 0.02 T    T    0.00 0.00 T    0.07 0.00 0.00 0.00 0.00 T    0.06 0.00 0.00 0.00 0.00 0.00","SOD  ","6",,,,,,,,,,,,,,,,,,,,,,,,,"0501","1924",,"2009-07-08"
"72306013722","2020-05-29T00:51:00","FM-15","7",,,,,,,,,,,,,,,,,,,,,,,,,,,,,,,,,,,,,,"30.05","71","73","0.00",,"+0.01","8","94","30.03","BKN:07 7 OVC:08 13","29.58","8.00","72","170",,"8",,,,,,,,,,,,,,,,,,,,,,,,,,,,,,,,,,,,,"MET12505/29/20 00:51:02 METAR KRDU 290551Z 17007KT 8SM BKN007 OVC013 23/22 A3005 RMK AO2 SLP171 T02280217 10244 20222 58005 $ (AWB)","FM-15","7",,,,,,,,,,,,,,,,,,,,,,,,,,,,"2009-07-08"
"72306013722","2020-05-29T01:00:00","FM-12","4",,,,,,,,,,,,,,,,,,,,,,,,,,,,,,,,,,,,,,,"71","73",,,"+0.01","8","94","30.03","8","29.59","7.46","72","170",,"8",,,,,,,,,,,,,,,,,,,,,,,,,,,,,,,,,,,,,"SYN08072306 32362 81707 10228 20217 30020 40171 58005 90551 333 10244 20211 555 92906=","FM-12","4",,,,,,,,,,,,,,,,,,,,,,,,,,,,"2009-07-08"
"72306013722","2020-05-29T01:51:00","FM-15","7",,,,,,,,,,,,,,,,,,,,,,,,,,,,,,,,,,,,,,"30.07","71","73","0.00",,,,"94","30.06","SCT:04 8 BKN:07 13 OVC:08 250","29.60","10.00","72","200",,"9",,,,,,,,,,,,,,,,,,,,,,,,,,,,,,,,,,,,,"MET11505/29/20 01:51:02 METAR KRDU 290651Z 20008KT 10SM SCT008 BKN013 OVC250 23/22 A3007 RMK AO2 SLP178 T02280217 $ (AWB)","FM-15","7",,,,,,,,,,,,,,,,,,,,,,,,,,,,"2009-07-08"
"72306013722","2020-05-29T02:51:00","FM-15","7",,,,,,,,,,,,,,,,,,,,,,,,,,,,,,,,,,,,,,"30.07","71","73","0.00",,,,"94","30.05","FEW:02 7 BKN:07 11 OVC:08 250","29.60","10.00","72","200",,"9",,,,,,,,,,,,,,,,,,,,,,,,,,,,,,,,,,,,,"MET11505/29/20 02:51:02 METAR KRDU 290751Z 20008KT 10SM FEW007 BKN011 OVC250 23/22 A3007 RMK AO2 SLP177 T02280217 $ (AWB)","FM-15","7",,,,,,,,,,,,,,,,,,,,,,,,,,,,"2009-07-08"
"72306013722","2020-05-29T03:51:00","FM-15","7",,,,,,,,,,,,,,,,,,,,,,,,,,,,,,,,,,,,,,"30.07","72","74","0.00",,"-0.01","0","94","30.05","BKN:07 9 BKN:07 15 OVC:08 40","29.60","10.00","73","200",,"7",,,,,,,,,,,,,,,,,,,,,,,,,,,,,,,,,,,,,"MET14005/29/20 03:51:02 METAR KRDU 290851Z 20006KT 10SM BKN009 BKN015 OVC040 23/22 A3007 RMK AO2 SLP176 OCNL LTG DSNT SW-W T02330222 50005 $ (AWB)","FM-15","7",,,,,,,,,,,,,,,,,,,,,,,,,,,,"2009-07-08"
"72306013722","2020-05-29T04:05:00","FM-16","7",,,,,,,,,,,,,,,,,,,,,,,,,,,,,,,,,,,,,,"30.06","72","74","T","TS:7 -RA:02 |RA TS TS |RA",,,"94",,"BKN:07 9 BKN:07 15 OVC:08 40","29.59","8.00","73","200",,"9",,,,,,,,,,,,,,,,,,,,,,,,,,,,,,,,,,,,,"MET16205/29/20 04:05:02 SPECI KRDU 290905Z 20008KT 8SM -TSRA BKN009CB BKN015 OVC040 23/22 A3006 RMK AO2 RAB02 TSB05 OCNL LTGICCG SW TS SW MOV NE P0000 T02330222 $ (AWB)","FM-16","7",,,,,,,,,,,,,,,,,,,,,,,,,,,,"2009-07-08"
"72306013722","2020-05-29T04:25:00","FM-16","7",,,,,,,,,,,,,,,,,,,,,,,,,,,,,,,,,,,,,,"30.06","72","74","T","TS:7 +RA:02 BR:1 |RA TS |RA",,,"94",,"SCT:04 9 BKN:07 14 OVC:08 40","29.59","2.00","73","190",,"7",,,,,,,,,,,,,,,,,,,,,,,,,,,,,,,,,,,,,"MET16705/29/20 04:25:02 SPECI KRDU 290925Z 19006KT 2SM +TSRA BR SCT009CB BKN014 OVC040 23/22 A3006 RMK AO2 RAB02 TSB05 OCNL LTGICCG S-W TS S-W MOV NE P0000 T02330222 $ (AWB)","FM-16","7",,,,,,,,,,,,,,,,,,,,,,,,,,,,"2009-07-08"
"72306013722","2020-05-29T04:38:00","FM-16","7",,,,,,,,,,,,,,,,,,,,,,,,,,,,,,,,,,,,,,"30.07","71","73","0.09","TS:7 RA:02 BR:1 |RA TS |RA",,,"94",,"FEW:02 3 BKN:07 20 OVC:08 100","29.60","2.00","72","210",,"16",,,,,,,,,,,,,,,,,,,,,,,,,,,,,,,,,,,,,"MET17705/29/20 04:38:02 SPECI KRDU 290938Z 21014KT 2SM TSRA BR FEW003 BKN020CB OVC100 23/22 A3007 RMK AO2 RAB02 TSB05 FRQ LTGICCG OHD-ALQDS TS OHD-ALQDS MOV NE P0009 T02280217 $ (AWB)","FM-16","7",,,,,,,,,,,,,,,,,,,,,,,,,,,,"2009-07-08"
"72306013722","2020-05-29T04:51:00","FM-15","7",,,,,,,,,,,,,,,,,,,,,,,,,,,,,,,,,,,,,,"30.06","71","72","0.18","TS:7 RA:02 BR:1 |RA TS |RA",,,"97","30.05","FEW:02 3 SCT:04 40 OVC:08 100","29.59","4.00","71","190",,"9",,,,,,,,,,,,,,,,,,,,,,,,,,,,,,,,,,,,,"MET17605/29/20 04:51:02 METAR KRDU 290951Z 19008KT 4SM TSRA BR FEW003 SCT040CB OVC100 22/22 A3006 RMK AO2 RAB02 TSB05 SLP176 FRQ LTGICCG ALQDS TS ALQDS MOV NE P0017 T02220217 $ (AWB)","FM-15","7",,,,,,,,,,,,,,,,,,,,,,,,,,,,"2009-07-08"
"72306013722","2020-05-29T05:13:00","FM-16","7",,,,,,,,,,,,,,,,,,,,,,,,,,,,,,,,,,,,,,"30.08","70","71","0.03","TS:7 RA:02 BR:1 |RA TS |RA",,,"96",,"FEW:02 3 SCT:04 40 OVC:08 110","29.61","2.00","70","200",,"10",,,,,,,,,,,,,,,,,,,,,,,,,,,,,,,,,,,,,"MET15305/29/20 05:13:02 SPECI KRDU 291013Z 20009KT 2SM TSRA BR FEW003 SCT040CB OVC110 22/21 A3008 RMK AO2 FRQ LTGICCG SE-S TS SE-S MOV NE P0003 T02170211 (AWB)","FM-16","7",,,,,,,,,,,,,,,,,,,,,,,,,,,,"2009-07-08"
"72306013722","2020-05-29T05:23:00","FM-16","7",,,,,,,,,,,,,,,,,,,,,,,,,,,,,,,,,,,,,,"30.08","70","71","0.16","TS:7 |TS TS |",,,"96",,"FEW:02 3 SCT:04 20","29.61","7.00","70","160",,"5",,,,,,,,,,,,,,,,,,,,,,,,,,,,,,,,,,,,,"MET15205/29/20 05:23:02 SPECI KRDU 291023Z 16004KT 7SM TS FEW003 SCT020CB BKN0 22/21 A3008 RMK AO2 RAE22 FRQ LTGICCG E-SE TS E-SE MOV NE P0016 T02170211 (AWB)","FM-16","7",,,,,,,,,,,,,,,,,,,,,,,,,,,,"2009-07-08"
"72306013722","2020-05-29T05:51:00","FM-15","7",,,,,,,,,,,,,,,,,,,,,,,,,,,,,,,,,,,,,,"30.08","70","71","0.15",,,,"96","30.06","FEW:02 3 BKN:07 22 BKN:07 70","29.61","10.00","70","240",,"6",,,,,,,,,,,,,,,,,,,,,,,,,,,,,,,,,,,,,"MET15805/29/20 05:51:02 METAR KRDU 291051Z 24005KT 10SM FEW003 BKN022 BKN070 22/21 A3008 RMK AO2 RAE22B37E48 TSE50 SLP180 OCNL LTG DSNT NE-E-S P0016 T02170211 (AWB)","FM-15","7",,,,,,,,,,,,,,,,,,,,,,,,,,,,"2009-07-08"
"72306013722","2020-05-29T06:51:00","FM-15","7",,,,,,,,,,,,,,,,,,,,,,,,,,,,,,,,,,,,,,"30.08","71","72","0.00",,"-0.02","3","97","30.07","FEW:02 3 BKN:07 10 BKN:07 80","29.61","10.00","71","000",,"0",,,,,,,,,,,,,,,,,,,,,,,,,,,,,,,,,,,,,"MET14305/29/20 06:51:02 METAR KRDU 291151Z 00000KT 10SM FEW003 BKN010 BKN080 22/22 A3008 RMK AO2 SLP182 60033 70048 T02220217 10233 20217 53006 (KAH)","FM-15","7",,,,,,,,,,,,,,,,,,,,,,,,,,,,"2009-07-08"
"72306013722","2020-05-29T07:00:00","FM-12","4",,,,,,,,,,,,,,,,,,,,,,,,,,,,,,,,,,,,,,,"71","72",,,"-0.02","3","97","30.07","2","29.62","9.94","71","000",,"0",,,,,,,,,,,,,,,,,,,,,,,,,,,,,,,,,,,,,"SYN09272306 12166 80000 10222 20217 30030 40182 53006 60081 91151 333 10294 20217 70122 555 92912=","FM-12","4",,,,,,,,,,,,,,,,,,,,,,,,,,,,"2009-07-08"
"72306013722","2020-05-29T07:46:00","FM-16","7",,,,,,,,,,,,,,,,,,,,,,,,,,,,,,,,,,,,,,"30.09","73","73","0.01","-RA:02 BR:1 |RA |RA",,,"100",,"BKN:07 5 BKN:07 25 BKN:07 60","29.62","6.00","73","210",,"6",,,,,,,,,,,,,,,,,,,,,,,,,,,,,,,,,,,,,"MET11405/29/20 07:46:02 SPECI KRDU 291246Z 21005KT 6SM -RA BR BKN005 BKN025 BKN060 23/23 A3009 RMK AO2 RAB17 P0001 (KAH)","FM-16","7",,,,,,,,,,,,,,,,,,,,,,,,,,,,"2009-07-08"
"72306013722","2020-05-29T07:51:00","FM-15","7",,,,,,,,,,,,,,,,,,,,,,,,,,,,,,,,,,,,,,"30.10","73","74","0.01","-RA:02 BR:1 |RA |RA",,,"97","30.08","BKN:07 5 BKN:07 25 BKN:07 60","29.63","6.00","73","200",,"5",,,,,,,,,,,,,,,,,,,,,,,,,,,,,,,,,,,,,"MET13105/29/20 07:51:02 METAR KRDU 291251Z 20004KT 6SM -RA BR BKN005 BKN025 BKN060 23/23 A3010 RMK AO2 RAB17 SLP186 P0001 T02330228 (KAH)","FM-15","7",,,,,,,,,,,,,,,,,,,,,,,,,,,,"2009-07-08"
"72306013722","2020-05-29T08:51:00","FM-15","7",,,,,,,,,,,,,,,,,,,,,,,,,,,,,,,,,,,,,,"30.08","73","74","0.04","-RA:02 BR:1 |RA |RA",,,"97","30.07","BKN:07 5 BKN:07 70 OVC:08 110","29.61","3.00","73","180",,"6",,,,,,,,,,,,,,,,,,,,,,,,,,,,,,,,,,,,,"MET12505/29/20 08:51:02 METAR KRDU 291351Z 18005KT 3SM -RA BR BKN005 BKN070 OVC110 23/23 A3008 RMK AO2 SLP183 P0004 T02330228 (KAH)","FM-15","7",,,,,,,,,,,,,,,,,,,,,,,,,,,,"2009-07-08"
"72306013722","2020-05-29T09:51:00","FM-15","7",,,,,,,,,,,,,,,,,,,,,,,,,,,,,,,,,,,,,,"30.07","74","77","T",,"+0.01","8","90","30.06","BKN:07 6 BKN:07 18 BKN:07 110","29.60","10.00","75","240",,"10",,,,,,,,,,,,,,,,,,,,,,,,,,,,,,,,,,,,,"MET13705/29/20 09:51:02 METAR KRDU 291451Z 24009KT 10SM BKN006 BKN018 BKN110 25/23 A3007 RMK AO2 RAE24 SLP179 P0000 60005 T02500233 58004 (KAH)","FM-15","7",,,,,,,,,,,,,,,,,,,,,,,,,,,,"2009-07-08"
"72306013722","2020-05-29T10:51:00","FM-15","7",,,,,,,,,,,,,,,,,,,,,,,,,,,,,,,,,,,,,,"30.06","73","76","0.01","-RA:02 |RA |RA",,,"91","30.05","SCT:04 7 BKN:07 18 OVC:08 110","29.59","7.00","74","210",,"6",,,,,,,,,,,,,,,,,,,,,,,,,,,,,,,,,,,,,"MET12805/29/20 10:51:02 METAR KRDU 291551Z 21005KT 7SM -RA SCT007 BKN018 OVC110 24/23 A3006 RMK AO2 RAB39 SLP175 P0001 T02440228 (KAH)","FM-15","7",,,,,,,,,,,,,,,,,,,,,,,,,,,,"2009-07-08"
"72306013722","2020-05-29T11:51:00","FM-15","7",,,,,,,,,,,,,,,,,,,,,,,,,,,,,,,,,,,,,,"30.06","73","78","T",,,,"85","30.04","SCT:04 10 BKN:07 18 BKN:07 95","29.59","10.00","75","230",,"6",,,,,,,,,,,,,,,,,,,,,,,,,,,,,,,,,,,,,"MET12505/29/20 11:51:02 METAR KRDU 291651Z 23005KT 10SM SCT010 BKN018 BKN095 26/23 A3006 RMK AO2 RAE39 SLP174 P0000 T02560228 (KAH)","FM-15","7",,,,,,,,,,,,,,,,,,,,,,,,,,,,"2009-07-08"
"72306013722","2020-05-29T12:19:00","FM-16","7",,,,,,,,,,,,,,,,,,,,,,,,,,,,,,,,,,,,,,"30.05","73","78",,,,,"85",,"BKN:07 10 BKN:07 25 BKN:07 95","29.58","10.00","75","230",,"7",,,,,,,,,,,,,,,,,,,,,,,,,,,,,,,,,,,,,"MET10605/29/20 12:19:02 SPECI KRDU 291719Z 23006KT 10SM BKN010 BKN025 BKN095 26/23 A3005 RMK AO2 T02560228 (KAH)","FM-16","7",,,,,,,,,,,,,,,,,,,,,,,,,,,,"2009-07-08"
"72306013722","2020-05-29T12:51:00","FM-15","7",,,,,,,,,,,,,,,,,,,,,,,,,,,,,,,,,,,,,,"30.05","73","79","0.00",,"+0.03","8","82","30.03","SCT:04 12 BKN:07 25 BKN:07 90","29.58","10.00","75","250",,"6",,,,,,,,,,,,,,,,,,,,,,,,,,,,,,,,,,,,,"MET13705/29/20 12:51:02 METAR KRDU 291751Z 25005KT 10SM SCT012 BKN025 BKN090 26/23 A3005 RMK AO2 SLP169 60006 T02610228 10261 20222 58009 (KAH)","FM-15","7",,,,,,,,,,,,,,,,,,,,,,,,,,,,"2009-07-08"
"72306013722","2020-05-29T13:00:00","FM-12","4",,,,,,,,,,,,,,,,,,,,,,,,,,,,,,,,,,,,,,,"73","79",,,"+0.03","8","82","30.03","15","29.59","9.94","75","250",,"6",,,,,,,,,,,,,,,,,,,,,,,,,,,,,,,,,,,,,"SYN08672306 12466 62505 10261 20228 30020 40169 58009 60021 91751 333 10261 20222 555 92918=","FM-12","4",,,,,,,,,,,,,,,,,,,,,,,,,,,,"2009-07-08"
"72306013722","2020-05-29T13:51:00","FM-15","7",,,,,,,,,,,,,,,,,,,,,,,,,,,,,,,,,,,,,,"30.04","72","81","0.00",,,,"74","30.02","BKN:07 16 BKN:07 110 BKN:07 160","29.57","10.00","75","240",,"7",,,,,,,,,,,,,,,,,,,,,,,,,,,,,,,,,,,,,"MET12305/29/20 13:51:02 METAR KRDU 291851Z 24006KT 10SM BKN016 BKN110 BKN160 27/22 A3004 RMK AO2 SLP166 CB DSNT W T02720222 (KAH)","FM-15","7",,,,,,,,,,,,,,,,,,,,,,,,,,,,"2009-07-08"
"72306013722","2020-05-29T14:20:00","FM-16","7",,,,,,,,,,,,,,,,,,,,,,,,,,,,,,,,,,,,,,"30.04","73","78","T","-RA:02 BR:1 |RA |RA",,,"85",,"BKN:07 16 BKN:07 45 OVC:08 110","29.57","2.50","75","000",,"0",,,,,,,,,,,,,,,,,,,,,,,,,,,,,,,,,,,,,"MET14805/29/20 14:20:02 SPECI KRDU 291920Z 00000KT 2 1/2SM -RA BR BKN016CB BKN045 OVC110 26/23 A3004 RMK AO2 RAB20 CB N-OHD-S MOV NE P0000 T02560228 (JBA)","FM-16","7",,,,,,,,,,,,,,,,,,,,,,,,,,,,"2009-07-08"
"72306013722","2020-05-29T14:26:00","FM-16","7",,,,,,,,,,,,,,,,,,,,,,,,,,,,,,,,,,,,,,"30.05","72","75","0.02","|RA |",,,"90",,,,"1.00",,"260","23","11",,,,,,,,,,,,,,,,,,,,,,,,,,,,,,,,,,,,,"MET06105/29/20 14:26:02 SPECI KRDU 291926Z 26010G20KT 1SM RVRNO RMK","FM-16","7",,,,,,,,,,,,,,,,,,,,,,,,,,,,"2009-07-08"
"72306013722","2020-05-29T14:35:00","FM-16","7",,,,,,,,,,,,,,,,,,,,,,,,,,,,,,,,,,,,,,"30.05","69","71","0.16","+RA:02 BR:1 |RA |RA",,,"94",,"BKN:07 16 BKN:07 45 OVC:08 110","29.58","2.00","70","VRB","16","5",,,,,,,,,,,,,,,,,,,,,,,,,,,,,,,,,,,,,"MET14305/29/20 14:35:02 SPECI KRDU 291935Z VRB04G14KT 2SM +RA BR BKN016CB BKN045 OVC110 22/21 A3005 RMK AO2 RAB20 CB OHD MOV NE P0016 T02170206 (JBA)","FM-16","7",,,,,,,,,,,,,,,,,,,,,,,,,,,,"2009-07-08"
"72306013722","2020-05-29T14:41:00","FM-16","7",,,,,,,,,,,,,,,,,,,,,,,,,,,,,,,,,,,,,,"30.05","69","70","0.24","RA:02 BR:1 |RA |RA",,,"97",,"FEW:02 6 SCT:04 16 OVC:08 45","29.58","3.00","69","200",,"13",,,,,,,,,,,,,,,,,,,,,,,,,,,,,,,,,,,,,"MET13905/29/20 14:41:02 SPECI KRDU 291941Z 20011KT 3SM RA BR FEW006 SCT016CB OVC045 21/21 A3005 RMK AO2 RAB20 CB OHD MOV NE P0024 T02110206 (JBA)","FM-16","7",,,,,,,,,,,,,,,,,,,,,,,,,,,,"2009-07-08"
"72306013722","2020-05-29T14:47:00","FM-16","7",,,,,,,,,,,,,,,,,,,,,,,,,,,,,,,,,,,,,,"30.05","66","72","0.25","TS:7 -RA:02 BR:1 |RA TS |RA",,,"83",,"FEW:02 6 SCT:04 16","29.58","5.00","68","120","18","6",,,,,,,,,,,,,,,,,,,,,,,,,,,,,,,,,,,,,"MET15805/29/20 14:47:02 SPECI KRDU 291947Z 12005G16KT 5SM -TSRA BR FEW006 SCT016CB BKN0 22/19 A3005 RMK AO2 RAB20 TSB44 OCNL LTGCC NE-SE TS NE-SE MOV NE P0025 (JBA)","FM-16","7",,,,,,,,,,,,,,,,,,,,,,,,,,,,"2009-07-08"
"72306013722","2020-05-29T14:51:00","FM-15","7",,,,,,,,,,,,,,,,,,,,,,,,,,,,,,,,,,,,,,"30.05","67","72","0.27","TS:7 -RA:02 BR:1 |RA TS |RA",,,"84","30.04","FEW:02 6 SCT:04 16","29.58","5.00","69","160","18","7",,,,,,,,,,,,,,,,,,,,,,,,,,,,,,,,,,,,,"MET17405/29/20 14:51:02 METAR KRDU 291951Z 16006G16KT 5SM -TSRA BR FEW006 SCT016CB BKN0 22/19 A3005 RMK AO2 RAB20 TSB44 SLP172 OCNL LTGCC NE-SE TS NE-SE MOV E P0025 T02220194 (JBA)","FM-15","7",,,,,,,,,,,,,,,,,,,,,,,,,,,,"2009-07-08"
"72306013722","2020-05-29T15:07:00","FM-16","7",,,,,,,,,,,,,,,,,,,,,,,,,,,,,,,,,,,,,,"30.04","69","71","0.03","-RA:02 BR:1 |RA |RA",,,"94",,"FEW:02 6 SCT:04 16","29.57","5.00","70","VRB",,"5",,,,,,,,,,,,,,,,,,,,,,,,,,,,,,,,,,,,,"MET13505/29/20 15:07:02 SPECI KRDU 292007Z VRB04KT 5SM -RA BR FEW006 SCT016CB BKN0 22/21 A3004 RMK AO2 TSE07 CB E MOV E P0003 T02170206 (JBA)","FM-16","7",,,,,,,,,,,,,,,,,,,,,,,,,,,,"2009-07-08"
"72306013722","2020-05-29T15:51:00","FM-15","7",,,,,,,,,,,,,,,,,,,,,,,,,,,,,,,,,,,,,,"30.03","68","70","0.10","-RA:02 |RA |RA","+0.00","8","93","30.02","BKN:07 85 OVC:08 120","29.56","7.00","69","140",,"9",,,,,,,,,,,,,,,,,,,,,,,,,,,,,,,,,,,,,"MET13305/29/20 15:51:02 METAR KRDU 292051Z 14008KT 7SM -RA BKN085 OVC120 21/20 A3003 RMK AO2 TSE07 SLP167 P0009 60034 T02110200 58001 (JBA)","FM-15","7",,,,,,,,,,,,,,,,,,,,,,,,,,,,"2009-07-08"
"72306013722","2020-05-29T16:51:00","FM-15","7",,,,,,,,,,,,,,,,,,,,,,,,,,,,,,,,,,,,,,"30.01","69","72","0.02",,,,"91","29.99","FEW:02 85 BKN:07 120 BKN:07 250","29.54","10.00","70","140",,"8",,,,,,,,,,,,,,,,,,,,,,,,,,,,,,,,,,,,,"MET12505/29/20 16:51:02 METAR KRDU 292151Z 14007KT 10SM FEW085 BKN120 BKN250 22/21 A3001 RMK AO2 RAE48 SLP157 P0005 T02220206 (JBA)","FM-15","7",,,,,,,,,,,,,,,,,,,,,,,,,,,,"2009-07-08"
"72306013722","2020-05-29T17:51:00","FM-15","7",,,,,,,,,,,,,,,,,,,,,,,,,,,,,,,,,,,,,,"30.00","69","72","0.00",,,,"91","29.99","FEW:02 10 FEW:02 85 BKN:07 120","29.53","10.00","70","180",,"8",,,,,,,,,,,,,,,,,,,,,,,,,,,,,,,,,,,,,"MET11305/29/20 17:51:02 METAR KRDU 292251Z 18007KT 10SM FEW010 FEW085 BKN120 22/21 A3000 RMK AO2 SLP156 T02220206 (JBA)","FM-15","7",,,,,,,,,,,,,,,,,,,,,,,,,,,,"2009-07-08"
"72306013722","2020-05-29T18:51:00","FM-15","7",,,,,,,,,,,,,,,,,,,,,,,,,,,,,,,,,,,,,,"30.02","69","71","0.00",,"+0.01","5","94","30.01","FEW:02 10 SCT:04 140 BKN:07 250","29.55","10.00","70","210",,"5",,,,,,,,,,,,,,,,,,,,,,,,,,,,,,,,,,,,,"MET13705/29/20 18:51:02 METAR KRDU 292351Z 21004KT 10SM FEW010 SCT140 BKN250 22/21 A3002 RMK AO2 SLP162 60039 T02170206 10272 20211 55005 (JBA)","FM-15","7",,,,,,,,,,,,,,,,,,,,,,,,,,,,"2009-07-08"
"72306013722","2020-05-29T19:00:00","FM-12","4",,,,,,,,,,,,,,,,,,,,,,,,,,,,,,,,,,,,,,,"69","71",,,"+0.01","5","94","30.01","15","29.56","9.94","70","210",,"5",,,,,,,,,,,,,,,,,,,,,,,,,,,,,,,,,,,,,"SYN08672306 12466 62104 10217 20206 30010 40162 55005 60101 92351 333 10272 20211 555 93000=","FM-12","4",,,,,,,,,,,,,,,,,,,,,,,,,,,,"2009-07-08"
"72306013722","2020-05-29T19:51:00","FM-15","7",,,,,,,,,,,,,,,,,,,,,,,,,,,,,,,,,,,,,,"30.04","68","70","T","-RA:02 |RA |RA",,,"93","30.03","FEW:02 10 BKN:07 120 OVC:08 250","29.57","10.00","69","230",,"7",,,,,,,,,,,,,,,,,,,,,,,,,,,,,,,,,,,,,"MET12905/29/20 19:51:03 METAR KRDU 300051Z 23006KT 10SM -RA FEW010 BKN120 OVC250 21/20 A3004 RMK AO2 RAB47 SLP170 P0000 T02110200 (JBA)","FM-15","7",,,,,,,,,,,,,,,,,,,,,,,,,,,,"2009-07-08"
"72306013722","2020-05-29T20:51:00","FM-15","7",,,,,,,,,,,,,,,,,,,,,,,,,,,,,,,,,,,,,,"30.04","68","69","T",,,,"96","30.03","FEW:02 10 BKN:07 120 BKN:07 250","29.57","10.00","68","220",,"3",,,,,,,,,,,,,,,,,,,,,,,,,,,,,,,,,,,,,"MET12505/29/20 20:51:03 METAR KRDU 300151Z 22003KT 10SM FEW010 BKN120 BKN250 21/20 A3004 RMK AO2 RAE08 SLP168 P0000 T02060200 (JBA)","FM-15","7",,,,,,,,,,,,,,,,,,,,,,,,,,,,"2009-07-08"
"72306013722","2020-05-29T21:51:00","FM-15","7",,,,,,,,,,,,,,,,,,,,,,,,,,,,,,,,,,,,,,"30.03","68","69","0.00",,"-0.01","0","96","30.02","SCT:04 10 SCT:04 120 BKN:07 250","29.56","10.00","68","250",,"3",,,,,,,,,,,,,,,,,,,,,,,,,,,,,,,,,,,,,"MET12505/29/20 21:51:03 METAR KRDU 300251Z 25003KT 10SM SCT010 SCT120 BKN250 21/20 A3003 RMK AO2 SLP166 60000 T02060200 50005 (JBA)","FM-15","7",,,,,,,,,,,,,,,,,,,,,,,,,,,,"2009-07-08"
"72306013722","2020-05-29T22:48:00","FM-16","7",,,,,,,,,,,,,,,,,,,,,,,,,,,,,,,,,,,,,,"30.02","70","70",,,,,"100",,"SCT:04 7 OVC:08 11","29.55","10.00","70","210",,"6",,,,,,,,,,,,,,,,,,,,,,,,,,,,,,,,,,,,,"MET08905/29/20 22:48:03 SPECI KRDU 300348Z 21005KT 10SM SCT007 OVC011 21/21 A3002 RMK AO2 (SMK)","FM-16","7",,,,,,,,,,,,,,,,,,,,,,,,,,,,"2009-07-08"
"72306013722","2020-05-29T22:51:00","FM-15","7",,,,,,,,,,,,,,,,,,,,,,,,,,,,,,,,,,,,,,"30.02","69","70","0.00",,,,"97","30.01","SCT:04 7 OVC:08 11","29.55","10.00","69","230",,"5",,,,,,,,,,,,,,,,,,,,,,,,,,,,,,,,,,,,,"MET10605/29/20 22:51:03 METAR KRDU 300351Z 23004KT 10SM SCT007 OVC011 21/21 A3002 RMK AO2 SLP161 T02110206 (SMK)","FM-15","7",,,,,,,,,,,,,,,,,,,,,,,,,,,,"2009-07-08"
"72306013722","2020-05-29T23:36:00","FM-16","7",,,,,,,,,,,,,,,,,,,,,,,,,,,,,,,,,,,,,,"30.02","69","70",,,,,"97",,"BKN:07 7 OVC:08 11","29.55","10.00","69","220",,"9",,,,,,,,,,,,,,,,,,,,,,,,,,,,,,,,,,,,,"MET09905/29/20 23:36:03 SPECI KRDU 300436Z 22008KT 10SM BKN007 OVC011 21/21 A3002 RMK AO2 T02110206 (SMK)","FM-16","7",,,,,,,,,,,,,,,,,,,,,,,,,,,,"2009-07-08"
"72306013722","2020-05-29T23:51:00","FM-15","7",,,,,,,,,,,,,,,,,,,,,,,,,,,,,,,,,,,,,,"30.02","69","70","0.00",,,,"97","30.01","BKN:07 7 OVC:08 11","29.55","10.00","69","220",,"9",,,,,,,,,,,,,,,,,,,,,,,,,,,,,,,,,,,,,"MET11605/29/20 23:51:03 METAR KRDU 300451Z 22008KT 10SM BKN007 OVC011 21/21 A3002 RMK AO2 SLP162 T02110206 402720206 (SMK)","FM-15","7",,,,,,,,,,,,,,,,,,,,,,,,,,,,"2009-07-08"
"72306013722","2020-05-29T23:59:00","SOD  ","6",,,,,,,,,,,,,,,"71","75","92","30.04","29.58","71","6.6","10","3.3","0","81","69","240","23","0.78","0","0.0","210","17","TS RA BR",,,,,,,,,,,,,,,,,,,,,,,,,,,,,,,,,,,,,,,,,,,,,,,,,,,,,,,,"SOD76124 HR PRECIPITATION (IN): 0.78 SNOW DEPTH (IN):0     24 HR SNOWFALL (IN):0.0  WEATHER(CODE):13  24 HR MAX TEMP (F): 8124 HR MIN TEMP (F): 69AVERAGE STATION PRESSURE(D):29.581 MINIMUM SEA LEVEL PRESSURE:29.99 TIME OF OCCURRENCE:1833 PEAK WIND SPEED (MPH): 23 PEAK WIND DIR (DEG):240 PEAK WIND TIME (LST):      FASTEST 2MIN SPEED (MPH): 17FASTEST 2MIN DIR (DEG):210 FASTEST 2MIN TIME (LST):     AVERAGE WIND SPEED (MPH): 6.6 24 HR AVG TEMP (F): 75DEPART FROM NORMAL:  3  HEATING DEGREE DAYS:  0 COOLING DEGREE DAYS: 10 LATEST DAY MAX TEMP (0700-1900 LST): 81 LATEST NIGHT MIN TEMP(1900-0800 LST):71 HOURLY INCREMENTAL PRECIPITATION VALUES (IN):0.00 0.00 0.00 0.00 0.18 0.15 0.00 0.01 0.04T     0.01T     0.00 0.00 0.27 0.10 0.02 0.00 0.00T    T     0.00 0.00 0.00","SOD  ","6",,,,,,,,,,,,,,,,,,,,,,,,,"0501","1925",,"2009-07-08"
"72306013722","2020-05-30T00:51:00","FM-15","7",,,,,,,,,,,,,,,,,,,,,,,,,,,,,,,,,,,,,,"30.01","69","70","0.00",,"+0.02","6","97","30.00","BKN:07 7 OVC:08 11","29.54","10.00","69","240",,"9",,,,,,,,,,,,,,,,,,,,,,,,,,,,,,,,,,,,,"MET13005/30/20 00:51:02 METAR KRDU 300551Z 24008KT 10SM BKN007 OVC011 21/21 A3001 RMK AO2 SLP159 60000 T02110206 10217 20206 56007 (SMK)","FM-15","7",,,,,,,,,,,,,,,,,,,,,,,,,,,,"2009-07-08"
"72306013722","2020-05-30T01:00:00","FM-12","4",,,,,,,,,,,,,,,,,,,,,,,,,,,,,,,,,,,,,,,"69","70",,,"+0.02","6","97","30.00","8","29.55","9.94","69","240",,"9",,,,,,,,,,,,,,,,,,,,,,,,,,,,,,,,,,,,,"SYN08672306 12366 82408 10211 20206 30007 40159 56007 69901 90551 333 10233 20206 555 93006=","FM-12","4",,,,,,,,,,,,,,,,,,,,,,,,,,,,"2009-07-08"
"72306013722","2020-05-30T01:51:00","FM-15","7",,,,,,,,,,,,,,,,,,,,,,,,,,,,,,,,,,,,,,"30.00","69","70","0.00",,,,"97","29.99","BKN:07 7 OVC:08 12","29.53","10.00","69","230",,"7",,,,,,,,,,,,,,,,,,,,,,,,,,,,,,,,,,,,,"MET10605/30/20 01:51:02 METAR KRDU 300651Z 23006KT 10SM BKN007 OVC012 21/21 A3000 RMK AO2 SLP155 T02110206 (SMK)","FM-15","7",,,,,,,,,,,,,,,,,,,,,,,,,,,,"2009-07-08"
"72306013722","2020-05-30T02:21:00","FM-16","7",,,,,,,,,,,,,,,,,,,,,,,,,,,,,,,,,,,,,,"30.00","69","70",,,,,"97",,"SCT:04 7 OVC:08 14","29.53","10.00","69","230",,"5",,,,,,,,,,,,,,,,,,,,,,,,,,,,,,,,,,,,,"MET09905/30/20 02:21:02 SPECI KRDU 300721Z 23004KT 10SM SCT007 OVC014 21/21 A3000 RMK AO2 T02110206 (SMK)","FM-16","7",,,,,,,,,,,,,,,,,,,,,,,,,,,,"2009-07-08"
"72306013722","2020-05-30T02:51:00","FM-15","7",,,,,,,,,,,,,,,,,,,,,,,,,,,,,,,,,,,,,,"29.99","69","70","0.00",,,,"97","29.98","FEW:02 7 OVC:08 14","29.52","10.00","69","230",,"6",,,,,,,,,,,,,,,,,,,,,,,,,,,,,,,,,,,,,"MET10605/30/20 02:51:02 METAR KRDU 300751Z 23005KT 10SM FEW007 OVC014 21/21 A2999 RMK AO2 SLP153 T02110206 (SMK)","FM-15","7",,,,,,,,,,,,,,,,,,,,,,,,,,,,"2009-07-08"
"72306013722","2020-05-30T03:51:00","FM-15","7",,,,,,,,,,,,,,,,,,,,,,,,,,,,,,,,,,,,,,"29.99","68","69","0.00",,"+0.02","6","96","29.98","FEW:02 7 BKN:07 13","29.52","10.00","68","220",,"8",,,,,,,,,,,,,,,,,,,,,,,,,,,,,,,,,,,,,"MET11205/30/20 03:51:02 METAR KRDU 300851Z 22007KT 10SM FEW007 BKN013 21/20 A2999 RMK AO2 SLP152 T02060200 56007 (SMK)","FM-15","7",,,,,,,,,,,,,,,,,,,,,,,,,,,,"2009-07-08"
"72306013722","2020-05-30T04:06:00","FM-16","7",,,,,,,,,,,,,,,,,,,,,,,,,,,,,,,,,,,,,,"29.99","68","69",,,,,"96",,"SCT:04 13 BKN:07 120 OVC:08 250","29.52","10.00","68","240",,"5",,,,,,,,,,,,,,,,,,,,,,,,,,,,,,,,,,,,,"MET10605/30/20 04:06:02 SPECI KRDU 300906Z 24004KT 10SM SCT013 BKN120 OVC250 21/20 A2999 RMK AO2 T02060200 (SMK)","FM-16","7",,,,,,,,,,,,,,,,,,,,,,,,,,,,"2009-07-08"
"72306013722","2020-05-30T04:51:00","FM-15","7",,,,,,,,,,,,,,,,,,,,,,,,,,,,,,,,,,,,,,"29.99","67","68","0.00",,,,"96","29.98","FEW:02 13 BKN:07 120 OVC:08 250","29.52","10.00","67","240",,"6",,,,,,,,,,,,,,,,,,,,,,,,,,,,,,,,,,,,,"MET11305/30/20 04:51:02 METAR KRDU 300951Z 24005KT 10SM FEW013 BKN120 OVC250 20/19 A2999 RMK AO2 SLP152 T02000194 (SMK)","FM-15","7",,,,,,,,,,,,,,,,,,,,,,,,,,,,"2009-07-08"
"72306013722","2020-05-30T05:51:00","FM-15","7",,,,,,,,,,,,,,,,,,,,,,,,,,,,,,,,,,,,,,"30.01","68","69","0.00",,,,"96","30.00","BKN:07 8 OVC:08 250","29.54","10.00","68","230",,"6",,,,,,,,,,,,,,,,,,,,,,,,,,,,,,,,,,,,,"MET10605/30/20 05:51:02 METAR KRDU 301051Z 23005KT 10SM BKN008 OVC250 21/20 A3001 RMK AO2 SLP158 T02060200 (SMK)","FM-15","7",,,,,,,,,,,,,,,,,,,,,,,,,,,,"2009-07-08"
"72306013722","2020-05-30T06:36:00","FM-16","7",,,,,,,,,,,,,,,,,,,,,,,,,,,,,,,,,,,,,,"30.01","69","70",,,,,"97",,"SCT:04 12 BKN:07 140 BKN:07 250","29.54","10.00","69","230",,"3",,,,,,,,,,,,,,,,,,,,,,,,,,,,,,,,,,,,,"MET10505/30/20 06:36:02 SPECI KRDU 301136Z 23003KT 10SM SCT012 BKN140 BKN250 21/21 A3001 RMK AO2 T02110206 (RP)","FM-16","7",,,,,,,,,,,,,,,,,,,,,,,,,,,,"2009-07-08"
"72306013722","2020-05-30T06:51:00","FM-15","7",,,,,,,,,,,,,,,,,,,,,,,,,,,,,,,,,,,,,,"30.01","69","70","0.00",,"-0.01","3","97","30.00","SCT:04 13 BKN:07 140 BKN:07 250","29.54","10.00","69","000",,"0",,,,,,,,,,,,,,,,,,,,,,,,,,,,,,,,,,,,,"MET13605/30/20 06:51:02 METAR KRDU 301151Z 00000KT 10SM SCT013 BKN140 BKN250 21/21 A3001 RMK AO2 SLP158 70045 T02110206 10211 20200 53005 (RP)","FM-15","7",,,,,,,,,,,,,,,,,,,,,,,,,,,,"2009-07-08"
"72306013722","2020-05-30T07:00:00","FM-12","4",,,,,,,,,,,,,,,,,,,,,,,,,,,,,,,,,,,,,,,"69","70",,,"-0.01","3","97","30.00","15","29.55","9.94","69","000",,"0",,,,,,,,,,,,,,,,,,,,,,,,,,,,,,,,,,,,,"SYN08672306 32466 60000 10211 20206 30007 40158 53005 91151 333 10272 20200 70114 555 93012=","FM-12","4",,,,,,,,,,,,,,,,,,,,,,,,,,,,"2009-07-08"
"72306013722","2020-05-30T07:51:00","FM-15","7",,,,,,,,,,,,,,,,,,,,,,,,,,,,,,,,,,,,,,"30.01","69","74","0.00",,,,"85","30.00","SCT:04 10 BKN:07 250","29.54","10.00","71","270",,"5",,,,,,,,,,,,,,,,,,,,,,,,,,,,,,,,,,,,,"MET10505/30/20 07:51:02 METAR KRDU 301251Z 27004KT 10SM SCT010 BKN250 23/21 A3001 RMK AO2 SLP159 T02330206 (RP)","FM-15","7",,,,,,,,,,,,,,,,,,,,,,,,,,,,"2009-07-08"
"72306013722","2020-05-30T08:51:00","FM-15","7",,,,,,,,,,,,,,,,,,,,,,,,,,,,,,,,,,,,,,"30.00","69","77","0.00",,,,"77","29.99","FEW:02 15 SCT:04 250","29.53","10.00","72","230",,"7",,,,,,,,,,,,,,,,,,,,,,,,,,,,,,,,,,,,,"MET10505/30/20 08:51:02 METAR KRDU 301351Z 23006KT 10SM FEW015 SCT250 25/21 A3000 RMK AO2 SLP155 T02500206 (RP)","FM-15","7",,,,,,,,,,,,,,,,,,,,,,,,,,,,"2009-07-08"
"72306013722","2020-05-30T09:51:00","FM-15","7",,,,,,,,,,,,,,,,,,,,,,,,,,,,,,,,,,,,,,"30.00","69","78","0.00",,"+0.01","8","74","29.98","SCT:04 22 SCT:04 250","29.53","10.00","72","010",,"3",,,,,,,,,,,,,,,,,,,,,,,,,,,,,,,,,,,,,"MET11105/30/20 09:51:02 METAR KRDU 301451Z 01003KT 10SM SCT022 SCT250 26/21 A3000 RMK AO2 SLP153 T02560206 58004 (RP)","FM-15","7",,,,,,,,,,,,,,,,,,,,,,,,,,,,"2009-07-08"
"72306013722","2020-05-30T10:51:00","FM-15","7",,,,,,,,,,,,,,,,,,,,,,,,,,,,,,,,,,,,,,"29.98","68","82","0.00",,,,"63","29.97","SCT:04 30 SCT:04 250","29.51","10.00","73","000",,"0",,,,,,,,,,,,,,,,,,,,,,,,,,,,,,,,,,,,,"MET10505/30/20 10:51:02 METAR KRDU 301551Z 00000KT 10SM SCT030 SCT250 28/20 A2998 RMK AO2 SLP148 T02780200 (RP)","FM-15","7",,,,,,,,,,,,,,,,,,,,,,,,,,,,"2009-07-08"
"72306013722","2020-05-30T11:51:00","FM-15","7",,,,,,,,,,,,,,,,,,,,,,,,,,,,,,,,,,,,,,"29.97","69","84","0.00",,,,"61","29.95","SCT:04 35","29.50","10.00","74","VRB",,"5",,,,,,,,,,,,,,,,,,,,,,,,,,,,,,,,,,,,,"MET10005/30/20 11:51:02 METAR KRDU 301651Z VRB04KT 10SM SCT035 29/21 A2997 RMK AO2 SLP142 T02890206 $ (RP)","FM-15","7",,,,,,,,,,,,,,,,,,,,,,,,,,,,"2009-07-08"
"72306013722","2020-05-30T12:51:00","FM-15","7",,,,,,,,,,,,,,,,,,,,,,,,,,,,,,,,,,,,,,"29.95","67","85","0.00",,"+0.04","7","55","29.94","BKN:07 45","29.48","10.00","73","000",,"0",,,,,,,,,,,,,,,,,,,,,,,,,,,,,,,,,,,,,"MET11805/30/20 12:51:02 METAR KRDU 301751Z 00000KT 10SM BKN045 29/19 A2995 RMK AO2 SLP138 T02940194 10294 20217 57015 $ (RP)","FM-15","7",,,,,,,,,,,,,,,,,,,,,,,,,,,,"2009-07-08"
"72306013722","2020-05-30T13:00:00","FM-12","4",,,,,,,,,,,,,,,,,,,,,,,,,,,,,,,,,,,,,,,"67","85",,,"+0.04","7","55","29.94","41","29.49","9.94","73","000",,"0",,,,,,,,,,,,,,,,,,,,,,,,,,,,,,,,,,,,,"SYN08072306 32666 60000 10294 20194 39986 40138 57015 91751 333 10294 20211 555 93018=","FM-12","4",,,,,,,,,,,,,,,,,,,,,,,,,,,,"2009-07-08"
"72306013722","2020-05-30T13:51:00","FM-15","7",,,,,,,,,,,,,,,,,,,,,,,,,,,,,,,,,,,,,,"29.94","69","87","0.00",,,,"55","29.92","BKN:07 45 BKN:07 85","29.47","10.00","75","VRB",,"6",,,,,,,,,,,,,,,,,,,,,,,,,,,,,,,,,,,,,"MET10705/30/20 13:51:02 METAR KRDU 301851Z VRB05KT 10SM BKN045 BKN085 31/21 A2994 RMK AO2 SLP132 T03060206 $ (RP)","FM-15","7",,,,,,,,,,,,,,,,,,,,,,,,,,,,"2009-07-08"
"72306013722","2020-05-30T14:51:00","FM-15","7",,,,,,,,,,,,,,,,,,,,,,,,,,,,,,,,,,,,,,"29.92","69","87","0.00",,,,"55","29.90","BKN:07 48 BKN:07 70","29.45","10.00","75","000",,"0",,,,,,,,,,,,,,,,,,,,,,,,,,,,,,,,,,,,,"MET10705/30/20 14:51:02 METAR KRDU 301951Z 00000KT 10SM BKN048 BKN070 31/21 A2992 RMK AO2 SLP125 T03060206 $ (HA)","FM-15","7",,,,,,,,,,,,,,,,,,,,,,,,,,,,"2009-07-08"
"72306013722","2020-05-30T15:51:00","FM-15","7",,,,,,,,,,,,,,,,,,,,,,,,,,,,,,,,,,,,,,"29.91","67","82","0.00",,"+0.04","6","60","29.89","SCT:04 55 BKN:07 100","29.44","10.00","72","000",,"0",,,,,,,,,,,,,,,,,,,,,,,,,,,,,,,,,,,,,"MET11305/30/20 15:51:02 METAR KRDU 302051Z 00000KT 10SM SCT055 BKN100 28/19 A2991 RMK AO2 SLP123 T02780194 56015 $ (HA)","FM-15","7",,,,,,,,,,,,,,,,,,,,,,,,,,,,"2009-07-08"
"72306013722","2020-05-30T16:51:00","FM-15","7",,,,,,,,,,,,,,,,,,,,,,,,,,,,,,,,,,,,,,"29.90","65","87","0.00",,,,"48","29.88","SCT:04 60 BKN:07 150","29.43","10.00","72","VRB",,"5",,,,,,,,,,,,,,,,,,,,,,,,,,,,,,,,,,,,,"MET11905/30/20 16:51:02 METAR KRDU 302151Z VRB04KT 10SM SCT060 BKN150 31/18 A2990 RMK AO2 SLP120 TCU DSNT NW T03060183 $ (HA)","FM-15","7",,,,,,,,,,,,,,,,,,,,,,,,,,,,"2009-07-08"
"72306013722","2020-05-30T17:51:00","FM-15","7",,,,,,,,,,,,,,,,,,,,,,,,,,,,,,,,,,,,,,"29.92","64","82","0.00",,,,"55","29.90","BKN:07 55 BKN:07 85","29.45","10.00","70","010",,"7",,,,,,,,,,,,,,,,,,,,,,,,,,,,,,,,,,,,,"MET11805/30/20 17:51:02 METAR KRDU 302251Z 01006KT 10SM BKN055 BKN085 28/18 A2992 RMK AO2 SLP126 TCU DSNT N T02780178 $ (HA)","FM-15","7",,,,,,,,,,,,,,,,,,,,,,,,,,,,"2009-07-08"
"72306013722","2020-05-30T18:51:00","FM-15","7",,,,,,,,,,,,,,,,,,,,,,,,,,,,,,,,,,,,,,"29.93","64","79","0.00",,"-0.02","3","60","29.91","BKN:07 65 BKN:07 150","29.46","10.00","69","030",,"5",,,,,,,,,,,,,,,,,,,,,,,,,,,,,,,,,,,,,"MET14105/30/20 18:51:02 METAR KRDU 302351Z 03004KT 10SM BKN065 BKN150 26/18 A2993 RMK AO2 SLP130 TCU DSNT E-SE-S T02610178 10311 20256 53008 $ (HA)","FM-15","7",,,,,,,,,,,,,,,,,,,,,,,,,,,,"2009-07-08"
"72306013722","2020-05-30T19:00:00","FM-12","4",,,,,,,,,,,,,,,,,,,,,,,,,,,,,,,,,,,,,,,"64","79",,,"-0.02","3","60","29.91","57","29.47","9.94","69","030",,"5",,,,,,,,,,,,,,,,,,,,,,,,,,,,,,,,,,,,,"SYN08072306 32766 60304 10261 20178 39980 40130 53008 92351 333 10311 20200 555 93100=","FM-12","4",,,,,,,,,,,,,,,,,,,,,,,,,,,,"2009-07-08"
"72306013722","2020-05-30T19:51:00","FM-15","7",,,,,,,,,,,,,,,,,,,,,,,,,,,,,,,,,,,,,,"29.94","66","74","0.00",,,,"76","29.93","BKN:07 65 BKN:07 75","29.47","10.00","69","000",,"0",,,,,,,,,,,,,,,,,,,,,,,,,,,,,,,,,,,,,"MET10705/30/20 19:51:03 METAR KRDU 310051Z 00000KT 10SM BKN065 BKN075 23/19 A2994 RMK AO2 SLP134 T02330189 $ (HA)","FM-15","7",,,,,,,,,,,,,,,,,,,,,,,,,,,,"2009-07-08"
"72306013722","2020-05-30T20:51:00","FM-15","7",,,,,,,,,,,,,,,,,,,,,,,,,,,,,,,,,,,,,,"29.96","67","75","0.00",,,,"76","29.95","BKN:07 70 BKN:07 90","29.49","10.00","70","000",,"0",,,,,,,,,,,,,,,,,,,,,,,,,,,,,,,,,,,,,"MET10705/30/20 20:51:03 METAR KRDU 310151Z 00000KT 10SM BKN070 BKN090 24/19 A2996 RMK AO2 SLP141 T02390194 $ (HA)","FM-15","7",,,,,,,,,,,,,,,,,,,,,,,,,,,,"2009-07-08"
"72306013722","2020-05-30T21:51:00","FM-15","7",,,,,,,,,,,,,,,,,,,,,,,,,,,,,,,,,,,,,,"29.98","63","76","0.00",,"-0.05","3","64","29.96","SCT:04 65 BKN:07 85","29.51","10.00","68","020",,"6",,,,,,,,,,,,,,,,,,,,,,,,,,,,,,,,,,,,,"MET11305/30/20 21:51:03 METAR KRDU 310251Z 02005KT 10SM SCT065 BKN085 24/17 A2998 RMK AO2 SLP146 T02440172 53016 $ (HA)","FM-15","7",,,,,,,,,,,,,,,,,,,,,,,,,,,,"2009-07-08"
"72306013722","2020-05-30T22:51:00","FM-15","7",,,,,,,,,,,,,,,,,,,,,,,,,,,,,,,,,,,,,,"29.98","61","72","0.00",,,,"68","29.97","SCT:04 65 BKN:07 90","29.51","10.00","65","040",,"3",,,,,,,,,,,,,,,,,,,,,,,,,,,,,,,,,,,,,"MET10805/30/20 22:51:03 METAR KRDU 310351Z 04003KT 10SM SCT065 BKN090 22/16 A2998 RMK AO2 SLP149 T02220161 $ (SMK)","FM-15","7",,,,,,,,,,,,,,,,,,,,,,,,,,,,"2009-07-08"
"72306013722","2020-05-30T23:51:00","FM-15","7",,,,,,,,,,,,,,,,,,,,,,,,,,,,,,,,,,,,,,"29.98","63","69","0.00",,,,"81","29.97","SCT:04 90 SCT:04 250","29.51","10.00","65","000",,"0",,,,,,,,,,,,,,,,,,,,,,,,,,,,,,,,,,,,,"MET11805/30/20 23:51:03 METAR KRDU 310451Z 00000KT 10SM SCT090 SCT250 21/17 A2998 RMK AO2 SLP149 T02060172 403110200 $ (SMK)","FM-15","7",,,,,,,,,,,,,,,,,,,,,,,,,,,,"2009-07-08"
"72306013722","2020-05-30T23:59:00","SOD  ","6",,,,,,,,,,,,,,,,"78",,,"29.50",,"3.8","13","6.0","0","88","68","310","16","0.00","0","0.0","040","10",,,,,,,,,,,,,,,,,,,,,,,,,,,,,,,,,,,,,,,,,,,,,,,,,,,,,,,,,"SOD73924 HR PRECIPITATION (IN): 0.00 SNOW DEPTH (IN):0     24 HR SNOWFALL (IN):0.0  24 HR MAX TEMP (F): 8824 HR MIN TEMP (F): 68AVERAGE STATION PRESSURE:29.500 MINIMUM SEA LEVEL PRESSURE:29.88 TIME OF OCCURRENCE:1717 PEAK WIND SPEED (MPH): 16 PEAK WIND DIR (DEG):310 PEAK WIND TIME (LST):      FASTEST 2MIN SPEED (MPH): 10FASTEST 2MIN DIR (DEG): 40 FASTEST 2MIN TIME (LST):     AVERAGE WIND SPEED (MPH): 3.8 24 HR AVG TEMP (F): 78DEPART FROM NORMAL:  6  HEATING DEGREE DAYS:  0 COOLING DEGREE DAYS: 13 LATEST DAY MAX TEMP (0700-1900 LST):88  LATEST NIGHT MIN TEMP(1900-0800 LST):68 HOURLY INCREMENTAL PRECIPITATION VALUES (IN):.00 0.00 0.00 0.00 0.00 0.00 0.00 0.00 0.00 0.00 0.00 0.00 0.00 0.00 0.00 0.00 0.00 0.00 0.00 0.00 0.00 0.00 0.00 0.00","SOD  ","6",,,,,,,,,,,,,,,,,,,,,,,,,"0500","1925",,"2009-07-08"
"72306013722","2020-05-31T00:51:00","FM-15","7",,,,,,,,,,,,,,,,,,,,,,,,,,,,,,,,,,,,,,"29.98","64","67","0.00",,"-0.01","1","91","29.97","FEW:02 90 FEW:02 250","29.51","10.00","65","340",,"3",,,,,,,,,,,,,,,,,,,,,,,,,,,,,,,,,,,,,"MET12605/31/20 00:51:02 METAR KRDU 310551Z 34003KT 10SM FEW090 FEW250 19/18 A2998 RMK AO2 SLP149 T01940178 10261 20189 51002 $ (SMK)","FM-15","7",,,,,,,,,,,,,,,,,,,,,,,,,,,,"2009-07-08"
"72306013722","2020-05-31T01:00:00","FM-12","4",,,,,,,,,,,,,,,,,,,,,,,,,,,,,,,,,,,,,,,"64","67",,,"-0.01","1","91","29.97",,"29.52","9.94","65","340",,"3",,,,,,,,,,,,,,,,,,,,,,,,,,,,,,,,,,,,,"SYN08072306 32966 23403 10194 20178 39996 40149 51002 90551 333 10261 20189 555 93106=","FM-12","4",,,,,,,,,,,,,,,,,,,,,,,,,,,,"2009-07-08"
"72306013722","2020-05-31T01:51:00","FM-15","7",,,,,,,,,,,,,,,,,,,,,,,,,,,,,,,,,,,,,,"29.98","62","67","0.00",,,,"84","29.97","FEW:02 90 FEW:02 250","29.51","10.00","64","340",,"5",,,,,,,,,,,,,,,,,,,,,,,,,,,,,,,,,,,,,"MET10805/31/20 01:51:02 METAR KRDU 310651Z 34004KT 10SM FEW090 FEW250 19/17 A2998 RMK AO2 SLP148 T01940167 $ (SMK)","FM-15","7",,,,,,,,,,,,,,,,,,,,,,,,,,,,"2009-07-08"
"72306013722","2020-05-31T02:51:00","FM-15","7",,,,,,,,,,,,,,,,,,,,,,,,,,,,,,,,,,,,,,"29.99","60","66","0.00",,,,"81","29.97","FEW:02 90 FEW:02 250","29.52","10.00","62","010",,"5",,,,,,,,,,,,,,,,,,,,,,,,,,,,,,,,,,,,,"MET10805/31/20 02:51:02 METAR KRDU 310751Z 01004KT 10SM FEW090 FEW250 19/16 A2999 RMK AO2 SLP150 T01890156 $ (SMK)","FM-15","7",,,,,,,,,,,,,,,,,,,,,,,,,,,,"2009-07-08"
"72306013722","2020-05-31T03:51:00","FM-15","7",,,,,,,,,,,,,,,,,,,,,,,,,,,,,,,,,,,,,,"30.01","57","65","0.00",,"-0.03","3","76","30.00","FEW:02 90 FEW:02 250","29.54","10.00","60","010",,"5",,,,,,,,,,,,,,,,,,,,,,,,,,,,,,,,,,,,,"MET11405/31/20 03:51:02 METAR KRDU 310851Z 01004KT 10SM FEW090 FEW250 18/14 A3001 RMK AO2 SLP158 T01830139 53009 $ (SMK)","FM-15","7",,,,,,,,,,,,,,,,,,,,,,,,,,,,"2009-07-08"
"72306013722","2020-05-31T04:51:00","FM-15","7",,,,,,,,,,,,,,,,,,,,,,,,,,,,,,,,,,,,,,"30.03","57","64","0.00",,,,"78","30.01","FEW:02 18 FEW:02 90 SCT:04 250","29.56","10.00","60","030",,"7",,,,,,,,,,,,,,,,,,,,,,,,,,,,,,,,,,,,,"MET11505/31/20 04:51:02 METAR KRDU 310951Z 03006KT 10SM FEW018 FEW090 SCT250 18/14 A3003 RMK AO2 SLP163 T01780139 $ (SMK)","FM-15","7",,,,,,,,,,,,,,,,,,,,,,,,,,,,"2009-07-08"
"72306013722","2020-05-31T05:51:00","FM-15","7",,,,,,,,,,,,,,,,,,,,,,,,,,,,,,,,,,,,,,"30.07","60","66","0.00",,,,"81","30.05","SCT:04 20 BKN:07 32 BKN:07 90","29.60","10.00","62","040",,"11",,,,,,,,,,,,,,,,,,,,,,,,,,,,,,,,,,,,,"MET11505/31/20 05:51:02 METAR KRDU 311051Z 04010KT 10SM SCT020 BKN032 BKN090 19/16 A3007 RMK AO2 SLP177 T01890156 $ (SMK)","FM-15","7",,,,,,,,,,,,,,,,,,,,,,,,,,,,"2009-07-08"
"72306013722","2020-05-31T06:51:00","FM-15","7",,,,,,,,,,,,,,,,,,,,,,,,,,,,,,,,,,,,,,"30.09","56","67","0.00",,"-0.08","3","68","30.08","BKN:07 85 BKN:07 250","29.62","10.00","61","060",,"10",,,,,,,,,,,,,,,,,,,,,,,,,,,,,,,,,,,,,"MET12505/31/20 06:51:02 METAR KRDU 311151Z 06009KT 10SM BKN085 BKN250 19/13 A3009 RMK AO2 SLP185 T01940133 10194 20178 53026 $ (RP)","FM-15","7",,,,,,,,,,,,,,,,,,,,,,,,,,,,"2009-07-08"
"72306013722","2020-05-31T07:00:00","FM-12","4",,,,,,,,,,,,,,,,,,,,,,,,,,,,,,,,,,,,,,,"56","67",,,"-0.08","3","68","30.08",,"29.63","9.94","61","060",,"10",,,,,,,,,,,,,,,,,,,,,,,,,,,,,,,,,,,,,"SYN08072306 32966 60609 10194 20133 30033 40185 53026 91151 333 10311 20178 555 93112=","FM-12","4",,,,,,,,,,,,,,,,,,,,,,,,,,,,"2009-07-08"
"72306013722","2020-05-31T07:51:00","FM-15","7",,,,,,,,,,,,,,,,,,,,,,,,,,,,,,,,,,,,,,"30.13","56","67","0.00",,,,"68","30.11","SCT:04 40 BKN:07 85 BKN:07 250","29.66","10.00","61","060",,"13",,,,,,,,,,,,,,,,,,,,,,,,,,,,,,,,,,,,,"MET11405/31/20 07:51:02 METAR KRDU 311251Z 06011KT 10SM SCT040 BKN085 BKN250 19/13 A3013 RMK AO2 SLP198 T01940133 $ (RP)","FM-15","7",,,,,,,,,,,,,,,,,,,,,,,,,,,,"2009-07-08"
"72306013722","2020-05-31T08:51:00","FM-15","7",,,,,,,,,,,,,,,,,,,,,,,,,,,,,,,,,,,,,,"30.15","49","67","0.00",,,,"53","30.14","BKN:07 65 BKN:07 85 BKN:07 110","29.68","10.00","57","030","23","10",,,,,,,,,,,,,,,,,,,,,,,,,,,,,,,,,,,,,"MET11705/31/20 08:51:02 METAR KRDU 311351Z 03009G20KT 10SM BKN065 BKN085 BKN110 19/09 A3015 RMK AO2 SLP206 T01940094 $ (RP)","FM-15","7",,,,,,,,,,,,,,,,,,,,,,,,,,,,"2009-07-08"
"72306013722","2020-05-31T09:51:00","FM-15","7",,,,,,,,,,,,,,,,,,,,,,,,,,,,,,,,,,,,,,"30.16","48","70","0.00",,"-0.06","1","46","30.14","FEW:02 65 BKN:07 90 BKN:07 250","29.69","10.00","58","050","22","13",,,,,,,,,,,,,,,,,,,,,,,,,,,,,,,,,,,,,"MET12305/31/20 09:51:02 METAR KRDU 311451Z 05011G19KT 10SM FEW065 BKN090 BKN250 21/09 A3016 RMK AO2 SLP207 T02110089 51022 $ (RP)","FM-15","7",,,,,,,,,,,,,,,,,,,,,,,,,,,,"2009-07-08"
"72306013722","2020-05-31T10:51:00","FM-15","7",,,,,,,,,,,,,,,,,,,,,,,,,,,,,,,,,,,,,,"30.16","48","71","0.00",,,,"44","30.14","FEW:02 70 BKN:07 90 BKN:07 250","29.69","10.00","58","080","20","13",,,,,,,,,,,,,,,,,,,,,,,,,,,,,,,,,,,,,"MET11705/31/20 10:51:02 METAR KRDU 311551Z 08011G17KT 10SM FEW070 BKN090 BKN250 22/09 A3016 RMK AO2 SLP208 T02170089 $ (RP)","FM-15","7",,,,,,,,,,,,,,,,,,,,,,,,,,,,"2009-07-08"
"72306013722","2020-05-31T11:51:00","FM-15","7",,,,,,,,,,,,,,,,,,,,,,,,,,,,,,,,,,,,,,"30.15","48","70","0.00",,,,"46","30.14","FEW:02 60 BKN:07 75 BKN:07 90","29.68","10.00","58","030",,"8",,,,,,,,,,,,,,,,,,,,,,,,,,,,,,,,,,,,,"MET11405/31/20 11:51:02 METAR KRDU 311651Z 03007KT 10SM FEW060 BKN075 BKN090 21/09 A3015 RMK AO2 SLP206 T02110089 $ (RP)","FM-15","7",,,,,,,,,,,,,,,,,,,,,,,,,,,,"2009-07-08"
"72306013722","2020-05-31T12:51:00","FM-15","7",,,,,,,,,,,,,,,,,,,,,,,,,,,,,,,,,,,,,,"30.15","48","72","0.00",,"+0.01","8","43","30.13","BKN:07 90 BKN:07 250","29.68","10.00","59","VRB",,"9",,,,,,,,,,,,,,,,,,,,,,,,,,,,,,,,,,,,,"MET12505/31/20 12:51:02 METAR KRDU 311751Z 03008KT 10SM BKN090 BKN250 22/09 A3015 RMK AO2 SLP204 T02220089 10228 20189 58003 $ (RP)","FM-15","7",,,,,,,,,,,,,,,,,,,,,,,,,,,,"2009-07-08"
"72306013722","2020-05-31T13:00:00","FM-12","4",,,,,,,,,,,,,,,,,,,,,,,,,,,,,,,,,,,,,,,"48","72",,,"+0.01","8","43","30.13",,"29.69","9.94","59","030",,"9",,,,,,,,,,,,,,,,,,,,,,,,,,,,,,,,,,,,,"SYN08072306 32966 60308 10222 20089 30053 40204 58003 91751 333 10228 20189 555 93118=","FM-12","4",,,,,,,,,,,,,,,,,,,,,,,,,,,,"2009-07-08"
"72306013722","2020-05-31T13:51:00","FM-15","7",,,,,,,,,,,,,,,,,,,,,,,,,,,,,,,,,,,,,,"30.12","51","74","0.00",,,,"45","30.11","SCT:04 90 BKN:07 250","29.65","10.00","61","060",,"7",,,,,,,,,,,,,,,,,,,,,,,,,,,,,,,,,,,,,"MET10705/31/20 13:51:02 METAR KRDU 311851Z 06006KT 10SM SCT090 BKN250 23/11 A3012 RMK AO2 SLP197 T02330106 $ (RP)","FM-15","7",,,,,,,,,,,,,,,,,,,,,,,,,,,,"2009-07-08"
"72306013722","2020-05-31T14:51:00","FM-15","7",,,,,,,,,,,,,,,,,,,,,,,,,,,,,,,,,,,,,,"30.11","53","75","0.00",,,,"46","30.10","FEW:02 80 SCT:04 200","29.64","10.00","62","040",,"7",,,,,,,,,,,,,,,,,,,,,,,,,,,,,,,,,,,,,"MET10705/31/20 14:51:02 METAR KRDU 311951Z 04006KT 10SM FEW080 SCT200 24/12 A3011 RMK AO2 SLP192 T02390117 $ (HA)","FM-15","7",,,,,,,,,,,,,,,,,,,,,,,,,,,,"2009-07-08"
"72306013722","2020-05-31T15:51:00","FM-15","7",,,,,,,,,,,,,,,,,,,,,,,,,,,,,,,,,,,,,,"30.10","51","75","0.00",,"+0.05","6","43","30.09","SCT:04 55 SCT:04 200","29.63","10.00","61","060","16","7",,,,,,,,,,,,,,,,,,,,,,,,,,,,,,,,,,,,,"MET11605/31/20 15:51:02 METAR KRDU 312051Z 06006G14KT 10SM SCT055 SCT200 24/11 A3010 RMK AO2 SLP188 T02390106 56016 $ (HA)","FM-15","7",,,,,,,,,,,,,,,,,,,,,,,,,,,,"2009-07-08"
"72306013722","2020-05-31T16:51:00","FM-15","7",,,,,,,,,,,,,,,,,,,,,,,,,,,,,,,,,,,,,,"30.09","51","75","0.00",,,,"43","30.08","SCT:04 60 SCT:04 200","29.62","10.00","61","060",,"9",,,,,,,,,,,,,,,,,,,,,,,,,,,,,,,,,,,,,"MET10705/31/20 16:51:02 METAR KRDU 312151Z 06008KT 10SM SCT060 SCT200 24/11 A3009 RMK AO2 SLP186 T02390106 $ (HA)","FM-15","7",,,,,,,,,,,,,,,,,,,,,,,,,,,,"2009-07-08"
"72306013722","2020-05-31T17:51:00","FM-15","7",,,,,,,,,,,,,,,,,,,,,,,,,,,,,,,,,,,,,,"30.09","51","75","0.00",,,,"43","30.07","FEW:02 55","29.62","10.00","61","050",,"8",,,,,,,,,,,,,,,,,,,,,,,,,,,,,,,,,,,,,"MET10005/31/20 17:51:02 METAR KRDU 312251Z 05007KT 10SM FEW055 24/11 A3009 RMK AO2 SLP184 T02390106 $ (HA)","FM-15","7",,,,,,,,,,,,,,,,,,,,,,,,,,,,"2009-07-08"
"72306013722","2020-05-31T18:51:00","FM-15","7",,,,,,,,,,,,,,,,,,,,,,,,,,,,,,,,,,,,,,"30.10","51","73","0.00",,"-0.00","3","46","30.09","FEW:02 55","29.63","10.00","60","090",,"7",,,,,,,,,,,,,,,,,,,,,,,,,,,,,,,,,,,,,"MET11805/31/20 18:51:02 METAR KRDU 312351Z 09006KT 10SM FEW055 23/11 A3010 RMK AO2 SLP188 T02280106 10250 20217 53000 $ (HA)","FM-15","7",,,,,,,,,,,,,,,,,,,,,,,,,,,,"2009-07-08"
"72306013722","2020-05-31T19:00:00","FM-12","4",,,,,,,,,,,,,,,,,,,,,,,,,,,,,,,,,,,,,,,"51","73",,,,,"46","30.09","57","29.64","9.94","60","090",,"7",,,,,,,,,,,,,,,,,,,,,,,,,,,,,,,,,,,,,"SYN08072306 32766 20906 10228 20106 30037 40188 53000 92351 333 10250 20189 555 90100=","FM-12","4",,,,,,,,,,,,,,,,,,,,,,,,,,,,"2009-07-08"
"72306013722","2020-05-31T19:51:00","FM-15","7",,,,,,,,,,,,,,,,,,,,,,,,,,,,,,,,,,,,,,"30.10","55","67","0.00",,,,"66","30.10","FEW:02 55 FEW:02 250","29.63","10.00","60","000",,"0",,,,,,,,,,,,,,,,,,,,,,,,,,,,,,,,,,,,,"MET10705/31/20 19:51:03 METAR KRDU 010051Z 00000KT 10SM FEW055 FEW250 19/13 A3010 RMK AO2 SLP192 T01940128 $ (HA)","FM-15","7",,,,,,,,,,,,,,,,,,,,,,,,,,,,"2009-07-08"
"72306013722","2020-05-31T20:51:00","FM-15","7",,,,,,,,,,,,,,,,,,,,,,,,,,,,,,,,,,,,,,"30.13","55","61","0.00",,,,"81","30.12","FEW:02 55 FEW:02 250","29.66","10.00","58","000",,"0",,,,,,,,,,,,,,,,,,,,,,,,,,,,,,,,,,,,,"MET10705/31/20 20:51:03 METAR KRDU 010151Z 00000KT 10SM FEW055 FEW250 16/13 A3013 RMK AO2 SLP200 T01610128 $ (HA)","FM-15","7",,,,,,,,,,,,,,,,,,,,,,,,,,,,"2009-07-08"
"72306013722","2020-05-31T21:51:00","FM-15","7",,,,,,,,,,,,,,,,,,,,,,,,,,,,,,,,,,,,,,"30.14","55","59","0.00",,"-0.04","3","87","30.13","FEW:02 55 FEW:02 250","29.67","10.00","57","000",,"0",,,,,,,,,,,,,,,,,,,,,,,,,,,,,,,,,,,,,"MET11305/31/20 21:51:03 METAR KRDU 010251Z 00000KT 10SM FEW055 FEW250 15/13 A3014 RMK AO2 SLP204 T01500128 53014 $ (HA)","FM-15","7",,,,,,,,,,,,,,,,,,,,,,,,,,,,"2009-07-08"
"72306013722","2020-05-31T22:51:00","FM-15","7",,,,,,,,,,,,,,,,,,,,,,,,,,,,,,,,,,,,,,"30.15","55","61","0.00",,,,"81","30.14","FEW:02 55 FEW:02 250","29.68","10.00","58","090",,"3",,,,,,,,,,,,,,,,,,,,,,,,,,,,,,,,,,,,,"MET10805/31/20 22:51:03 METAR KRDU 010351Z 09003KT 10SM FEW055 FEW250 16/13 A3015 RMK AO2 SLP208 T01610128 $ (SMK)","FM-15","7",,,,,,,,,,,,,,,,,,,,,,,,,,,,"2009-07-08"
"72306013722","2020-05-31T23:51:00","FM-15","7",,,,,,,,,,,,,,,,,,,,,,,,,,,,,,,,,,,,,,"30.17","54","57","0.00",,,,"90","30.16","FEW:02 55 FEW:02 250","29.70","10.00","55","000",,"0",,,,,,,,,,,,,,,,,,,,,,,,,,,,,,,,,,,,,"MET11805/31/20 23:51:03 METAR KRDU 010451Z 00000KT 10SM FEW055 FEW250 14/12 A3017 RMK AO2 SLP213 T01390122 402500139 $ (SMK)","FM-15","7",,,,,,,,,,,,,,,,,,,,,,,,,,,,"2009-07-08"
"72306013722","2020-05-31T23:59:00","SOD  ","6",,,,,,,,,,,,,,,,"67",,,"29.60",,"6.7","2","-5.3","0","77","57","050","28","0.00","0","0.0","050","20",,,,,,,,,,,,,,,,,,,,,,,,,,,,,,,,,,,,,,,,,,,,,,,,,,,,,,,,,"SOD73924 HR PRECIPITATION (IN): 0.00 SNOW DEPTH (IN):0     24 HR SNOWFALL (IN):0.0  24 HR MAX TEMP (F): 7724 HR MIN TEMP (F): 57AVERAGE STATION PRESSURE:29.605 MINIMUM SEA LEVEL PRESSURE:29.61 TIME OF OCCURRENCE:0254 PEAK WIND SPEED (MPH): 28 PEAK WIND DIR (DEG): 50 PEAK WIND TIME (LST):      FASTEST 2MIN SPEED (MPH): 20FASTEST 2MIN DIR (DEG): 50 FASTEST 2MIN TIME (LST):     AVERAGE WIND SPEED (MPH): 6.7 24 HR AVG TEMP (F): 67DEPART FROM NORMAL: -5  HEATING DEGREE DAYS:  0 COOLING DEGREE DAYS:  2 LATEST DAY MAX TEMP (0700-1900 LST):77  LATEST NIGHT MIN TEMP(1900-0800 LST):64 HOURLY INCREMENTAL PRECIPITATION VALUES (IN):.00 0.00 0.00 0.00 0.00 0.00 0.00 0.00 0.00 0.00 0.00 0.00 0.00 0.00 0.00 0.00 0.00 0.00 0.00 0.00 0.00 0.00 0.00 0.00","SOD  ","6",,,,,,,,,,,,,,,,,,,,,,,,,"0500","1926",,"2009-07-08"
"72306013722","2020-05-31T23:59:00","SOM  ","6","7.2",,,,,,,,,,,"202","120","0",,,,,,,,,,,,,,,,,,,,,"2747","110",,,,,,,,,,,,,,,,,,,"12","7","0","0","0","0","-2.7","-28","56","-4.0","-1.5","1.99",,"1.89","20-21","0",,"0.0",,"30.38","13","1045","75.6","65.3","29.70","04","0057","55.0","30.04","29.57","5.26",,,"148","54","SOM797PCP MTOT:5.26 PCP GT 24HRS:1.89 DATE(S):20-21 DAYS W/PCP >=.01:12 DAYS W/PCP >=.10:7  DAYS W/ PCP >=.50:5 DAYS W/PCP >=1.00:1 MSDP AMTS W/DATE-TIME TAGS:MIN:5 0.19  28/0514 MIN:10 0.29  28/0514 MIN:15 0.39  28/0516 MIN:20 0.47  28/0516 MIN:30 0.51  28/0520 MIN:45 0.53  28/0532 MIN:60 0.54  28/0532 MIN:80 0.54  28/0532 MIN:100 0.56  28/0532 MIN:120 0.66  20/2259 MIN:150 0.80  20/2326 MIN:180 0.92  20/2326 AVG DLY MIN:55.0  AVG DLY MAX:75.6  AVG MLY TMP:65.3  MIN TMP:36 DATE(S):10 MAX TMP:89  DATE(S):16 DAYS MAX <=32:0 DAYS MAX >=90:0  DAYS MIN <=32:0  DAYS MIN  <=0:0  AVG STP:29.575 LWST SLP:29.70 DATE/TIME:040057 HGST SLP:30.38 DATE/TIME:131045 HDD MTH TOT:107 DEP NORM:-2553 SEASON(JUL 1-JUN 30):2708 DEP NORM:-25536 CDD MTH TOT:124 DEP NORM:-2553 SEASON(JAN 1-DEC 31):211 DEP NORM:-25536","SOM  ","6","2020-05-28 05:14","2020-05-28 05:14","2020-05-28 05:16","2020-05-28 05:16","2020-05-28 05:20","2020-05-28 05:32","2020-05-28 05:32","2020-05-28 05:32","2020-05-28 05:32","2020-05-20 22:59","2020-05-20 23:26","2020-05-20 23:26","0.19","0.29","0.39","0.47","0.51","0.53","0.54","0.54","0.56","0.66","0.80","0.92",,,,"2009-07-08"
"72306013722","2020-06-01T00:51:00","FM-15","7",,,,,,,,,,,,,,,,,,,,,,,,,,,,,,,,,,,,,,"30.17","54","57","0.00",,"-0.03","1","90","30.16","FEW:02 55 FEW:02 250","29.70","10.00","55","000",,"0",,,,,,,,,,,,,,,,,,,,,,,,,,,,,,,,,,,,,"MET12606/01/20 00:51:02 METAR KRDU 010551Z 00000KT 10SM FEW055 FEW250 14/12 A3017 RMK AO2 SLP215 T01390122 10228 20133 51011 $ (SMK)","FM-15","7",,,,,,,,,,,,,,,,,,,,,,,,,,,,"2009-07-08"
"72306013722","2020-06-01T01:00:00","FM-12","4",,,,,,,,,,,,,,,,,,,,,,,,,,,,,,,,,,,,,,,"54","57",,,"-0.03","1","90","30.16","57","29.71","9.94","55","000",,"0",,,,,,,,,,,,,,,,,,,,,,,,,,,,,,,,,,,,,"SYN08072306 32766 20000 10139 20122 30060 40215 51011 90551 333 10228 20133 555 90106=","FM-12","4",,,,,,,,,,,,,,,,,,,,,,,,,,,,"2009-07-08"
"72306013722","2020-06-01T01:51:00","FM-15","7",,,,,,,,,,,,,,,,,,,,,,,,,,,,,,,,,,,,,,"30.18","54","57","0.00",,,,"90","30.17","FEW:02 250","29.71","10.00","55","000",,"0",,,,,,,,,,,,,,,,,,,,,,,,,,,,,,,,,,,,,"MET10106/01/20 01:51:02 METAR KRDU 010651Z 00000KT 10SM FEW250 14/12 A3018 RMK AO2 SLP216 T01390122 $ (SMK)","FM-15","7",,,,,,,,,,,,,,,,,,,,,,,,,,,,"2009-07-08"
"72306013722","2020-06-01T02:51:00","FM-15","7",,,,,,,,,,,,,,,,,,,,,,,,,,,,,,,,,,,,,,"30.18","54","58","0.00",,,,"87","30.17","FEW:02 250","29.71","10.00","56","000",,"0",,,,,,,,,,,,,,,,,,,,,,,,,,,,,,,,,,,,,"MET10106/01/20 02:51:02 METAR KRDU 010751Z 00000KT 10SM FEW250 14/12 A3018 RMK AO2 SLP217 T01440122 $ (SMK)","FM-15","7",,,,,,,,,,,,,,,,,,,,,,,,,,,,"2009-07-08"
"72306013722","2020-06-01T03:51:00","FM-15","7",,,,,,,,,,,,,,,,,,,,,,,,,,,,,,,,,,,,,,"30.20","57","57","0.00",,"-0.02","3","100","30.19","FEW:02 4 FEW:02 250","29.73","10.00","57","030",,"7",,,,,,,,,,,,,,,,,,,,,,,,,,,,,,,,,,,,,"MET11406/01/20 03:51:02 METAR KRDU 010851Z 03006KT 10SM FEW004 FEW250 14/14 A3020 RMK AO2 SLP223 T01390139 53008 $ (SMK)","FM-15","7",,,,,,,,,,,,,,,,,,,,,,,,,,,,"2009-07-08"
"72306013722","2020-06-01T04:51:00","FM-15","7",,,,,,,,,,,,,,,,,,,,,,,,,,,,,,,,,,,,,,"30.22","52","57","0.00",,,,"83","30.22","FEW:02 80 FEW:02 250","29.75","10.00","54","040",,"8",,,,,,,,,,,,,,,,,,,,,,,,,,,,,,,,,,,,,"MET10806/01/20 04:51:02 METAR KRDU 010951Z 04007KT 10SM FEW080 FEW250 14/11 A3022 RMK AO2 SLP232 T01390111 $ (SMK)","FM-15","7",,,,,,,,,,,,,,,,,,,,,,,,,,,,"2009-07-08"
"72306013722","2020-06-01T05:51:00","FM-15","7",,,,,,,,,,,,,,,,,,,,,,,,,,,,,,,,,,,,,,"30.26","50","58","0.00",,,,"75","30.25","FEW:02 55","29.79","10.00","54","050",,"9",,,,,,,,,,,,,,,,,,,,,,,,,,,,,,,,,,,,,"MET09906/01/20 05:51:02 METAR KRDU 011051Z 05008KT 10SM FEW055 14/10 A3026 RMK AO2 SLP244 T01440100 (SMK)","FM-15","7",,,,,,,,,,,,,,,,,,,,,,,,,,,,"2009-07-08"
"72306013722","2020-06-01T06:51:00","FM-15","7",,,,,,,,,,,,,,,,,,,,,,,,,,,,,,,,,,,,,,"30.27","48","60","0.00",,"-0.08","1","65","30.27","FEW:02 60 FEW:02 250","29.80","10.00","54","050",,"9",,,,,,,,,,,,,,,,,,,,,,,,,,,,,,,,,,,,,"MET12406/01/20 06:51:02 METAR KRDU 011151Z 05008KT 10SM FEW060 FEW250 16/09 A3027 RMK AO2 SLP249 T01560089 10156 20133 51026 (KAH)","FM-15","7",,,,,,,,,,,,,,,,,,,,,,,,,,,,"2009-07-08"
"72306013722","2020-06-01T07:00:00","FM-12","4",,,,,,,,,,,,,,,,,,,,,,,,,,,,,,,,,,,,,,,"48","60",,,"-0.08","1","65","30.27","57","29.80","9.94","54","050",,"9",,,,,,,,,,,,,,,,,,,,,,,,,,,,,,,,,,,,,"SYN08072306 32766 20508 10156 20089 30093 40249 51026 91151 333 10250 20133 555 90112=","FM-12","4",,,,,,,,,,,,,,,,,,,,,,,,,,,,"2009-07-08"
"72306013722","2020-06-01T07:51:00","FM-15","7",,,,,,,,,,,,,,,,,,,,,,,,,,,,,,,,,,,,,,"30.30","44","63","0.00",,,,"50","30.29","FEW:02 60 FEW:02 250","29.83","10.00","53","040","21","13",,,,,,,,,,,,,,,,,,,,,,,,,,,,,,,,,,,,,"MET10906/01/20 07:51:02 METAR KRDU 011251Z 04011G18KT 10SM FEW060 FEW250 17/07 A3030 RMK AO2 SLP258 T01720067 (KAH)","FM-15","7",,,,,,,,,,,,,,,,,,,,,,,,,,,,"2009-07-08"
"72306013722","2020-06-01T08:51:00","FM-15","7",,,,,,,,,,,,,,,,,,,,,,,,,,,,,,,,,,,,,,"30.31","45","66","0.00",,,,"47","30.30","FEW:02 60 FEW:02 250","29.84","10.00","55","050",,"9",,,,,,,,,,,,,,,,,,,,,,,,,,,,,,,,,,,,,"MET10606/01/20 08:51:02 METAR KRDU 011351Z 05008KT 10SM FEW060 FEW250 19/07 A3031 RMK AO2 SLP262 T01890072 (KAH)","FM-15","7",,,,,,,,,,,,,,,,,,,,,,,,,,,,"2009-07-08"
"72306013722","2020-06-01T09:51:00","FM-15","7",,,,,,,,,,,,,,,,,,,,,,,,,,,,,,,,,,,,,,"30.32","45","68","0.00",,"-0.04","1","44","30.31","FEW:02 60 FEW:02 250","29.85","10.00","56","070",,"9",,,,,,,,,,,,,,,,,,,,,,,,,,,,,,,,,,,,,"MET11206/01/20 09:51:02 METAR KRDU 011451Z 07008KT 10SM FEW060 FEW250 20/07 A3032 RMK AO2 SLP264 T02000072 51015 (KAH)","FM-15","7",,,,,,,,,,,,,,,,,,,,,,,,,,,,"2009-07-08"
"72306013722","2020-06-01T10:51:00","FM-15","7",,,,,,,,,,,,,,,,,,,,,,,,,,,,,,,,,,,,,,"30.32","46","70","0.00",,,,"42","30.31","FEW:02 60 FEW:02 250","29.85","10.00","57","050",,"10",,,,,,,,,,,,,,,,,,,,,,,,,,,,,,,,,,,,,"MET10606/01/20 10:51:02 METAR KRDU 011551Z 05009KT 10SM FEW060 FEW250 21/08 A3032 RMK AO2 SLP264 T02110078 (KAH)","FM-15","7",,,,,,,,,,,,,,,,,,,,,,,,,,,,"2009-07-08"
"72306013722","2020-06-01T11:51:00","FM-15","7",,,,,,,,,,,,,,,,,,,,,,,,,,,,,,,,,,,,,,"30.31","46","72","0.00",,,,"40","30.30","FEW:02 60 FEW:02 250","29.84","10.00","58","VRB",,"5",,,,,,,,,,,,,,,,,,,,,,,,,,,,,,,,,,,,,"MET10606/01/20 11:51:02 METAR KRDU 011651Z VRB04KT 10SM FEW060 FEW250 22/08 A3031 RMK AO2 SLP260 T02220078 (KAH)","FM-15","7",,,,,,,,,,,,,,,,,,,,,,,,,,,,"2009-07-08"
"72306013722","2020-06-01T12:51:00","FM-15","7",,,,,,,,,,,,,,,,,,,,,,,,,,,,,,,,,,,,,,"30.29","47","73","0.00",,"+0.03","8","40","30.28","FEW:02 60 FEW:02 250","29.82","10.00","59","050",,"6",,,,,,,,,,,,,,,,,,,,,,,,,,,,,,,,,,,,,"MET12406/01/20 12:51:02 METAR KRDU 011751Z 05005KT 10SM FEW060 FEW250 23/08 A3029 RMK AO2 SLP254 T02280083 10228 20156 58009 (KAH)","FM-15","7",,,,,,,,,,,,,,,,,,,,,,,,,,,,"2009-07-08"
"72306013722","2020-06-01T13:00:00","FM-12","4",,,,,,,,,,,,,,,,,,,,,,,,,,,,,,,,,,,,,,,"47","73",,,"+0.03","8","40","30.28","57","29.83","9.94","59","050",,"6",,,,,,,,,,,,,,,,,,,,,,,,,,,,,,,,,,,,,"SYN08072306 32766 20505 10228 20083 30100 40254 58009 91751 333 10228 20156 555 90118=","FM-12","4",,,,,,,,,,,,,,,,,,,,,,,,,,,,"2009-07-08"
"72306013722","2020-06-01T13:51:00","FM-15","7",,,,,,,,,,,,,,,,,,,,,,,,,,,,,,,,,,,,,,"30.26","50","76","0.00",,,,"40","30.25","FEW:02 60 FEW:02 250","29.79","10.00","61","230",,"5",,,,,,,,,,,,,,,,,,,,,,,,,,,,,,,,,,,,,"MET10606/01/20 13:51:02 METAR KRDU 011851Z 23004KT 10SM FEW060 FEW250 24/10 A3026 RMK AO2 SLP245 T02440100 (KAH)","FM-15","7",,,,,,,,,,,,,,,,,,,,,,,,,,,,"2009-07-08"
"72306013722","2020-06-01T14:51:00","FM-15","7",,,,,,,,,,,,,,,,,,,,,,,,,,,,,,,,,,,,,,"30.25","47","75","0.00",,,,"37","30.24","FEW:02 60 FEW:02 250","29.78","10.00","59","260",,"6",,,,,,,,,,,,,,,,,,,,,,,,,,,,,,,,,,,,,"MET10606/01/20 14:51:02 METAR KRDU 011951Z 26005KT 10SM FEW060 FEW250 24/08 A3025 RMK AO2 SLP239 T02390083 (JBA)","FM-15","7",,,,,,,,,,,,,,,,,,,,,,,,,,,,"2009-07-08"
"72306013722","2020-06-01T15:51:00","FM-15","7",,,,,,,,,,,,,,,,,,,,,,,,,,,,,,,,,,,,,,"30.23","47","76","0.00",,"+0.06","6","36","30.22","FEW:02 60 FEW:02 250","29.76","10.00","60","000",,"0",,,,,,,,,,,,,,,,,,,,,,,,,,,,,,,,,,,,,"MET11206/01/20 15:51:02 METAR KRDU 012051Z 00000KT 10SM FEW060 FEW250 24/08 A3023 RMK AO2 SLP234 T02440083 56020 (JBA)","FM-15","7",,,,,,,,,,,,,,,,,,,,,,,,,,,,"2009-07-08"
"72306013722","2020-06-01T16:51:00","FM-15","7",,,,,,,,,,,,,,,,,,,,,,,,,,,,,,,,,,,,,,"30.21","45","75","0.00",,,,"34","30.20","FEW:02 60 SCT:04 250","29.74","10.00","59","000",,"0",,,,,,,,,,,,,,,,,,,,,,,,,,,,,,,,,,,,,"MET10606/01/20 16:51:02 METAR KRDU 012151Z 00000KT 10SM FEW060 SCT250 24/07 A3021 RMK AO2 SLP228 T02390072 (JBA)","FM-15","7",,,,,,,,,,,,,,,,,,,,,,,,,,,,"2009-07-08"
"72306013722","2020-06-01T17:51:00","FM-15","7",,,,,,,,,,,,,,,,,,,,,,,,,,,,,,,,,,,,,,"30.21","48","74","0.00",,,,"40","30.20","FEW:02 60 SCT:04 250","29.74","10.00","59","250",,"5",,,,,,,,,,,,,,,,,,,,,,,,,,,,,,,,,,,,,"MET10606/01/20 17:51:02 METAR KRDU 012251Z 25004KT 10SM FEW060 SCT250 23/09 A3021 RMK AO2 SLP226 T02330089 (JBA)","FM-15","7",,,,,,,,,,,,,,,,,,,,,,,,,,,,"2009-07-08"
"72306013722","2020-06-01T18:51:00","FM-15","7",,,,,,,,,,,,,,,,,,,,,,,,,,,,,,,,,,,,,,"30.21","50","68","0.00",,"+0.02","5","53","30.20","FEW:02 60 SCT:04 250","29.74","10.00","58","250",,"6",,,,,,,,,,,,,,,,,,,,,,,,,,,,,,,,,,,,,"MET12406/01/20 18:51:02 METAR KRDU 012351Z 25005KT 10SM FEW060 SCT250 20/10 A3021 RMK AO2 SLP228 T02000100 10250 20200 55006 (JBA)","FM-15","7",,,,,,,,,,,,,,,,,,,,,,,,,,,,"2009-07-08"
"72306013722","2020-06-01T19:00:00","FM-12","4",,,,,,,,,,,,,,,,,,,,,,,,,,,,,,,,,,,,,,,"50","68",,,"+0.02","5","53","30.20","57","29.75","9.94","58","250",,"6",,,,,,,,,,,,,,,,,,,,,,,,,,,,,,,,,,,,,"SYN08072306 32766 42505 10200 20100 30073 40228 55006 92351 333 10250 20133 555 90200=","FM-12","4",,,,,,,,,,,,,,,,,,,,,,,,,,,,"2009-07-08"
"72306013722","2020-06-01T19:51:00","FM-15","7",,,,,,,,,,,,,,,,,,,,,,,,,,,,,,,,,,,,,,"30.21","52","63","0.00",,,,"68","30.20","BKN:07 250","29.74","10.00","57","000",,"0",,,,,,,,,,,,,,,,,,,,,,,,,,,,,,,,,,,,,"MET09306/01/20 19:51:01 METAR KRDU 020051Z 00000KT 10SM BKN250 17/11 A3021 RMK AO2 SLP228 T01720111","FM-15","7",,,,,,,,,,,,,,,,,,,,,,,,,,,,"2009-07-08"
"72306013722","2020-06-01T20:51:00","FM-15","7",,,,,,,,,,,,,,,,,,,,,,,,,,,,,,,,,,,,,,"30.22","51","63","0.00",,,,"65","30.22","BKN:07 250","29.75","10.00","56","000",,"0",,,,,,,,,,,,,,,,,,,,,,,,,,,,,,,,,,,,,"MET09306/01/20 20:51:01 METAR KRDU 020151Z 00000KT 10SM BKN250 17/11 A3022 RMK AO2 SLP232 T01720106","FM-15","7",,,,,,,,,,,,,,,,,,,,,,,,,,,,"2009-07-08"
"72306013722","2020-06-01T21:51:00","FM-15","7",,,,,,,,,,,,,,,,,,,,,,,,,,,,,,,,,,,,,,"30.23","51","59","0.00",,"-0.02","3","75","30.22","FEW:02 250","29.76","10.00","55","000",,"0",,,,,,,,,,,,,,,,,,,,,,,,,,,,,,,,,,,,,"MET09906/01/20 21:51:02 METAR KRDU 020251Z 00000KT 10SM FEW250 15/11 A3023 RMK AO2 SLP235 T01500106 53008","FM-15","7",,,,,,,,,,,,,,,,,,,,,,,,,,,,"2009-07-08"
"72306013722","2020-06-01T22:51:00","FM-15","7",,,,,,,,,,,,,,,,,,,,,,,,,,,,,,,,,,,,,,"30.23","50","57","0.00",,,,"78","30.23","FEW:02 250","29.76","10.00","53","000",,"0",,,,,,,,,,,,,,,,,,,,,,,,,,,,,,,,,,,,,"MET09306/01/20 22:51:02 METAR KRDU 020351Z 00000KT 10SM FEW250 14/10 A3023 RMK AO2 SLP236 T01390100","FM-15","7",,,,,,,,,,,,,,,,,,,,,,,,,,,,"2009-07-08"
"72306013722","2020-06-01T23:51:00","FM-15","7",,,,,,,,,,,,,,,,,,,,,,,,,,,,,,,,,,,,,,"30.23","51","57","0.00",,,,"81","30.22","FEW:02 250","29.76","10.00","54","000",,"0",,,,,,,,,,,,,,,,,,,,,,,,,,,,,,,,,,,,,"MET10306/01/20 23:51:02 METAR KRDU 020451Z 00000KT 10SM FEW250 14/11 A3023 RMK AO2 SLP233 T01390106 402500122","FM-15","7",,,,,,,,,,,,,,,,,,,,,,,,,,,,"2009-07-08"
"72306013722","2020-06-01T23:59:00","SOD  ","6",,,,,,,,,,,,,,,"49","66","61","30.23","29.76","56","4.4","1","-6.6","0","77","54","040","22","0.00","0","0.0","030","16",,,,,,,,,,,,,,,,,,,,,,,,,,,,,,,,,,,,,,,,,,,,,,,,,,,,,,,,,"SOD75624 HR PRECIPITATION (IN): 0.00 SNOW DEPTH (IN):0     24 HR SNOWFALL (IN):0.0  WEATHER(CODE):1  24 HR MAX TEMP (F): 7724 HR MIN TEMP (F): 54AVERAGE STATION PRESSURE:29.760 MINIMUM SEA LEVEL PRESSURE:30.16 TIME OF OCCURRENCE:0224 PEAK WIND SPEED (MPH): 22 PEAK WIND DIR (DEG): 40 PEAK WIND TIME (LST):      FASTEST 2MIN SPEED (MPH): 16FASTEST 2MIN DIR (DEG): 30 FASTEST 2MIN TIME (LST):     AVERAGE WIND SPEED (MPH): 4.4 24 HR AVG TEMP (F): 66DEPART FROM NORMAL: -7  HEATING DEGREE DAYS:  0 COOLING DEGREE DAYS:  1 LATEST DAY MAX TEMP (0700-1900 LST):77  LATEST NIGHT MIN TEMP(1900-0800 LST):56 HOURLY INCREMENTAL PRECIPITATION VALUES (IN):.00 0.00 0.00 0.00 0.00 0.00 0.00 0.00 0.00 0.00 0.00 0.00 0.00 0.00 0.00 0.00 0.00 0.00 0.00 0.00 0.00 0.00 0.00 0.00","SOD  ","6",,,,,,,,,,,,,,,,,,,,,,,,,"0500","1927",,"2009-07-08"
